POC Name ,Address ,Postal Code ,Latitude,Longitude
JACK ASTORS,"660 Richmond Street, Unit 10, LONDON, ONTARIO,  N6A 3G8", N6A 3G8,42.9927706,-81.2517536
Riverside Lounge,"Main Road, Mount Carmel Newfoundland, A0B 2M0",A0B 2M0,47.154703,-53.472874
Fog City,"48 Kenmount Road, Saint John's Newfoundland, A1B 3P8",A1B 3P8,47.5606724,-52.7536061
MONTANA'S COOKHOUSE,"80 KENMOUNT RD, ST. JOHNS, NEWFOUNDLAND, A1B 3R1",A1B 3R1,47.5583269,-52.7608001
Greensleeves,"14 George Street, Saint John's Newfoundland, A1C 1H7",A1C 1H7,47.5620683,-52.7104111
The Wilds Golf Course,Box 851 STN C St. John's Newfoundland,A1C 5K4,47.5605413,-52.7128315
Jack Astor's,125 Harbour Drive St. John's A1C6N6,A1C6N6,47.5612664,-52.7087243
Red Rock Bar and Grill,"686 Topsail road, Saint John's Newfoundland, A1E 2E3",A1E 2E3,47.524682,-52.774999
MONTANA'S COOKHOUSE,"KENMOUNT ROAD, ST. JOHNS, NEWFOUNDLAND, A1E 3Y4",A1E 3Y4,47.5600236,-52.7113979
Wayne's World,"154 Main Street, Grand Falls Newfoundland, A2A 1W1",A2A 1W1,48.9469136,-55.6676907
Grand Falls Golf Club,P.O. Box 53 Grand Falls Windsor A2A 2J3,A2A 2J3,48.927688,-55.657249
Don Cherry's GFW,2A Pinsent Drive Grand Falls Windsor A2A 2R6,A2A 2R6,48.9460706,-55.6540058
Crown & Moose,"48 West Street, Corner Brook Newfoundland, A2H 2Z2",A2H 2Z2,48.9516632,-57.9424474
Le Gaberial Lounge Cheticamp ,"15424 Main Street, Cheticamp Nova Scotia, B0E 1H0",B0E 1H0,46.5871964,-61.0209105
BOSTON PIZZA,"UNKNOWN, HALIFAX, NOVA SCOTIA, B0H 1H0",B0H 1H0,45.3146154,-61.0209745
Sea King Club,12 WING SHEARWATER - 242 WARRIOR AVE Dartmouth B0J 3A0,B0J 3A0,44.6151832,-63.5195451
Sociables,"25 Main Street, Springhill Nova Scotia, B0M 1X0",B0M 1X0,45.6491234,-64.0598167
Tommy Gun's Speakeasy,"143 Gerrish Street,Windsor Nova Scotia, B0N 2T0",B0N 2T0,44.994233,-64.136195
Kellock's Restaurant and Bar,"160 Commercial Street, Berwick Nova Scotia, B0P 1E0",B0P 1E0,45.040464,-64.734034
Oaken Barrel Pub,"400 Central Ave, Greenwood Nova Scotia, B0P 1N0",B0P 1N0,44.9616139,-64.9535181
End of the Line Pub,73 Queen Street Bridgetown B0S 1C0,B0S 1C0,44.837482,-65.293633
Capitol Pub,327-333 Main Street Middleton B0S 1P0,B0S 1P0,44.942984,-65.068037
Sunset Lounge,411 Conway Digby Nova Scotia,B0V 1A2,44.6220874,-65.7690866
Crown & Moose,"300 Esplanade Street, Sydney Nova Scotia, B1P 1A7",B1P 1A7,46.1386899,-60.196499
Old Triangle Sydney,424 Charlotte Street Sydney Nova Scotia,B1P 1E2,46.1359499,-60.1943462
Steel City,212 Townsend Street Sydney Nova Scotia,B1P 5E7,46.1353909,-60.1886615
BOSTON PIZZA,"329 PRINCE STREET, SYDNEY, NOVA SCOTIA, B1P 6H4",B1P 6H4,46.1400286,-60.1847907
BOSTON PIZZA,"135 CHURCH STREET, ANTIGONISH, NOVA SCOTIA, B2G 2E3",B2G 2E3,45.6162096,-61.9858291
Belly Up,73 Ryland Road Truro Nova Scotia,B2N 4H2,45.3759505,-63.2689861
Belly Up,214 Robie Street Truro B2N1L1,B2N1L1,45.3691107,-63.3035911
Big Leagues,920 Cole Harbour Road Dartmouth B2V2J5,B2V2J5,44.6713622,-63.4956923
BOSTON PIZZA,"611 PORTLAND STREET, DARTMOUTH, NOVA SCOTIA, B2W 2M7",B2W 2M7,44.6712014,-63.5303015
Parkside Pub,14 HIGHFIELD PARK DRIV Dartmouth B3A 4T6,B3A 4T6,44.6907801,-63.5856494
Old Port Pub,900 Windmill Road Dartmouth B3B 1P7,B3B 1P7,44.7041844,-63.6125049
Angies,50 Akerley Blvd. Dartmouth B3B 1R8,B3B 1R8,44.7102266,-63.6020211
BOSTON PIZZA,"111 SHUBIE DRIVE, DARTMOUTH, NOVA SCOTIA, B3B03C",B3B03C,44.7083193,-63.5619542
MONTANA'S COOKHOUSE,"101 SHUBIE DRIVE, DARTMOUTH, NOVA SCOTIA, B3B0C3",B3B0C3,44.7072266,-63.5625179
Cheesecurds,590-600 Windmil Road Dartmouth B3B1B5,B3B1B5,44.6965118,-63.6010135
BOSTON PIZZA,"1858 GRANVILLE STREET, HALIFAX, NOVA SCOTIA, B3J 0A2",B3J 0A2,44.6498158,-63.5749362
Oasis,5675 Spring Garden Road Halifax B3J 1H6,B3J 1H6,44.6426295,-63.5790577
Old Triangle,5136 Prince Street Halifax B3J 1L4,B3J 1L4,44.647521,-63.5723779
Lower Deck,1869 Upper Water Street Halifax B3J 1S9,B3J 1S9,44.6500999,-63.57316
Bearly's,1267-69 Barrington Street Halifax B3J 1Y3,B3J 1Y3,44.6413012,-63.5710454
Argyle,1575 ARGYLE STREET Halifax B3J 2B2,B3J 2B2,44.6453321,-63.5737313
Loose Cannon,1566 Argyle Street Halifax B3J 2B3,B3J 2B3,44.645277,-63.5739718
Auction House,1740 Argyle Street Halifax B3J 2B6,B3J 2B6,44.6479026,-63.5753095
Cheers,1741 Grafton Street Halifax B3J 2C6,B3J 2C6,44.6476637,-63.5755277
Durty Nelly's,5221 Sackville Street Halifax B3J 3P8,B3J 3P8,44.6462539,-63.574091
Stayners,5075 George Street Halifax B3J 3R6,B3J 3R6,44.6492558,-63.5719315
BOSTON PIZZA,"700 UNIVERSITY AVENUE, CHARLOTTETOWN, PRINCE EDWARD ISLAND, B3K 1B9",B3K 1B9,46.2662902,-63.1473784
DND Fleet Club,2800 Barrington Street Halifax B3K 1Z1,B3K 1Z1,44.6635509,-63.5930143
BOSTON PIZZA,"BOSTON PIZZA RD, HALIFAX, NOVA SCOTIA, B3K 5M4",B3K 5M4,44.6555258,-63.6014167
MONTANA'S COOKHOUSE,"196 CHAIN LAKE DRIVE, HALIFAX, NOVA SCOTIA, B3S 1C5",B3S 1C5,44.6513266,-63.6725963
Indian Lake,"199 Old Coach Road, Prospect Nova Scotia, B3T 1P6",B3T 1P6,44.6121767,-63.7272277
Bay Landing,"354 Prospect Bay Road, Prospect Nova Scotia, B3T 1Z7",B3T 1Z7,44.5125165,-63.7778134
BOSTON PIZZA,"710 SACKVILLE DRIVE, LOWER SACKVILLE, NOVA SCOTIA, B4E 3A4",B4E 3A4,44.7706794,-63.690884
Elm Tree,"1 Victoria Street, Amherst Nova Scotia, B4H 1X3",B4H 1X3,45.831938,-64.213505
BOSTON PIZZA,"9278 COMMERCIAL STREET, NEW MINAS, NOVA SCOTIA, B4N 3E9",B4N 3E9,45.0681445,-64.4423262
BOSTON PIZZA,"485 HIGHWAY #10, BRIDGEWATER, NOVA SCOTIA, B4V0A1",B4V0A1,44.399431,-64.5370023
Red Knight,73 Starrs Road Yarmouth B5A 2T6,B5A 2T6,43.843689,-66.107799
BOSTON PIZZA,"134 STARRS ROAD, YARMOUTH, NOVA SCOTIA, B5A4E5",B5A4E5,43.8408778,-66.0949049
Clyde River Golf Club,Cornwall RR#2 Cornwall New Brunswick,C0A 1H0,40.4862157,-74.4518188
Lobster Pub and Eatery,"P.O. Box 84, Crapaud New Brunswick, C0A 2G0",C0A 2G0,46.2398945,-63.5002752
Route 145,2238 O'Halloran Road Bloomfield C0B 1E0,C0B 1E0,46.762226,-64.1822959
Steamers BoatHouse,4 Prince Street Charlottetown C1A 4P5,C1A 4P5,46.2332489,-63.1200555
Ise's,"499 University Ave, Charlottetown New Brunswick, C1A 8K3",C1A 8K3,46.2544082,-63.1403378
Fishbones,136 Richmond Street Charlottetown C1A1H9,C1A1H9,46.2336773,-63.1270391
The Whiskey,25 Hopeton Road Stratford New Brunswick,C1B1T6,40.4862157,-74.4518188
Big Mug,271 Water Street Summerside C1N 1B5,C1N 1B5,46.391666,-63.790939
Don Cherry's,"201 Champlain Street, Dieppe New Brunswick, E1A 1P1",E1A 1P1,46.0956986,-64.7487155
Sports Rock,"451 Paul Street, Dieppe New Brunswick, E1A 2C7",E1A 2C7,46.0949914,-64.7567983
Igloo,"300 Elmwood Drive, Moncton New Brunswick, E1A 6S1",E1A 6S1,46.1123051,-64.7749314
BOSTON PIZZA,"451 PAUL STREET, DIEPPE, NEW BRUNSWICK, E1A 6W8",E1A 6W8,46.0949914,-64.7567983
BOSTON PIZZA,"1380 MOUNTAIN ROAD, MONCTON, NEW BRUNSWICK, E1C 2T8",E1C 2T8,46.1100058,-64.8321216
Five Bridges,"121 Pine Grove Road, Riverview New Brunswick, E1C 7D7",E1C 7D7,46.0920052,-64.7909508
Cheers,"63 Brandon Street, Moncton New Brunswick, E1C 7E7",E1C 7E7,46.0983908,-64.8064708
Nita's Lounge,"1999 Mountain Road, Moncton New Brunswick, E1G 1B1",E1G 1B1,46.1238208,-64.8556428
Mike's Place,484 King George Hwy Miramichi E1V 1M4,E1V 1M4,46.9974545,-65.5702035
BOSTON PIZZA,"98 DOUGLASTOWN BOULEVARD, MIRAMICHI, NEW BRUNSWICK, E1V0A3",E1V0A3,47.0347471,-65.4889824
Joey's,"2050 St. Peter Ave, Bathurst New Brunswick, E2A 6X1",E2A 6X1,47.6526373,-65.6788178
BOSTON PIZZA,"120 MCALLISTER DRIVE, SAINT JOHN, NEW BRUNSWICK, E2J 2S5",E2J 2S5,45.3109807,-66.0208291
MONTANA'S COOKHOUSE,"51 DEPOT COURT, SAINT JOHN, NEW BRUNSWICK, E2J0C2",E2J0C2,45.3027967,-66.02286
Church St.,"10 Grannan Street, St. John New Brunswick, E2L 2B1",E2L 2B1,45.2722119,-66.0619519
Rocky's,"7 Market Square, St. John New Brunswick, E2L 4Z6",E2L 4Z6,45.2732438,-66.0633206
Griffin's,"42 Broad Road, Oromocto New Brunswick, E2V 4J5",E2V 4J5,45.8411888,-66.4680525
Hilltop,"1034 Prospect Street, Fredericton New Brunswick, E3B 3C1",E3B 3C1,45.9416742,-66.6682809
BOSTON PIZZA,"1230 PROSPECT STREET, FREDERICTON, NEW BRUNSWICK, E3B 3C2",E3B 3C2,45.9380838,-66.6600049
MONTANA'S COOKHOUSE,"6 TRINITY AVENUE, FREDERICTON, NEW BRUNSWICK, E3C 0B8",E3C 0B8,45.9314168,-66.662483
Brasserie 1026,"157 Water Street, Campbellton New Brunswick, E3N 3L4",E3N 3L4,48.0075857,-66.6762519
BOSTON PIZZA,"164 BOUL. HEBERT, WOODSTOCK, NEW BRUNSWICK, E3V 2S7",E3V 2S7,47.3714667,-68.319751
Station 127,127 Rue Victoria Edmunston New Brunswick,E3V2H5,47.36751,-68.321785
Painted Pony,26 Bridge Street Sackville New Brunswick,E4L3N5,45.8977656,-64.3664825
Sandbar,70 POINT DU CHENE RD Shediac New Brunswick,E4P 2M1,46.227233,-64.5152702
Captain Dan's,50 Pointe du Chene Road Shediac E4P 4V8,E4P 4V8,46.2264174,-64.5147062
Richibucto Legion,"20 Legion Street, Richibucto New Brunswick, E4W 4A9",E4W 4A9,46.6771974,-64.8658819
Deano's Diner,162 Main Street Plaster Rock New Brunswick,E7G 2E4,46.8967175,-67.3947056
AC Sharkey's,"343 Main Street, Florenceville New Brunswick, E7L 3G7",E7L 3G7,46.4400609,-67.619288
The River,Main Street Woodstock New Brunswick,E7L 4J6,46.1536378,-67.5724989
RESTO-PUB ST-ALFRED,"326, 2E AVENUE PORTNEUF G0A 2Y0",G0A 2Y0,46.6891178,-71.8893521
LE MANOIR ST-BASILE,"20, STE-ANNE RUE ST-BASILE-DE-PORTNEUF G0A 3G0",G0A 3G0,46.7586888,-71.8248899
JAMESON CAFE,"438, BOUL  JACQUES CARTIER SHANNON G0A 4N0",G0A 4N0,46.8866373,-71.5159075
AUBERGE DU MARCHAND,530 BOUL PERRON MARIA G0C 1Y0,G0C 1Y0,48.1758586,-65.9809826
AUBERGE L'AMBASSADEUR,266 BOUL SAINT-BENOIT O AMQUI G0J 1B0,G0J 1B0,48.4730207,-67.4397356
LE BISTRO BAR NIPIGON,18 ROUTE DU FLEUVE O STE-LUCE G0K 1P0,G0K 1P0,48.5496737,-68.3835697
LE CHALET BISTRO PUB,"40, RUE MENARD TEMISCOUATA-SUR-LE-LAC G0L 1X0",G0L 1X0,47.6135305,-68.7920573
CAFE GRAINS DE FOLIE,1 NOTRE DAME OUEST TROIS-PISTOLES G0L 4K0,G0L 4K0,48.125233,-69.1754296
RESTO BAR DU BRULE,1327 RUE PRINCIPALE ST-COME-LINIERE G0M 1J0,G0M 1J0,46.059295,-70.523769
LES RESTOS CHEZ DANY,108 RUE COMMERCIALE ST-VICTOR-DE-BEAUCE G0M 2B0,G0M 2B0,46.1469298,-70.9057953
RESTAURANT BAR TAGA,240 RUE PRINCIPALE - LOCAL 238 HAM NORD G0P 1A0,G0P 1A0,45.9025734,-71.6440996
AUBERGE ST-FORTUNAT,109 RUE PRINCIPALE ST-FORTUNAT G0P 1G0,G0P 1G0,45.970591,-71.595752
BISTRO LAZARO,250 ROUTE 279 SAINT-LAZARE-DE-BELLECHASSE G0R 3J0,G0R 3J0,46.6516351,-70.8809216
RESTO-BAR LE NATIONAL,"231, PRINCIPALE ST-PAMPHILE G0R 3X0",G0R 3X0,46.964067,-69.78424
CLUB MOTON. ST-BERNARD INC,213 RANG SAINT-LUC ST-BERNARD-DE-DORCHESTER G0S 2G0,G0S 2G0,46.4901381,-71.1447905
RESTO L'EXPRESS,"788, DU PALAIS AV ST-JOSEPH-DE-BEAUCE G0S 2V0",G0S 2V0,46.3087221,-70.8813835
RESTO-BAR LA ROCHELIERE,1370 RUE DU PONT ST-LAMBERT-DE-LAUZON G0S 2W0,G0S 2W0,46.5996233,-71.1940058
RESTAURANT LE GOUR-METS,106A BOUL SAINT-DAVID FALARDEAU G0V 1C0,G0V 1C0,48.6209248,-71.1103691
C.RECREO TOURISTIQUE SHIPSHAW,3861CH DE LA PENINSULE SHIPSHAW G0V 1V0,G0V 1V0,48.4645145,-71.2683762
BRASSERIE 500,765 ROUTE 153 SAINT-TITE G0X 3H0,G0X 3H0,46.7294618,-72.5747675
AUBERGE AU SOLEIL LEVANT,499 RUE PRINCIPALE PIOPOLIS G0Y 1H0,G0Y 1H0,45.4854086,-70.9010091
MOTEL DU GRAND LAC ST-FRANCOIS,"470, ROUTE 263 ST-ROMAIN G0Y 1L0",G0Y 1L0,45.8104437,-71.1035905
LA CAGE AUX SPORTS,"837, RUE CLEMENCEAU, BEAUPORT, QUEBEC, G1C 2K6",G1C 2K6,46.867419,-71.207327
RESTO BROUE,387 BOUL. ARMAND-PARIS QUEBEC G1C 7T2,G1C 7T2,46.879139,-71.184691
LA CAGE AUX SPORTS,8000 BOUL HENRI-BOURASSA CHARLESBOURG G1G 4C7,G1G 4C7,46.8632573,-71.2681296
AU RESTO BAR LE BUREAU DE POSTE,296 ST JOSEPH EST QUEBEC G1K 3A9,G1K 3A9,46.8135765,-71.2266021
RESTAURANT LES 3 GLACES,655 BOULEVARD PIERRE-BERTRAND QUEBEC G1M 2E4,G1M 2E4,46.82146,-71.2704862
CECILE ET RAMONE GRILL,1061 BOULEVARD PIERRE  BERTRAN QUEBEC G1M2E8,G1M2E8,46.8286981,-71.2767966
TRATTORIA LA SCALA,"31, RENE-LEVESQUE BOUL O QUEBEC G1R 2A3",G1R 2A3,46.8046425,-71.2257903
RIDEAU ROUGE,1147 AVE CARTIER QUEBEC G1R2S6,G1R2S6,46.8031652,-71.2252468
PUB TURF(REST-BAR LE MERLIN),"1179, CARTIER AV QUEBEC G1R2S9",G1R2S9,46.8029902,-71.2246718
SHAKER CUISINE & MIXOLOGIE QUEBEC,2360 CHEMIN STE-FOY LOCAL G-014 STE-FOY G1V 4H2,G1V 4H2,46.7867305,-71.2823355
LA CAGE AUX SPORTS,"2700 BL LAURIER, STE-FOY, QUEBEC, G1V 4J9",G1V 4J9,46.7703932,-71.2861791
SHACK CAFE RESTO BAR,1081 RTE DE L'EGLISE SAINTE-FOY G1V3W2,G1V3W2,46.7679149,-71.2899595
REST LE CROQUE-DELICE INC,"2244, BASTIEN BOUL QUEBEC G2B 1B6",G2B 1B6,46.858693,-71.337691
LA CAGE AUX SPORTS,"6476, WILFRID-HAMEL BOUL, L'ANCIENNE-LORETTE, QUEBEC, G2E 2J1",G2E 2J1,46.7909031,-71.3533908
LA CAGE AUX SPORTS,5540 BOUL DES GRADINS QUEBEC G2J 1A1,G2J 1A1,46.8412589,-71.2729261
PIZZARIA PAQUET ST-AUGUSTIN,201 RTE 138 SUITE 100 ST-AUGUSTIN DESMAURES G3A 0G2,G3A 0G2,46.7494493,-71.4362671
RESTO-BAR VAL-BELAIR,"1427, PIE-XI N BOUL VAL-BELAIR G3J 1H2",G3J 1H2,46.8643494,-71.4323881
PIZZERIA CHEZ PAQUET,"251-A, ST-PIERRE RUE ST-RAYMOND G3L 1R1",G3L 1R1,46.887422,-71.8379999
PIZZERIA O PAQUET,"4640, RTE DU FOSSAMBAULT STE-CATHERINE--JACQUES-CARTIER G3N 1S8",G3N 1S8,46.843336,-71.6135634
LA CAGE AUX SPORTS (SEPT-ILES),"395, ARNAUD AV SEPT-ILES G4R 3A8",G4R 3A8,50.2037842,-66.38573
AUX PAS PERDUS,185 CH PRINCIPAL CAP-AUX-MEULES G4T 1C4,G4T 1C4,47.3818134,-61.8594979
RESTO-PUB LE FREDERIKE,"1574, GABOURY BOUL MONT-JOLI G5H 3H8",G5H 3H8,48.5837613,-68.1930259
LA CAGE AUX SPORTS,"130, AVE BELZILE, RIMOUSKI, QUEBEC, G5L 3E4",G5L 3E4,48.4544662,-68.5234665
LA CAGE AUX SPORTS,"360 MONTEE INDUSTRIELLE, RIMOUSKI, QUEBEC, G5M 1X1",G5M 1X1,48.4565431,-68.4958234
SUPER BAR,"414, LAFONTAINE RUE RIVIERE-DU-LOUP G5R 3B7",G5R 3B7,47.8301785,-69.5344427
LA CAGE AUX SPORTS,"298, ARMAND-THERIAULT BOUL, RIVIERE-DU-LOUP, QUEBEC, G5R 4C3",G5R 4C3,47.8245925,-69.5482516
SALLE DE QUILLES DA LOT INC.,"638 - H, BOUL RENAULT BEAUCEVILLE-EST G5X 1M6",G5X 1M6,46.2068238,-70.7737674
RESTO BAR LA CACHETTE,721 RTE DU GOLF BEAUCEVILLE-OUEST G5X 2T8,G5X 2T8,46.2441779,-70.7897159
REST. CHEZ GERARD INC.,"16280, LACROIX BOUL ST-GEORGES G5Y 1S4",G5Y 1S4,46.0997223,-70.6533083
LE GRAND HOTEL,11750 1 AVENUE ST-GEORGES G5Y 2C8,G5Y 2C8,46.1227373,-70.6793019
LA CAGE AUX SPORTS,"455 90 RUE, ST-GEORGES, QUEBEC, G5Y 3L1",G5Y 3L1,46.131688,-70.6946185
RESTAURANT LE BEC FIN (BEAUCE),584 AVN 6E ST-GEORGES G5Y 3T7,G5Y 3T7,46.1192217,-70.687992
RESTAURANT BARIL GRILL,1390 AVN 6 ST-GEORGES G5Y 5B7,G5Y 5B7,46.1169881,-70.6797227
CITRON VERT,5460 RUE PAPINEAU LAC-MEGANTIC G6B 0E1,G6B 0E1,45.5783003,-70.8820813
RESTAURANT LE VOILIER,2680 CH DU LAC LAC MEGANTIC G6B 2S5,G6B 2S5,45.5894016,-70.9256798
GOLF DE BEAUCE,1425 RANG ST-ETIENNE NORD C.P. 306 SAINTE-MARIE DE BEAUCE G6E 3B6,G6E 3B6,46.438606,-71.0219744
LA CAGE AUX SPORTS,"805 BOUL FRONTENAC E, THETFORD-MINES, QUEBEC, G6G 6L5",G6G 6L5,46.1127911,-71.3013945
CAFE LUXOR VICTORIAVILLE LTEE,"213, NOTRE-DAME RUE E VICTORIAVILLE G6P 4A2",G6P 4A2,46.0569766,-71.9542445
AU POINT PLUS REST. BAR INC,"192, DES BOIS-FRANCS BOUL S VICTORIAVILLE G6P 4S7",G6P 4S7,46.0561584,-71.9457636
LA CAGE AUX SPORTS,"1050 BOUL JUTRAS E, VICTORIAVILLE, QUEBEC, G6S 1E4",G6S 1E4,46.0629824,-71.9300518
LA CAGE AUX SPORTS,"1550 BOUL. ALPHONSE DESJARDINS, S15, LEVIS, QUEBEC, G6V 0G8",G6V 0G8,46.7927529,-71.1637283
LA GALERIE PAR GARBY RESTO-PUB,275 AVENUE TANIATA LEVIS G6W 5M0,G6W 5M0,46.7482325,-71.2318935
BLAXTON LEVIS,1242 DE LA CONCORDE LEVIS G6W0M7,G6W0M7,46.7287968,-71.2701694
REST.LA NORMANDE,2761 RUE MONSEIGNEUR DUFOUR LA BAIE G7B 1E4,G7B 1E4,48.316491,-70.8607704
REST0 PUB GEORGES,"433, RACINE EST CHICOUTIMI G7H 1T5",G7H 1T5,48.4285687,-71.0549336
HOTEL LA SAGUENEENNE,250 RUE DES SAGUENEENS CHICOUTIMI G7H 3A4,G7H 3A4,48.4044909,-71.0629823
LA CAGE AUX SPORTS,"1611, TALBOT BOUL C.P.35, CHICOUTIMI, QUEBEC, G7H 5B5",G7H 5B5,48.3995557,-71.0620795
REST. BISTROT LE PIER-ALE,"1401, TALBOT BOUL CHICOUTIMI G7H 5N6",G7H 5N6,48.4049983,-71.0557528
FOLIE BOUFFE,1915 BOUL TALBOT CHICOUTIMI G7H 7Y4,G7H 7Y4,48.3943631,-71.0690339
CAFE BISTRO DU CENTRE,2750 RUE DE LA SALLE JONQUIERE G7S 2A7,G7S 2A7,48.4223006,-71.1756683
LE GRILL RESTO PUB,1999 STE-FAMILLE JONQUIERE G7X 4X5,G7X 4X5,48.4264565,-71.2376712
BAR DOOLY'S ALMA,645 RUE SACRE-COEUR O ALMA G8B 1A9,G8B 1A9,48.5504184,-71.6507589
BAR LE JEANNOIS,615 SACRE-COEUR OUEST ALMA G8B 1M4,G8B 1M4,48.5503887,-71.6505565
LA CAGE AUX SPORTS,"930 AVE DU PONT S, ALMA, QUEBEC, G8B 2V8",G8B 2V8,48.5370538,-71.6473082
RESTAURANT-BAR LE RIGOLET,18 ST-ANDRE METABETCHOUAN G8G 1T7,G8G 1T7,48.4314424,-71.8697379
RESTAURANT MAMAN FOURNIER,830 BOUL THIBEAU TROIS-RIVIERES G8T 7A6,G8T 7A6,46.3874607,-72.551205
LA CAGE AUX SPORTS (TR-RIV),"4210, DES FORGES BOUL TROIS-RIVIERES G8Y 1W3",G8Y 1W3,46.357472,-72.5871839
LES AILES PIQUANTES BUFFALO,331 RUE DES FORGES TROIS-RIVIERES G9A 2G9,G9A 2G9,46.342046,-72.542667
REST. CHEZ MAMAN FOURNIER ENR.,3125 BOUL RECOLLET TROIS-RIVIERES G9A 6M1,G9A 6M1,46.3318802,-72.5710766
BAR 55 INC,4810 AVN FARDEL BECANCOUR G9H 1V6,G9H 1V6,46.2720295,-72.5039351
LA CAGE AUX SPORTS,"10715, PIE-IX BOUL, MONTREAL-NORD, QUEBEC, H1H 4A8",H1H 4A8,45.5896901,-73.6354182
LA CAGE AUX SPORTS,"7275, SHERBROOKE LOCAL:2200A, MONTREAL, QUEBEC, H1N 1E9",H1N 1E9,45.5902333,-73.5388979
PIZZERIA ORSINI,7600 BOULEVARCL VIAU #2N-F MONTREAL H1S 2P3,H1S 2P3,45.574389,-73.5910604
LA CAGE AUX SPORTS RESTAURANT BAR,"6419, JEAN-TALON RUE E ST-LEONARD H1S 3E7",H1S 3E7,45.591586,-73.576119
LA CAGE AUX SPORTS,"4750 SHERBROOKE EST, MONTREAL QUEBEC, H1V 3S8",H1V 3S8,45.5623739,-73.5533176
CLEBARD,4557 RUE ST-DENIS MONTREAL H2J 2L4,H2J 2L4,45.5245968,-73.5836371
CLEBARD,4557 RUE SAINT-DENIS MONTREAL H2J2L4,H2J2L4,45.5245968,-73.5836371
YE OLDE ORCHARD PUB + GRILL,20 PRINCE ARTHUR W MONTREAL H2X 1S3,H2X 1S3,45.5135218,-73.5727024
LE BISTRO SANGUINET,308 RUE STE-CATHERINE E MONTREAL H2X1L7,H2X1L7,45.5127967,-73.5610991
RESTO BAR SAINT AMABLE 2014,"188, RUE ST AMABLE MONTREAL H2Y 1E8",H2Y 1E8,45.5076728,-73.5528366
LA CAGE-BRASSERIE SPORTIVE,"114, RUE ST-PAUL EST MONTREAL H2Y 1G6",H2Y 1G6,45.50679,-73.552638
RESTAURANT BELLA VITA,250 RUE ST PAUL EST MONTREAL H2Y 1G9,H2Y 1G9,45.5077492,-73.5521283
CHEZ ERIC 2016,295 RUE SAINT-PAUL EST MONTREAL H2Y 1H1,H2Y 1H1,45.5083312,-73.5522362
RESTAURANT AL PIZZETTA,39 RUE DE LA COMMUNE MONTREAL H2Y 1H9,H2Y 1H9,45.5060073,-73.5530493
SHOW BAR LA COMMUNE,269 DE LA COMMUNE EST MONTREAL H2Y 1J2,H2Y 1J2,45.507947,-73.551928
LA MAREE DU VIEUX MONTREAL,404 PLACE JACQUES-CARTIER MONTREAL H2Y 3B2,H2Y 3B2,45.5074852,-73.552706
CHEZ ERIC 2016,295 RUE ST-PAUL EST MONTREAL H2Y1H1,H2Y1H1,45.5083312,-73.5522362
LA CAGE AUX SPORTS,"1212 RUE DE LA GAUCHETIERE O, MONTREAL, QUEBEC, H3B 2S2",H3B 2S2,45.4977501,-73.5686715
PEEL PUB,1196 RUE PEEL MONTREAL H3B 2T6,H3B 2T6,45.4994033,-73.5719425
PEEL PUB,1196 RUE PEEL MONTREAL H3B2T6,H3B2T6,45.4994033,-73.5719425
BURGER BAR CRESCENT,1465 CRESCENT MONTREAL H3G 2B2,H3G 2B2,45.497906,-73.5771621
THURSDAYS,1449 RUE CRESCENT MONTREAL H3G2B2,H3G2B2,45.497894,-73.5766957
RESTAURANT B.M,6200 AVN SOMERLED MONTREAL H3X 2B3,H3X 2B3,45.4717386,-73.634592
RESTAURANT B.M,6200 AVN SOMERLED MONTREAL H3X2B3,H3X2B3,45.4717386,-73.634592
CENTRE INTERNATIONAL BILLARD,6862 RUE JARRY EST MONTREAL H4B 1V8,H4B 1V8,45.4581617,-73.6261249
SHOOTERS CAFE,"6414, MONK BOUL MONTREAL H4E 3H9",H4E 3H9,45.4545921,-73.5943891
BAR MONKEE'S,"6625, MONK BOUL MONTREAL H4E 3J2",H4E 3J2,45.4526088,-73.5939676
NOUVEAU VERDUN CINQ AVE ENR,"5001, DE VERDUN RUE VERDUN H4G 1N5",H4G 1N5,45.4562047,-73.5720763
CASEY'S,1031 MARCHE-CENTRAL MONTREAL H4N 1J8,H4N 1J8,45.5344289,-73.6590602
LA CAGE AUX SPORTS,"3450 BOUL DE LA COTE-VERTU, ST-LAURENT, QUEBEC, H4R 1P8",H4R 1P8,45.4961017,-73.7053595
CHEZ LE PERE GEDEON (ST-LAURENT),6615 CH DE LA COTE-DE-LIESSE ST-LAURENT H4T 1E5,H4T 1E5,45.4847637,-73.6932945
HOLIDAY INN AEROPORT,6500 CH DE LA COTE-DE-LIESSE SAINT-LAURENT QC,H4T1E3,45.4852093,-73.6911359
SALLE DE BILLARDS DES PROS,"5528, DES LAURENTIDES BOUL LAVAL H7K 2K2",H7K 2K2,45.625683,-73.7517249
LA PLACE PUBLIQUE,"443, BOUL ST-MARTIN OUEST LAVAL H7M1Y8",H7M1Y8,45.5774904,-73.7118761
BRASSERIE LA RESERVE,"6000, ARTHUR-SAUVE BOUL LAVAL H7R3X7",H7R3X7,45.5483759,-73.865652
TABLE 51,3035 BOUL LE CARREFOUR LAVAL H7T 1C8,H7T 1C8,45.570538,-73.7522212
LA CAGE AUX SPORTS,"2900, LE CARREFOUR BOUL, LAVAL, QUEBEC, H7T 2K9",H7T 2K9,45.5690331,-73.7462205
TABLE 51,3035 BOUL LE CARREFOUR LAVAL H7T1C8,H7T1C8,45.570538,-73.7522212
SIM TAVERNE URBAINE,2250 AUTOROUTE 13 LOCAL 22 LAVAL QC,H7X4G8,45.5465079,-73.8010456
CLUB DE GOLF ISLEMERE INC,"1199, DU BORD-DE-L'EAU CH LAVAL H7Y 1A9",H7Y 1A9,45.523893,-73.84781
LA CAGE AUX SPORTS,"7077, NEWMAN BOUL, LASALLE, QUEBEC, H8N 1X1",H8N 1X1,45.4479126,-73.6127113
CAFE PETE'S BAR,1701 LAPIERRE LASALLE H8N 2M4,H8N 2M4,45.4367119,-73.612536
BISTRO DE LACHINE,2300 32 AVE. LACHINE H8T 3H4,H8T 3H4,45.4664573,-73.7142903
LA CAGE AUX SPORTS,"6321 AUTOROUTE 40, POINTE-CLAIRE, QUEBEC, H9R 5A5",H9R 5A5,46.2685656,-72.7992594
BRASSERIE BURGER TOWN,443 CHEMIN DU BORD-DU-LAC-LAKESHORE DORVAL H9S 2A7,H9S 2A7,45.4408959,-73.7304379
BAR NICK SATELLITE,359 AVE DORVAL DORVAL H9S 3H6,H9S 3H6,45.4453648,-73.7410594
RESTO DU VIEUX TONNEAU,"645, PRINCIPALE E COOKSHIRE J0B 1M0",J0B 1M0,45.4152022,-71.6211419
PUB AMIGO,213 PRINCIPALE NORD RICHMOND J0B 2H0,J0B 2H0,45.6603123,-72.1429426
BAR LES 3 FRERES,161 RUE DES ERABLES WEEDON J0B 3J0,J0B 3J0,45.7020994,-71.4633056
LE BISTRO KNOWLTON INC,267 RTE KNOWLTON J0E 1V0,J0E 1V0,45.216417,-72.5097258
PIZZERIA MAURICE ENR,"5765, FOSTER RUE WATERLOO J0E 2N0",J0E 2N0,45.3486023,-72.5162814
L'ARRET DES GOLFEURS ENR,1889 CH DES PATRIOTES ST-OURS J0G 1P0,J0G 1P0,45.9423796,-73.1457912
BISTRO LE SPOT,325 RUE DANIEL-JOHNSON ST-PIE J0H 1W0,J0H 1W0,45.5084181,-72.8934624
BAR XI,437A RUE ST-JACQUES NAPIERVILLE J0J 1L0,J0J 1L0,45.1903996,-73.4073598
RESTAURANT LA,1081 RTE LOUIS CYR ST-JEAN-DE-MATHA J0K 2S0,J0K 2S0,46.2290393,-73.5286687
HOTEL CENTRAL,"510, BRASSARD CH ST-MICHEL-DES-SAINTS J0K 3B0",J0K 3B0,46.677833,-73.917074
PUB CHEZ PHILIPPE,303 RUE DUCHARME CONTRECOEUR J0L 1C0,J0L 1C0,45.8570443,-73.2384514
BAR LA BARAQUE,"285, PRINCIPALE ST-ROCH-DE-RICHELIEU J0L 2H0",J0L 2H0,45.8898951,-73.1572292
BAR SALON ALAIN,255 MONTEE DE LA BAIE POINTE-CALUMET J0N 1G2,J0N 1G2,45.4995178,-73.9714022
RESTAURANT ETOILE DE RIGAUD,110 RUE SAINT-JEAN-BAPTISTE E RIGAUD J0P 1P0,J0P 1P0,45.4792266,-74.2935275
RESTAURANT LE CHAMPAGNE,100 CH BALMORAL MORIN-HEIGHTS J0R 1H0,J0R 1H0,45.8927491,-74.2269856
LA FRITERIE DE LA VALLEE DE ST-SAUV,269 RUE PRINCIPALE ST-SAUVEUR J0R 1R0,J0R 1R0,45.8934367,-74.1584108
LA CAGE AUX SPORTS,"75, DE LA GARE RUE, ST-SAUVEUR-DES-MONTS, QUEBEC, J0R 1R6",J0R 1R6,45.8907283,-74.1543885
RESTO-PUB LAMBTON,41 RUE LAMBTON ORMSTOWN J0S 1K0,J0S 1K0,45.1254038,-73.9928615
RESTO BAR LE PIRATE,"1080, 132 RTE SAINTE-BARBE J0S 1P0",J0S 1P0,45.1598062,-74.3309482
CASSE-CROUTE DEPANNEUR LU-NIC,"8600, ROUTE PARENT,  C.P. 190 STE-ANNE DU LAC J0W 1V0",J0W 1V0,46.8797218,-75.323904
RESTO BISTRO DE L'AIGLE,55 RUE PRINCIPALE LAC-CAYAMANT J0X 1Y0,J0X 1Y0,46.1348846,-76.2467165
BAR TEM-ROSE,"529, KIPAWA CH TEMISCAMING J0Z 3R0",J0Z 3R0,46.7221053,-79.0951195
BRASSETTE 101 ENR,36 RUE DES OBLATS N VILLE-MARIE J0Z 3W0,J0Z 3W0,47.337234,-79.437029
BRASSERIE FLEURIMONT INC,1325 12 AVE N SHERBROOKE J1E 3P6,J1E 3P6,45.4251698,-71.8722839
BRASSERIE LA SEIGNEURIE,"14, LEGER RUE SHERBROOKE J1L 1W1",J1L 1W1,45.386268,-71.963544
LA CAGE AUX SPORTS,"2655, KING RUE O, SHERBROOKE, QUEBEC, J1L 2G4",J1L 2G4,45.398321,-71.9383808
RESTAURANT LE MOULIN,45 RUE PRINCIPALE S WINDSOR J1S 2B4,J1S 2B4,45.5575158,-72.000821
PUB DU CHATEAU ST-GAB'S,66 PRINCIPALE SUD WINDSOR J1S 2B6,J1S 2B6,45.5564088,-71.999666
AU CAFE ST-MICHEL INC,"503, PRINCIPALE RUE O MAGOG J1X 2B2",J1X 2B2,45.2666897,-72.1552296
LA CAGE AUX SPORTS,"400, ST-JOSEPH BOUL, DRUMMONDVILLE, QUEBEC, J2C 2A8",J2C 2A8,45.8963111,-72.5177385
GESTION AUTODROME DRUMMOND,1155 BOUL ST-JOSEPH O DRUMMONDVILLE J2E 1P1,J2E 1P1,45.9098617,-72.5435044
LA CAGE AUX SPORTS,"750, PRINCIPALE RUE, GRANBY, QUEBEC, J2G 2Y4",J2G 2Y4,45.4104427,-72.7470128
REST. ST-AMBROISE PUB ENR,"791, PRINCIPALE RUE GRANBY J2G 2Y6",J2G 2Y6,45.4115653,-72.7486815
LA CAGE AUX SPORTS,"3200, CUSSON AV, ST-HYACINTHE, QUEBEC, J2S 8N9",J2S 8N9,45.6397328,-72.9626449
RESTAURANT O'SHARK-COAL,"87, BOUL. ST-LUC ST-JEAN-SUR-RICHELIEU J2W 1E2",J2W 1E2,45.3422556,-73.2718787
LA CAGE AUX SPORTS,"880, DU SEMINAIRE BOUL N, ST-JEAN-SUR-RICHELIEU, QUEBEC, J3A 1B5",J3A 1B5,45.330499,-73.2681724
SOCIETE DE GESTION C.R.L. INC.,"539, WILFRID-LAURIER MONT-ST-HILAIRE J3H 4X7",J3H 4X7,45.568366,-73.181154
DISTIN GO,20 AUGUSTA SOREL TRACY J3P 1A1,J3P 1A1,46.04505,-73.117131
TAVERNE DU PONT,283 CH. DES PATRIOTES SOREL-TRACY J3P 2L9,J3P 2L9,46.02253,-73.1266596
ROTISSERIE ST-HUBERT,381 BOUL FISET SOREL-TRACY J3P 3R4,J3P 3R4,46.0343488,-73.0913267
BAR 525,"525, FISET BOUL SOREL J3P 3R9",J3P 3R9,46.0290007,-73.0834184
RESTAURANT LE FOUGASSE,29 RUE DU ROI SOREL J3P 4M2,J3P 4M2,46.0456776,-73.1166834
CAFE ST-THOMAS INC.,"59, DU ROI RUE SOREL J3P 4M6",J3P 4M6,46.0442772,-73.1161932
LE P'TIT PUB DE LA 30,"450, BOUL. POLIQUIN, LOCAL 520 SOREL-TRACY J3P 7R5",J3P 7R5,46.0232795,-73.1035262
LA BABOCHE,"4305, ST-ROCH CH TRACY J3R 3M2",J3R 3M2,46.0276879,-73.1355716
LA CAGE AUX SPORTS ST-BRUNO#46,2250 BOUL SIR WILFRID-LAURIER ST-BRUNO J3V 4P6,J3V 4P6,45.5213843,-73.3155649
PUB LE VICTORIN,2562 RTE MARIE-VICTORIN #102 VARENNES J3X 1R4,J3X 1R4,45.6902387,-73.4294774
LA CAGE AUX SPORTS,"1180, PLACE NOBEL, LOCAL 101, BOUCHERVILLE, QUEBEC, J4B 5L2",J4B 5L2,45.571024,-73.446715
BAR LE VEGAS,"2308, MARIE-VICTORIN BOUL LONGUEUIL J4G1B4",J4G1B4,45.5760451,-73.4781007
RESTAURANT LA MAGIA,361 SAINT CHARLES OUEST LONGUEUIL J4H 1E7,J4H 1E7,45.5366615,-73.5128006
TAVERNE 20 100,"327, ST-LAURENT RUE O LONGUEUIL J4H 1M6",J4H 1M6,45.5360308,-73.5081747
LA CAGE AUX SPORTS,"2650, DE CHAMBLY CH, LONGUEUIL, QUEBEC, J4L 1M5",J4L 1M5,45.5222251,-73.4654914
SCOTYZ,"3979, TASCHEREAU BOUL ST-HUBERT J4T 2G5",J4T 2G5,45.4865196,-73.4681409
BOUTIQUES MARCADO 5 ETOILES,3565 TASCHEREAU BOUL LONGUEUIL J4T2G2,J4T2G2,45.4916738,-73.4740048
LA CAGE AUX SPORTS,"9300 BOUL LEDUC, BROSSARD, QUEBEC, J4Y 0B3",J4Y 0B3,45.4448009,-73.4374729
CASEY'S BROSSARD,9310 BOUL. LEDUC BROSSARD J4Y0B3,J4Y0B3,45.4446802,-73.4376074
LA CAGE AUX SPORTS,"280 RTE 132, ST-CONSTANT, QUEBEC, J5A 2C9",J5A 2C9,45.389791,-73.5724741
RESTAURANT LE BURGER SHOP,5248 ROUTE 132 SAINTE-CATHERINE J5C 1L8,J5C 1L8,45.3915643,-73.5772331
VAL DES LACS,"300, DES CEDRES CH ST-JEROME J5J 2T6",J5J 2T6,45.8171998,-73.9520446
LA CAGE-BRASSERIE SPORTIVE,125 RUE DE LA FRAYETTE REPENTIGNY J6A 8K3,J6A 8K3,45.7424638,-73.4610055
LE BAVAROIS,425 RUE ST-VIATEUR JOLIETTE J6E 3B1,J6E 3B1,46.025748,-73.440506
LANCE ET COMPTE,7A 2 AVE CHATEAUGUAY J6K 3M3,J6K 3M3,45.3604593,-73.7402333
RESTO BAR AMICI,100 RUE KEPLER CHATEAUGUAY J6K 4B7,J6K 4B7,45.3605699,-73.7129818
LA CAGE AUX SPORTS,"72, ST-JEAN BAPTISTE BOUL, CHATEAUGUAY, QUEBEC, J6K 4Y7",J6K 4Y7,45.3618983,-73.7131544
LA CONFRERIE,753 RUE ST-PIERRE TERREBONNE J6W1E3,J6W1E3,45.6928007,-73.6345646
LA CAGE AUX SPORTS,"2247, GASCON CH, LACHENAIE, J6X 4H3",J6X 4H3,45.7248315,-73.6662848
RESTO BAR LE MAVERICK,4660 MONTEE GAGNON TERREBONNE J6Y 0G8,J6Y 0G8,45.7123229,-73.8191865
LA BRASSERIE DU RELAIS ENR,77 DESJARDINS EST SAINTE-THERESE J7E 1C5,J7E 1C5,45.6350655,-73.8282372
LA CAGE AUX SPORTS,"100 PLACE FABIEN DRAPEAU, STE-THERESE-DE-BLAINVILLE, QUEBEC, J7E 2Y1",J7E 2Y1,45.647774,-73.8401036
LA CAGE AUX SPORTS,"3600, BOUL GRANDE- ALLEE LOCAL#6, BOISBRIAND, QUEBEC, J7H 1M9",J7H 1M9,45.6314664,-73.8587039
RESTO BAR DES ENTREPRISES,1299 DE LA GARE MASCOUCHE J7K 2Z1,J7K 2Z1,45.7385311,-73.5910197
LA CAGE AUX SPORTS,"60, DUBOIS RUE, ST-EUSTACHE, QUEBEC, J7P 4W9",J7P 4W9,45.582135,-73.881283
BILLARD LE GENTILHOMME,"117, ST-EUSTACHE RUE ST-EUSTACHE J7R 2L4",J7R 2L4,45.5587979,-73.8923111
TAVERNE PINCOURT INC,"99, 5E AV PINCOURT J7V 5K8",J7V 5K8,45.3818612,-73.9927783
LA CAGE AUX SPORTS,"47 BOUL CITE-DES-JEUNES, VAUDREUIL, QUEBEC, J7V 8C1",J7V 8C1,45.406724,-74.0362075
LA CAGE AUX SPORTS,"1055 RUE DU GRAND-HERON, ST-JEROME, QUEBEC, J7Y 5K8",J7Y 5K8,45.7592952,-74.0175707
RESTO-BAR LES 4 AS/BAR LES 4 AS,112 PRINCIPALE EST STE-AGATHE J8C 1J8,J8C 1J8,46.0463511,-74.2833335
LE SHACK DU MONT-TREMBLANT,C.P. 2658 SUCCURSALE B MONT-TREMBLANT J8E 1B1,J8E 1B1,46.1958318,-74.624492
LA CAGE AUX SPORTS,"340, ROUTE 117, MONT-TREMBLANT, QUEBEC, J8E 2X3",J8E 2X3,46.117484,-74.5741584
HOTEL DU CHASSEUR,38 CHEMIN ST-MICHEL BROWNSBURG CHATHAM J8G 2N3,J8G 2N3,45.7492152,-74.4818196
ELEGANCE BAR ET BILLARD,503 AV BUCKINGHAM GATINEAU J8L 2G8,J8L 2G8,45.5869527,-75.4168621
RESTO-BAR O'MAX,"25, NOTRE-DAME RUE GATINEAU J8M 1B2",J8M 1B2,45.55994,-75.430848
BAR LA DRAVE,195 BELLEHUMEUR GATINEAU J8T 8H3,J8T 8H3,45.4794843,-75.6924259
LA CAGE AUX SPORTS,"325, GREBER BOUL, GATINEAU, QUEBEC, J8T 8J3",J8T 8J3,45.4776342,-75.7005742
TAVERNE ALBERTA/BRASSERIE ILE,"167, EDDY RUE HULL J8X 2X1",J8X 2X1,45.4306232,-75.7203455
LA CAGE AUX SPORTS,"7 RUE MONTCLAIR, HULL, QUEBEC, J8Y 2B2",J8Y 2B2,45.4401404,-75.7285094
LE CLUB DE GOLF HAUTES-PLAINES,"75, DE LA CITADELLE AV HULL J8Z 3L1",J8Z 3L1,45.4747149,-75.759165
BISTRO MANCHESTER,474 ROUTE 105 CHELSEA J9B 1A1,J9B 1A1,45.504293,-75.7832404
RESTO-PUB LE RABASKA,100 PRINCIPALE SUD LOCAL 24 MANIWAKI J9E 3L4,J9E 3L4,46.376223,-75.981909
LE BOSTAURUS,61 RUE PRINCIPALE GATINEAU J9H 3L4,J9H 3L4,45.3952093,-75.8481965
BISTRO DU BOULEVARD INC,489 BOUL DR ALBANY-PAQUETTE MONT-LAURIER J9L 1K8,J9L 1K8,46.5491753,-75.4998392
LA CAGE AUX SPORTS,700 BOUL A PAQUETTE MONT-LAURIER J9L 1L4,J9L 1L4,46.5502628,-75.4922147
AVANTAGE BAR TERRASSE INC,576 3 AVE VAL-D'OR J9P 1S5,J9P 1S5,48.101188,-77.782686
LE SHOOTER'S,"788, 3IEME AVE VAL D'OR QC J9P 1S9",J9P 1S9,48.1022426,-77.7865366
HOTEL FORESTEL VAL-D'OR INC.,1001 3 AVE VAL-D'OR J9P 1T4,J9P 1T4,48.1041636,-77.79192
LA CAGE AUX SPORTS,"1764 3IEME AVENUE, VAL D'OR, QUEBEC, J9P 1W4",J9P 1W4,48.098442,-77.8217389
CLUB SPORT BELVEDERE INC,"360, SABOURIN BOUL VAL-D'OR J9P 4N9",J9P 4N9,48.0921251,-77.8041312
HOTEL ROYAL,"365, ROUTE 117 VAL-D'OR J9P 7C6",J9P 7C6,48.1067283,-77.7950662
LA CAGE AUX SPORTS,"680 AVN LARIVIERE, ROUYN-NORANDA, QUEBEC, J9X 4J9",J9X 4J9,48.2264552,-79.0072961
BARLEY MOW,79 LITTLE BRIDGE ST ALMONTE K0A 1A0,K0A 1A0,45.22607,-76.195679
HALF PINT,968 NOTRE DAME ST EMBRUN K0A 1W0,K0A 1W0,45.2722892,-75.2809249
LUCKY 7 SPORTS BAR,"767 NOTRE DAME ST, EMBRUN ONTARIO, K0A 1W1",K0A 1W1,45.2690894,-75.3018436
PAKENHAM HIGHLANDS GOLF CLUB,112 MCWATTY RD PAKENHAM K0A 2X0,K0A 2X0,45.3256757,-76.2924278
CENTRE DE GOLF NATION,731 COUNTY ROAD #19 CURRAN ONTARIO,K0B 1C0,45.4825532,-75.0826036
KILTED CANUCK PUB EATERY,1 MECHANIC ST W MAXVILLE ONTARIO,K0C 1T0,45.288589,-74.8558252
CENTRAL HOTEL,52 LABROSSE ST MOOSE CREEK ONTARIO,K0C 1W0,45.2613159,-74.9708272
QUEEN'S HOTEL,"4 KING ST E, COLBORNE ONTARIO, K0J 1H0",K0J 1H0,44.004725,-77.8873711
TIMBER RIDGE G.C.,19 TIMBER RIDGE DRIVE BRIGHTON ONTARIO,K0K 1H0,44.075724,-77.69961
QUEEN'S HOTEL,4 KING ST E COLBORNE K0K 1S0,K0K 1S0,44.004725,-77.8873711
GOLF CLUB GRILL (THE),COUNTY ROAD PICTON ONTARIO,K0K 2T0,44.0046586,-77.1533933
BANCROFT EATERY BREW PUB,4 BRIDGE ST W BANCROFT K0L 1C0,K0L 1C0,45.056268,-77.853401
COW AND SOW EATERY (THE),38 COLBORNE ST FENELON FALLS ONTARIO,K0M 1N0,44.5369583,-78.7362786
COZY'S EXPRESS,"1572 MICHAEL ST, OTTAWA ONTARIO, K1B 3T7",K1B 3T7,45.4111502,-75.626294
BROADWAY BAR   GRILL INNES,"1486 INNES ROAD, GLOUCESTER ONTARIO, K1B 3V5",K1B 3V5,45.414327,-75.605458
BLADES BAR AND GRILL,2571 LANCASTER RD OTTAWA K1B 4L5,K1B 4L5,45.3998593,-75.6126277
BLACKBURN ARMS PUB RESTAURANT,2586 INNES RD GLOUCESTER ONTARIO,K1B 4Z6,45.4311523,-75.5659004
CONNORS IRISH RESTAURANT - PUB,2401 ST JOSEPH BLVD ORLEANS K1C 1E9,K1C 1E9,45.4698186,-75.5287296
TARTAN PUB   GRILL,"4025 INNES ROAD, GLOUCESTER ONTARIO, K1C 1T1",k1c 1t1,45.4557388,-75.5064922
BROADWAY BAR   GRILL EAST,"1615 ORLEANS BLVD, GLOUCESTER ONTARIO, K1C 7E2",k1c 7e2,45.4602303,-75.5240103
CROSS BAR INC (THE),"1585 TENTH LINE, ORLEANS ONTARIO, K1E 3E8",k1e 3e8,45.4733987,-75.4953227
MEADOWS GOLF COUNTRY CLUB (THE),"4335 HAWTHORNE ROAD, GLOUCESTER ONTARIO, K1G 3N4",K1G 3N4,45.3347426,-75.5747675
FIRESIDE PUB (THE),2092 WALKLEY ROAD OTTAWA ONTARIO,K1G 3V3,45.3850459,-75.6259656
FAT ALBERT''S AND RALPH''S NO. 20,"1990 RUSSELL RD, OTTAWA ONTARIO, K1G 4J6",K1G 4J6,45.4008417,-75.6241489
BOSTON PIZZA - CONROY RD,"2980 CONROY RD, OTTAWA ONTARIO, K1G 6C1",K1G 6C1,45.3827645,-75.6302492
FAT ALBERT'S   RALPH'S 09,"1571 BANK ST, OTTAWA ONTARIO, K1H 7Z3",K1H 7Z3,45.379714,-75.667755
MONTANA'S COOKHOUSE,"1750 1750 OGILVIE RD, GLOUCESTER, ONTARIO, K1J 7P4",K1J 7P4,45.4321345,-75.6157751
FAT ALBERT''S RALPH''S,251 LAURIER AVE W OTTAWA K1J 8P4,K1J 8P4,45.4440417,-75.5971581
BOSTON PIZZA,"1055 1055 ST. LAURENT BLVD, OTTAWA, ONTARIO, K1K 3B1",K1K 3B1,45.427041,-75.6384149
HEART&CROWN,67 CLARENCE ST OTTAWA K1N 5P5,K1N 5P5,45.4288896,-75.6934723
SMOQUE SHACK (THE),129 YORK ST OTTAWA K1N 5T4,K1N 5T4,45.4294196,-75.6901975
MOONDOG PUB AND GRILL (THE),238 LAURIER AVE E OTTAWA ONTARIO,K1N 6P2,45.4260348,-75.6811698
AULDE DUBLINER&POUR HOUSE,62 WILLIAM ST OTTAWA K1N 7A3,K1N 7A3,45.4269714,-75.6917006
BRIXTON'S BRITISH PUB,210 SPARKS ST OTTAWA K1P 5C1,K1P 5C1,45.421224,-75.7010938
HEART&CROWN,353B PRESTON ST OTTAWA K1S 1V6,K1S 1V6,45.401484,-75.7097831
GEORGETOWN SPORTS PUB (THE),"1159 BANK ST, OTTAWA ONTARIO, K1S 3X7",K1S 3X7,45.3925653,-75.6818903
PRESCOTT TAVERN,379 PRESTON ST OTTAWA ONTARIO,K1S 4N1,45.4005739,-75.7094914
MONTANA'S COOKHOUSE,"2216 2216 BANK ST, OTTAWA, ONTARIO, K1V 1J6",K1V 1J6,45.355619,-75.651301
BROADWAY BAR   GRILL RIVERSIDE SOUTH,665 EARL ARMSTRONG ROAD OTTAWA K1V 2G2,K1V 2G2,45.2699976,-75.6958115
BOSTON PIZZA,"3884 3884 INNES ROAD, OTTAWA, ONTARIO, K1W 1K9",K1W 1K9,45.45305,-75.5102174
WHISPERS PUB   EATERY,"249 RICHMOND RD, OTTAWA ONTARIO, K1Z 6X1",K1Z 6X1,45.3939399,-75.7502304
SUMMERHAYS GRILL,"1971 BASELINE ROAD, OTTAWA ONTARIO, K2C 0C7",K2 0C7,45.3522424,-75.7614035
BARLEY MOW WESTBORO,401 RICHMOND RD OTTAWA K2A 0E9,K2A 0E9,45.3908701,-75.7565778
BOSTON PIZZA,"1640 1640 CARLING AVE, OTTAWA, ONTARIO, K2A 1C5",K2A 1C5,45.3795551,-75.7483383
SUMMERHAYS GRILL,1971 BASELINE ROAD OTTAWA K2C 0C7,K2C 0C7,45.3522339,-75.7614238
BROADWAY BAR   GRILL CENTRAL,"1896 PRINCE OF WALES DRIVE, OTTAWA ONTARIO, K2C 1P5",K2C 1P5,45.3537232,-75.704817
JACK ASTORS,"310 West Hunt Club Rd, Ottawa, ONTARIO, K2E 0B7",K2E 0B7,45.3391806,-75.7129147
TIME OUT PUB GRILL,"1119 MEADOWLANDS DRIVE E, OTTAWA ONTARIO, K2E 6J5",K2E 6J5,45.3629254,-75.7120714
MONTANA'S COOKHOUSE,"1711 1711 MERIVALE ROAD, NEPEAN, ONTARIO, K2G 3K2",K2G 3K2,45.3457992,-75.730014
BOSTON PIZZA,"521 521 WEST HUNT CLUB ROAD, NEPEAN, ONTARIO, K2G 5W5",K2G 5W5,45.3346893,-75.7252054
NEIGHBOURHOOD PUB (THE),2557 BASELINE RD OTTAWA K2H 7B3,K2H 7B3,45.341662,-75.786611
GREENFIELD'S PUB AND EATERY,900 GREENBANK ROAD NEPEAN K2J 1S8,K2J 1S8,45.2848885,-75.756435
BROADWAY BAR   GRILL (BARRHAVEN),"3777 STRANDHERD DR, NEPEAN ONTARIO, K2J 4B1",K2J 4B1,45.2680905,-75.7472205
BOSTON PIZZA,"1681 1681 GREENBANK ROAD, NEPEAN, ONTARIO, K2J 4Y6",K2J 4Y6,45.271842,-75.7470509
HEART AND CROWN,3161 STRANDHERD DRIVE OTTAWA K2J 5N1,K2J 5N1,45.2740817,-75.7191991
KELSEY'S RESTAURANT,"75 MARKETPLACE AVE, NEPEAN ONTARIO, K2J 5G4",K2J5G4,45.2699637,-75.7419583
BARLEY MOW WEST (THE),700 MARCH ROAD KANATA K2K 2V9,K2K 2V9,45.3494843,-75.9251912
WAVERLY (THE),339 ELGIN ST OTTAWA K2P 1M9,K2P 1M9,45.4156495,-75.6884337
THE ATOMIC ROOSTER,303 BANK ST OTTAWA ONTARIO,K2P 1X7,45.4149484,-75.6959644
CONNOR'S IRISH PUB,315 BANK ST OTTAWA K2P 1X9,K2P 1X9,45.4143635,-75.6954559
JAMES STREET PUB,390 BANK ST OTTAWA K2P 1Y5,K2P 1Y5,45.4130765,-75.6946608
MACLAREN'S ON ELGIN,301 ELGIN ST OTTAWA ONTARIO,K2P 2N9,45.4170862,-75.6892933
CEDARHILL GOLF   COUNTRY CLUB,"56 CEDARHILL DRIVE, NEPEAN ONTARIO, K2R 1C5",K2R 1C5,45.28911,-75.7882347
BARLEY MOW STITTSVILLE (THE),1160 CARP ROAD STITTSVILLE K2S 0T2,K2S 0T2,45.2683154,-75.9403688
MONTANA'S COOKHOUSE,"140 140 EARL GREY DRIVE, KANATA, ONTARIO, K2T 1B6",K2T 1B6,45.308835,-75.9141821
JACK ASTORS,"125 Roland Michener Drive, KANATA, ONTARIO, K2T 1G7",K2T 1G7,45.3086561,-75.9126189
WAVERLY (THE),5160 INNES ROAD OTTAWA K4A 3W4,K4A 3W4,45.4685777,-75.4548234
KELSEY'S RESTAURANT,"4444 INNES ROAD, CUMBERLAND ONTARIO, K4A 4C5",K4A 4C5,45.4603019,-75.4864629
BROADWAY PORTOBELLO,1967 PORTOBELLO BLVD ORLEANS K4A 4E7,K4A 4E7,45.4665295,-75.4659798
MONTANA'S COOKHOUSE,"4230 4230 INNES ROAD, OTTAWA, ONTARIO, K4A 5E6",K4A 5E6,45.4704786,-75.4551829
BROADWAY BAR GRILL,2756 CHAMBERLAND ST ROCKLAND K4K 0B2,K4K 0B2,45.5442176,-75.3026764
G.A.B.'S,"1039 LAURIER ST E, ROCKLAND ONTARIO, K4K 1J5",K4K 1J5,45.553945,-75.2798335
BOSTON PIZZA,"3002 3002 RICHELIEU, ROCKLAND, ONTARIO, K4K 1K9",K4K 1K9,45.5333688,-75.3069988
HAWKESBURY GOLF   CURLING CLUB,BOX 178 HAWKESBURY ONTARIO,K6A 2R8,45.6071264,-74.604189
SUMMER HEIGHTS GOLF   COUNTRY CLUB,1160 SOUTH BRANCH ROAD CORNWALL ONTARIO,K6H 0C7,45.0734869,-74.7389936
LA MAISON TAVERN,"900 MONTREAL RD, CORNWALL ONTARIO, K6H 1C8",K6H 1C8,45.018927,-74.7041
GLENGARRIAN PUB AND RESTAURANT (THE),"841 SYDNEY ST, CORNWALL ONTARIO, K6H 3J7",K6H 3J7,45.0290254,-74.7315892
CORNWALL GOLF AND COUNTRY CLUB,6740 SUTHERLAND DRIVE CORNWALL ONTARIO,K6H 5R5,45.0344657,-74.6520756
NAV CENTRE,1950 MONTREAL RD CORNWALL K6H 6L2,K6H 6L2,45.0289009,-74.6818263
BILL'S SPORTS BAR   DELI,441 13TH ST W CORNWALL ONTARIO,K6J 3H7,45.0244066,-74.7503147
LOLA'S PUB   GRUB,616 PITT ST CORNWALL ONTARIO,K6J 3R7,45.024779,-74.7327399
BOSTON PIZZA,"1234 BROOKDALE AVE, CORNWALL, ONTARIO, K6J 4P8",K6J 4P8,45.0274669,-74.7546326
UNION JACK PUB INC (THE),"59 KING ST W, BROCKVILLE ONTARIO, K6V 3P8",K6V 3P8,44.5892661,-75.6846176
BUDS ON THE BAY,15-19 BROAD ST BROCKVILLE ONTARIO,K6V 4T5,44.5886339,-75.6826975
BOSTON PIZZA,"2000 2000 PARKEDALE AVE, BROCKVILLE, ONTARIO, K6V 7N4",K6V 7N4,44.6128615,-75.6869424
TAP HOUSE GRILL SPORTS BAR,515 MCNEELY AVE CARLETON PLACE ONTARIO,K7C 4S6,45.1317247,-76.1189757
"SHORELINES CASINO, THOUSAND ISLANDS","380 HIGHWAY 2, GANANOQUE ONTARIO, K7G 2V4",K7G 2V4,44.3446834,-76.1333561
RED FOX TAVERN,80 FOSTER ST PERTH K7H 1S1,K7H 1S1,44.900468,-76.252232
FIDDLEHEADS,53 HERRIOTT ST PERTH ONTARIO,K7H 1T5,44.8996779,-76.251108
BOSTON PIZZA,"95 95 DALTON AVE, KINGSTON, ONTARIO, K7K 0C4",K7K 0C4,44.2667922,-76.5024741
CDN FORCES BASE KINGSTON        OTH,11 MERCURY CRES. KINGSTON ONTARIO,K7K 7B4,44.2423751,-76.4322349
ARMY NAVY   AIR FORCE VETERANS 377,317 GORE ROAD KINGSTON ONTARIO,K7L 0C3,44.2601825,-76.4488151
BOSTON PIZZA,"371 371 PRINCESS ST, KINGSTON, ONTARIO, K7L 1B9",K7L 1B9,44.2330447,-76.4910359
JACK ASTORS,"330 King Street East, KINGSTON, ONTARIO, K7L 3B6",K7L 3B6,44.2306772,-76.481447
BOSTON PIZZA,"755 755 GARDINERS ROAD, KINGSTON, ONTARIO, K7M 3Y5",K7M 3Y5,44.2480161,-76.5687168
J.A.K.K. TUESDAYS SPORTS PUB,"642-646 PROGRESS AVE, KINGSTON ONTARIO, K7M 4W9",K7M 4W9,44.2469781,-76.568858
BOSTON PIZZA,"1108B 1108 B PEMBROKE ST E, PEMBROKE, ONTARIO, K8A 8P7",K8A 8P7,45.818192,-77.080159
CITY BELLE PUB,310 FRONT ST BELLEVILLE K8N 2Z8,K8N 2Z8,44.1664724,-77.3859178
SLAPSHOT BAR   GRILL,151 CANNIFTON ROAD BELLEVILLE K8N 4V4,K8N 4V4,44.1813443,-77.3791369
CORNERS GRILL TAP,1601 WALLBRIDGE-LOYALIST RD BELLEVILLE K8N 4Z5,K8N 4Z5,44.2077893,-77.4612509
RED ROCK CANYON,365 NORTH FRONT ST BELLEVILLE K8P 5A5,K8P 5A5,44.1875294,-77.3949156
COACH''S MOUSTACHE (THE),366 NORTH FRONT ST BELLEVILLE K8P 5E6,K8P 5E6,44.1870827,-77.3978191
MONTANA'S COOKHOUSE,"170 170 BELL BLVD, BELLEVILLE, ONTARIO, K8P 5L2",K8P 5L2,44.187049,-77.4034257
BOSTON PIZZA,"227 227 DUNDAS ST E, TRENTON, ONTARIO, K8V 1L8",K8V 1L8,44.1041623,-77.5607381
NEW CELTIC PUB (THE),58 KING ST TRENTON K8V 3V8,K8V 3V8,44.1012139,-77.5784627
ALEXANDER''S ALE HOUSE,79 DAVIS ST E TRENTON K8V 4K9,K8V 4K9,44.114002,-77.5964247
STIX   STONES BILLIARDS,164 FRONT ST TRENTON K8V 4N8,K8V 4N8,44.1041815,-77.5799818
OASIS BAR   GRILL,31 KING ST E COBOURG K9A 1K6,K9A 1K6,43.9598721,-78.1641131
BOSTON PIZZA,"1111 1111 ELGIN ST. W, COBOURG, ONTARIO, K9A 5H7",K9A 5H7,43.9702437,-78.1997469
RILEY''S THE JUNCTION,GEORGE ST N PETERBOROUGH ONTARIO,K9J 3G7,44.3083657,-78.320286
BOSTON PIZZA,"841 841 RYE ST, PETERBOROUGH, ONTARIO, K9J 6X1",K9J 6X1,44.2811039,-78.3467013
JESSE'S TAP AND GRILL,583 ROBINSON ROAD ENNISMORE K9J 6X2,K9J 6X2,44.3961732,-78.4092253
PETERBOROUGH GOLF   COUNTRY CLUB,1030 ARMOUR ROAD N PETERBOROUGH ONTARIO,K9J 6Y4,44.332142,-78.307096
MONTANA'S COOKHOUSE,"870 870 THE PARKWAY, PETERBOROUGH, ONTARIO, K9J 8S5",K9J 8S5,44.2859956,-78.3447333
VISUAL SPORTS,63 KENT ST. W LINDSAY K9V 2Y3,K9V 2Y3,44.3550138,-78.7362962
BOSTON PIZZA,"435 435   439 KENT ST W, LINDSAY, ONTARIO, K9V 6C3",K9V 6C3,44.3484518,-78.764617
MANSION HOUSE RESTAURANT BAR (THE),129 HIGH ST SUTTON WEST L0E 1R0,L0E 1R0,44.3043628,-79.3594754
SCRUFFY DUCK RESTAURANT (THE),3950 DUNDAS ST E SCHOMBERG ONTARIO,L0G 1T0,44.0008729,-79.6831472
COPPER CREEK GOLF CLUB,11191 HIGHWAY 27 KLEINBURG L0J 1C0,L0J 1C0,43.8603733,-79.642833
SHANTY BAY COUNTRY CLUB,"322 2ND LINE  N, SHANTY BAY ONTARIO, L0L 2L0",L0L 2L0,44.4550993,-79.6175159
LAST SHOT BAR AND GRILL (THE),"4171 INNISFIL BEACH ROAD, THORNTON, ONTARIO, L0L 2N0",L0L 2N0,44.2751049,-79.7207368
BEACON RESTAURANT,"146 45TH ST., WASAGA BEACH ONTARIO, L0L 2P0",L0L 2P0,44.469673,-80.075729
C.W. COOP'S ANGUS,2 MASSEY ST ANGUS L0M 1B0,L0M 1B0,44.3147509,-79.8853703
DON CHERRY'S   BEACON HARBOURSIDE,2793 BEACON BLVD JORDAN L0R 1S0,L0R 1S0,43.1830091,-79.3663758
CHECKERED FLAG BAR   GRILL (THE),3761 HIGHWAY 6  S MOUNT HOPE L0R 1W0,L0R 1W0,43.1412722,-79.921326
TOUCHDOWN WILLY'S TAP   GRILL,237 ST CATHARINES ST SMITHVILLE L0R 2A0,L0R 2A0,43.094574,-79.5390932
BOSTON PIZZA,"4 4 HORSESHOE CRES, WATERDOWN, ONTARIO, L0R 2H2",L0R 2H2,43.3190596,-79.9139851
TRAILSIDE BAR GRILL,282 RIDGE ROAD N RIDGEWAY L0S 1N0,L0S 1N0,42.882533,-79.051828
SHERKSTON SHORES,"490 490 EMPIRE ROAD, SHERKSTON, ONTARIO, L0S 1R0",L0S 1R0,42.8745687,-79.1344759
SCUTTLEBUTT TAP   EATERY (THE),2596 STEVENSVILLE ROAD STEVENSVILLE L0S 1S0,L0S 1S0,42.9446346,-79.0547441
STATION PUB (THE),"22 ONTARIO ST, PORT HOPE ONTARIO, L1A 2T6",L1A 2T6,43.9521516,-78.2939884
GANARASKA HOTEL,"30 ONTARIO ST., PORT HOPE ONTARIO, L1A 2T8",L1A 2T8,43.952663,-78.294289
BOSTON PIZZA,"2372 2372 HIGHWAY #2, BOWMANVILLE, ONTARIO, L1C 4Z3",L1C 4Z3,43.9094548,-78.7110358
BITTMORE TAP   GRILL,"1656 NASH ROAD, COURTICE ONTARIO, L1E 2Y4",L1E 2Y4,43.91472,-78.789273
SIMCOE BLUES   JAZZ BAR   GRILL,5235 CEDAR SPRINGS ROAD OSHAWA ONTARIO,L1G 4W2,43.903373,-78.8242269
RILEY'S/THE JUNCTION,"104 KING ST. E, OSHAWA ONTARIO, L1H 1B6",L1H 1B6,43.8988055,-78.8598949
DOWN OMER RESTAURANT   BAR,"522 RITSON ROAD S, OSHAWA ONTARIO, L1H 5K4",L1H 5K4,43.8860707,-78.8478859
MONTANA'S COOKHOUSE,"1377 1377 HARMONY ROAD N, OSHAWA, ONTARIO, L1H 7K5",L1H 7K5,43.940394,-78.8492799
BULLDOG PUB (THE),600 GRANDVIEW ST S OSHAWA ONTARIO,L1H 8P4,43.8903767,-78.8148956
BEER DRUM,"339 MALAGA ROAD, OSHAWA ONTARIO, L1J 1N6",L1J 1N6,43.8743747,-78.8630489
PEARSON PUB (THE),"101 MARY ST W, WHITBY ONTARIO, L1N 2R4",L1N 2R4,43.8814298,-78.9431822
MELANIE PRINGLES,80 THICKSON ROAD S WHITBY ONTARIO,L1N 7T2,43.8836013,-78.9129493
MONTANA'S COOKHOUSE,"75 75 CONSUMERS DRIVE, WHITBY, ONTARIO, L1N 9S2",L1N 9S2,43.8691717,-78.9126803
BOSTON PIZZA,"20 20 TAUNTON ROAD E, WHITBY, ONTARIO, L1R 0A1",L1R 0A1,43.9161246,-78.9556644
BOSTON PIZZA,"8 SALEM RD S, AJAX, ONTARIO, L1S 7T7",L1S 7T7,43.8624751,-79.0161334
JACK ASTORS,"1355 Kingston Road, Unit #9001, PICKERING, ONTARIO, L1V 1B8",L1V 1B8,43.8359986,-79.0863992
BOSTON PIZZA,"1899 1899 BROCK RD, PICKERING, ONTARIO, L1V 4H7",L1V 4H7,43.8456359,-79.0699856
RIDGES PUB (THE),776 LIVERPOOL ROAD PICKERING L1W 1S2,L1W 1S2,43.821758,-79.08479
IRISH TIMES,1400 BAYLY ST PICKERING L1W 3R2,L1W 3R2,43.831052,-79.082562
MONTANA'S COOKHOUSE,"268 268 KINGSTON RD E, AJAX, ONTARIO, L1Z 1G1",L1Z 1G1,43.8646286,-79.0134308
HE''S NOT HERE,365 NIAGARA BLVD FORT ERIE L2A 3H1,L2A 3H1,42.9169115,-78.9101285
BOSTON PIZZA,"4725 DORCHESTER RD, NIAGARA FALLS, ONTARIO, L2E 0A8",L2E 0A8,43.1054828,-79.1106553
GRAND CENTRAL BAR GRILL AND PLANET LOU,4573 QUEEN ST NIAGARA FALLS L2E 2L7,L2E 2L7,43.106787,-79.0688629
REGENCY ATHLETIC RESORT,8068 MOUNTAIN ROAD NIAGARA FALLS L2E 6S4,L2E 6S4,43.1346857,-79.1358383
BOSTON PIZZA,"4950 4950 CLIFTON HILL, NIAGARA FALLS, ONTARIO, L2E 6S8",L2E 6S8,43.1085603,-79.0762341
BOSTON PIZZA,"7190 7190 MORRISON ST, NIAGARA FALLS, ONTARIO, L2E 7K5",L2E 7K5,43.1026055,-79.1154468
MONTANA'S COOKHOUSE,"5759 5759 VICTORIA AVE, NIAGARA FALLS, ONTARIO, L2G 3L6",L2G 3L6,43.091943,-79.076901
RUBY TUESDAY,4943 CLIFTON HILL NIAGARA FALLS L2G 3N5,L2G 3N5,43.0915954,-79.074766
RIVERSIDE TAVERN,8163 CUMMINGTON SQ E NIAGARA FALLS ONTARIO,L2G 6W1,43.059643,-79.050842
BOSTON PIZZA,"8444 8444 LUNDY'S LANE, NIAGARA FALLS, ONTARIO, L2H 1H4",L2H 1H4,43.087769,-79.1392145
DUFFS' PIZZERIA,198 NIAGARA ST ST. CATHARINES L2M 4V4,L2M 4V4,43.1745764,-79.2296816
CARLTON HEIGHTS PUB,595 CARLTON ST ST. CATHARINES L2M 4Y2,L2M 4Y2,43.1875042,-79.2071785
KIM'S WOODEN NICOL,224 LAKEPORT ROAD ST. CATHARINES L2N 4R5,L2N 4R5,43.1901243,-79.254429
MONTANA'S COOKHOUSE,"327 327 LAKE ST., ST. CATHARINES, ONTARIO, L2N 7T3",L2N 7T3,43.1795575,-79.2520539
BOSTON PIZZA,"333 333 ONTARIO ST, ST. CATHARINES, ONTARIO, L2R 5L3",L2R 5L3,43.1710987,-79.2655148
JACK ASTORS,"400 Ontario Street, ST. CATHARINES, ONTARIO, L2R 5L8",L2R 5L8,43.1755795,-79.2657699
EL CAFETAL RESTAURANT,"338 MERRITT ST, ST CATHARINES ONTARIO, L2T 1K6",L2T 1K6,43.1398816,-79.213696
BOSTON PIZZA,"221 221 GLENDALE AVE, ST. CATHARINES, ONTARIO, L2T 2K9",L2T 2K9,43.1335877,-79.224276
DONNELLY''S IRISH PUB,"54 FRONT ST S, THOROLD ONTARIO, L2V 1X1",L2V 1X1,43.1233833,-79.2004547
BOSTON PIZZA,"934 934 NIAGARA ST, WELLAND, ONTARIO, L3C 1M4",L3C 1M4,43.0221934,-79.2498033
MOMMAZ BOYZ PUB AND EATERY,454 FIRST AVE WELLAND L3C 6A7,L3C 6A7,43.0132092,-79.2597527
REEB TAVERN,2481 HIGHWAY 3 PORT COLBORNE L3K 5V3,L3K 5V3,42.8929133,-79.1839067
DON CHERRY''S SPORTS GRILL PORT COLBORNE,"3 MARINA ROAD, PORT COLBORNE ONTARIO, L3K 6C6",L3K 6C6,42.8800318,-79.2544959
JUDGE   JESTER (THE),17 MAIN ST E GRIMSBY L3M 1M7,L3M 1M7,43.1928859,-79.5600719
RIKOCHEZ LIMITED,54 ONTARIO ST GRIMSBY ONTARIO,L3M 3H3,43.19564,-79.557852
BOSTON PIZZA,"1 1 INDUSTRIAL DRIVE, GRIMSBY, ONTARIO, L3M 5H8",L3M 5H8,43.2049779,-79.5990044
ON 7 BAR GRILL,555 REXDALE BLVD MARKHAM ONTARIO,L3P 1B4,43.8561002,-79.3370188
COL. MUSTARD'S PUB   DELI,6545 HIGHWAY 7  E MARKHAM ONTARIO,L3P 3B4,43.8779663,-79.2407165
MAIN'S MANSION RESTAURANT   BAR,144 MAIN ST MARKHAM L3P 5T3,L3P 5T3,43.8789421,-79.261772
MILL BAR AND GRILL INC (THE),139 MAIN ST N MARKHAM L3R 2G6,L3R 2G6,43.8653731,-79.3101557
UNIONVILLE ARMS PUB   GRILL,189 MAIN ST. UNIONVILLE L3R 2G8,L3R 2G8,43.8677332,-79.3120959
BOSTON PIZZA,"7020 7020 WARDEN AVE, MARKHAM, ONTARIO, L3R 5W7",L3R 5W7,43.8202702,-79.3247371
PARKVIEW GOLF CLUB RESTAURANT,6400 STEELES AVE E MARKHAM L3S 3J5,L3S 3J5,43.841468,-79.2361774
BOSTON PIZZA,"7680 7680 MARKHAM RD, MARKHAM, ONTARIO, L3S 4S1",L3S 4S1,43.8532951,-79.2553661
MONTANA'S COOKHOUSE,"2910 2910 STEELES AVE E, MARKHAM, ONTARIO, L3T 4X1",L3T 4X1,43.8116806,-79.3589619
KENZINGTON BURGER BAR,"85 MISSISSAGA ST E, ORILLIA ONTARIO, L3V 1V6",L3V 1V6,44.609093,-79.41735
MONTANA'S COOKHOUSE,"3250 3250 MONARCH DRIVE, ORILLIA, ONTARIO, L3V 8A2",L3V 8A2,44.610022,-79.451851
GROUND BURGER BAR,#2 - 352 DOUG DUNCAN DR NEWMARKET L3Y 0C1,L3Y 0C1,44.0520877,-79.455752
BOSTON PIZZA,"18199 YONGE ST, NEWMARKET, ONTARIO, L3Y 4V8",L3Y 4V8,44.0712207,-79.4838289
MONTANA'S COOKHOUSE,"17440 17440 YONGE ST, NEWMARKET, ONTARIO, L3Y 6Y9",L3Y 6Y9,44.0526373,-79.481818
JACK ASTORS,"17830 Yonge Street, NEWMARKET, ONTARIO, L3Y 8S1",L3Y 8S1,44.0617316,-79.4826943
VILLAGE INN (THE),2 HOLLAND ST E BRADFORD L3Z 2A9,L3Z 2A9,44.1143151,-79.5646495
KENZINGTON BURGER BAR,4 HOLLAND ST W BRADFORD L3Z 2B7,L3Z 2B7,44.1142584,-79.5648987
BOSTON PIZZA,"1060 1060 HOOVER PARK DRIVE, STOUFFVILLE, ONTARIO, L4A 0K2",L4A 0K2,43.9566047,-79.2782081
LION OF STOUFFVILLE (THE),5917 MAIN ST STOUFFVILLE L4A 2Z9,L4A 2Z9,43.9681947,-79.2594156
JACK ASTORS,"155 York Boulevard, RICHMOND HILL, ONTARIO, L4B 3B4",L4B 3B4,43.8473028,-79.3744612
TOM AND JERRY'S BISTRO,10593 YONGE ST RICHMOND HILL L4C 3C5,L4C 3C5,43.8857911,-79.4390063
MONTANA'S COOKHOUSE,"8735 8735 YONGE ST., RICHMOND HILL, ONTARIO, L4C 6Z1",L4C 6Z1,43.8408205,-79.4282355
BOSTON PIZZA,"8 8 FIRST COMMERCE DRIVE, AURORA, ONTARIO, L4G 0H5",L4G 0H5,44.0122412,-79.4149986
WEGZ STADIUM BAR,"2601 RUTHERFORD ROAD, VAUGHN ONTARIO, L4K 2N6",L4K 2N6,43.8332249,-79.5213697
BOSTON PIZZA,"50 50 INTERCHANGE WAY, VAUGHAN, ONTARIO, L4K 5C3",L4K 5C3,43.789251,-79.532269
MONTANA'S COOKHOUSE,"3255 3255 RUTHERFORD ROAD, VAUGHAN, ONTARIO, L4K 5Y5",L4K 5Y5,43.8285464,-79.5410091
JACK ASTORS,"10 Colossus Drive, Woodbridge, ONTARIO, L4L 9J5",L4L 9J5,43.7868078,-79.5448651
MCREILLY'S RESTAURANT   PUB,"82 DUNLOP ST E, BARRIE ONTARIO, L4M 1A4",L4M 1A3,44.389397,-79.687146
MCREILLY'S RESTAURANT   PUB,82 DUNLOP ST E BARRIE L4M 1A4,L4M 1A4,44.389397,-79.687146
GRAYSON''S PUB GRILL,2 MARSELLUS DR BARRIE L4N 0Y4,L4N 0Y4,44.338829,-79.720488
PENALTY BOX BAR AND RESTAURANT (THE),220 BAYVIEW DR BARRIE L4N 4Y8,L4N 4Y8,44.357977,-79.6844401
O''HARA''S PUBLIC HOUSE,"420 LEACOCK DR, BARRIE ONTARIO, L4N 5G5",L4N 5G5,44.3910132,-79.7228544
MONTANA'S COOKHOUSE,"66 66 BARRIEVIEW DR, BARRIE, ONTARIO, L4N 8V4",L4N 8V4,44.3367772,-79.688264
INNISBROOK BAR   GRILL,2957 LOCKHART ROAD BARRIE L4N 9G7,L4N 9G7,44.3286181,-79.6591339
BOSTON PIZZA,"481 481 BRYNE DR, BARRIE, ONTARIO, L4N 9R1",L4N 9R1,44.3342293,-79.6901088
BOSTON PIZZA,"253 253 THE QUEENSWAY  S, KESWICK, ONTARIO, L4P 2B2",L4P 2B2,44.2273136,-79.4638554
BOSTON PIZZA,"16845 16835 HIGHWAY 12, MIDLAND, ONTARIO, L4R 0A9",L4R 0A9,44.7264671,-79.8802393
PHIL''S PUB EATERY,"519 HUGEL AVE, MIDLAND ONTARIO, L4R 1V8",L4R 1V8,44.749376,-79.886122
YOGI''S BAR GRILL,1285 ELGIN MILLS ROAD E RICHMOND HILL L4S 1M8,L4S 1M8,43.8961561,-79.4028155
MONTANA'S COOKHOUSE,"1495 1495 AEROWOOD DRIVE, MISSISSAUGA, ONTARIO, L4W 1C2",L4W 1C2,43.6449076,-79.6345869
PUMP ON RATHBURN (THE),1891 RATHBURN ROAD E MISSISSAUGA ONTARIO,L4W 3Z3,43.6363494,-79.5963197
OLD SCHOOL,1325 EGLINTON AVE E TORONTO L4W 4L9,L4W 4L9,43.6349989,-79.6225719
BULL PUB GRILL (THE),2800 SKYMARK AVE MISSISSAUGA L4W 5A6,L4W 5A6,43.6624198,-79.5933914
BOSTON PIZZA,"1510 1510 AIMCO BLVD, MISSISSAUGA, ONTARIO, L4W 5K1",L4W 5K1,43.638224,-79.6229731
RED LION BAR BISTRO,1077 NORTH SERVICE ROAD MISSISSAUGA ONTARIO,L4Y 1A6,43.5916193,-79.5764219
MONTANA'S COOKHOUSE,"5031 5031 HURONTARIO ST, MISSISSAUGA, ONTARIO, L4Z 3X7",L4Z 3X7,43.608029,-79.65418
BOSTON PIZZA,"35 35 SQUARE ONE DRIVE, MISSISSAUGA, ONTARIO, L5B 0E2",L5B 0E2,43.5966675,-79.6424231
JACK ASTORS,"219 Rathburn Road West, MISSISSAUGA, ONTARIO, L5B 4C1",L5B 4C1,43.5932405,-79.6492044
COOPERS PUB,780 BURNHAMTHORPE ROAD W MISSISSAUGA ONTARIO,L5C 3X3,43.5769675,-79.6528395
LAKEVIEW GOLF COURSE,1190 DIXIE RD MISSISSAUGA L5E 2P4,L5E 2P4,43.5889237,-79.5607955
BROGUE INN (THE),136 LAKESHORE ROAD E MISSISSAUGA L5G 1E6,L5G 1E6,43.5552401,-79.5822045
CUDA'S TAP & GRILL,1107 LORNE PARK ROAD MISSISSAUGA L5H 3A1,L5H 3A1,43.5319595,-79.6126427
JACK ASTORS,"3047 Vega Boulevard, MISSISSAUGA, ONTARIO, L5L 5Y3",L5L 5Y3,43.5161754,-79.6896515
COCK   PHEASANT (THE),63 QUEEN ST S MISSISSAUGA ONTARIO,L5M 3S9,43.5856801,-79.718693
BOSTON PIZZA,"2915 2915 EGLINTON AVE W, MISSISSAUGA, ONTARIO, L5M 6J3",L5M 6J3,43.551615,-79.7155286
JACK ASTORS,"2967 Argentia Road , MISSISSAUGA, ONTARIO, L5N 0A2",L5N 0A2,43.5983812,-79.7846522
MONTANA'S COOKHOUSE,"3065 3065 ARGENTIA ROAD, MISSISSAUGA, ONTARIO, L5N 8E1",L5N 8E1,43.594732,-79.788843
BOSTON PIZZA,"6978 6978 FINANCIAL DRIVE, MISSISSAUGA, ONTARIO, L5N 8J4",L5N 8J4,43.6111591,-79.7487897
MONTANA'S COOKHOUSE,"60 60 COURTNEY PARK DR. E, MISSISSAUGA, ONTARIO, L5T 2Y3",L5T 2Y3,43.6358439,-79.6915024
BRAEBEN GOLF COURSE,"5700 TERRY FOX WAY, MISSISSAUGA ONTARIO, L5V 2W2",L5V 2W2,43.6020227,-79.6951992
CANADA'S WONDERLAND,9580 JANE ST VAUGHAN ONTARIO,L6A 1S6,43.8484554,-79.5357146
MONTANA'S COOKHOUSE,"2890 2890 MAJOR MACKENZIE DRIVE E, MARKHAM, ONTARIO, L6C 0G6",L6C 0G6,43.8852878,-79.3720236
BOSTON PIZZA,"2910 2910 MAJOR MACKENZIE DR E, MARKHAM, ONTARIO, L6C 1J6",L6C 1J6,43.8855815,-79.3706577
MONTANA'S COOKHOUSE,"2530 2530 HYDE PARK GATE, OAKVILLE, ONTARIO, L6H 6M2",L6H 6M2,43.5149532,-79.6892648
BOSTON PIZZA,"2011 2011 WINSTON PARK DRIVE, OAKVILLE, ONTARIO, L6H 6P5",L6H 6P5,43.5079846,-79.6675104
O'FINN'S IRISH TEMPER,136 CHURCH ST OAKVILLE ONTARIO,L6J 1M9,43.4446891,-79.6704043
KING'S ARMS (THE),323 CHURCH ST OAKVILLE ONTARIO,L6J 1P2,43.4489341,-79.6663827
DRAFTED,379 SPEERS ROAD OAKVILLE ONTARIO,L6K 3T2,43.4401107,-79.6945518
MONTANA'S COOKHOUSE,"3537 3537 WYECROFT ROAD, OAKVILLE, ONTARIO, L6L 0B7",L6L 0B7,43.3939593,-79.7531786
BOSTON PIZZA,"270 270 NORTH SERVICE ROAD W, OAKVILLE, ONTARIO, L6M 2R8",L6M 2R8,43.4472108,-79.7029425
TIN CUP SPORTS GRILL,1540 NORTH SERVICE ROAD W OAKVILLE ONTARIO,L6M 4A1,43.4265836,-79.7265802
MONTANA'S COOKHOUSE,"170 170 GREAT LAKES DRIVE, BRAMPTON, ONTARIO, L6R 2K7",L6R 2K7,43.7306521,-79.764767
MONTANA'S COOKHOUSE,"9075 9075 AIRPORT ROAD, BRAMPTON, ONTARIO, L6S 0B8",L6S 0B8,43.7625868,-79.7212004
CASTLE SPORTS BAR   GRILL,9980 AIRPORT ROAD BRAMPTON ONTARIO,L6S 0C5,43.7621582,-79.7229922
BOSTON PIZZA,"2458 2458 QUEEN ST E, BRAMPTON, ONTARIO, L6S 5X9",L6S 5X9,43.7385459,-79.7027613
BRUNSWICK BRAMALEA LANES,50 BRAMTREE CR BRAMPTON L6S 5Z7,L6S 5Z7,43.7446215,-79.7112899
WALKER'S BREW,14 LISA ST BRAMPTON ONTARIO,L6T 4W2,43.7133289,-79.7272416
GOVNOR''S PUB (THE),10 BRAMHURST AVE BRAMPTON ONTARIO,L6T 5H1,43.7205518,-79.6869086
JACK ASTORS,"154 West Drive, BRAMPTON, ONTARIO, L6T 5P1",L6T 5P1,43.7084135,-79.7342617
2002 QUEEN ST.,6527 ELLIS ROAD BRAMPTON ONTARIO,L6V 1B7,43.726223,-79.6974989
BOSTON PIZZA,"65 RESOLUTION DRIVE, BRAMPTON, ONTARIO, L6W 0A6",L6W 0A6,43.6788377,-79.7200604
52ND STREET TAP GRILL,30A KENNEDY ROAD S BRAMPTON ONTARIO,L6W 3E2,43.6929804,-79.7447965
COASTERS PUB,55 RUTHERFORD RD S BRAMPTON ONTARIO,L6W 3J3,43.696236,-79.735701
SPOT ONE GRILL,289 RUTHERFORD ROAD S BRAMPTON ONTARIO,L6W 3R9,43.6855928,-79.725562
KEENAN''S IRISH PUB,550 QUEEN ST W BRAMPTON L6X 3E1,L6X 3E1,43.6708184,-79.777441
CROWN   LIONS (THE),"7985 FINANCIAL DR, BRAMPTON ONTARIO, L6Y 0J8",L6Y 0J8,43.6320359,-79.7696172
SHANGRI-LA BAR AND GRILL,305 CHAROLAIS BLVD BRAMPTON ONTARIO,L6Y 2R2,43.6587496,-79.7498186
KELTIC ROCK,"180 SANDALWOOD PKWY, BRAMPTON ONTARIO, L6Z 1Y4",L6Z 1Y4,43.7280783,-79.7951734
SLUM DOG BAR GRILL,BRISDALE DRIVE BRAMPTON ONTARIO,L7A 0S9,43.691531,-79.827295
ELLEN'S BAR AND GRILL,"190 BOVAIRD DR W, BRAMPTON ONTARIO, L7A 1A2",L7A 1A2,43.7033987,-79.7903425
A.J.''S RESTAURANT,REGAN RD UNIT 19 BRAMPTON ONTARIO,L7A 1B8,43.7013239,-79.8014829
DA PAOLO TRATTORIA   TAKE-OUT,15393 AIRPORT RD CALEDON EAST L7C 1E6,L7C 1E6,43.8583095,-79.8511565
TOBY JUG (THE),15 ALLAN DR BOLTON L7E 2B4,L7E 2B4,43.8728887,-79.7272976
TIME OUT SPORTS AND TAPS,68 MAIN ST GEORGETOWN ONTARIO,L7G 3H3,43.64965,-79.9265404
BOSTON PIZZA,"315 315 GUELPH ST, GEORGETOWN, ONTARIO, L7G 3Z1",L7G 3Z1,43.6494799,-79.8882835
SHOELESS JOE''S GEORGETOWN,367 GUELPH ST HALTON HILLS ONTARIO,L7G 4B6,43.6490181,-79.8796538
RED HARP PUB,137 MILL ST E ACTON ONTARIO,L7J 1H9,43.6333893,-80.0375093
TANNERS RESTAURANT,40 EASTERN AVE ACTON ONTARIO,L7J 2E5,43.6331401,-80.034983
JONESY''S SPORTS HUB GRUB,372 QUEEN ST ACTON L7J 2Y5,L7J 2Y5,43.6379938,-80.025561
WINDJAMMER BY THE LAKE,"5353 LAKESHORE ROAD, BURLINGTON ONTARIO, L7L 1C8",L7L 1C8,43.3680393,-79.7323714
SLYE FOX (THE),4057 NEW ST BURLINGTON L7L 1S8,L7L 1S8,43.3551731,-79.7687062
SUPREME FAMILY RESTAURANT,5111 NEW ST BURLINGTON L7L 1V2,L7L 1V2,43.3694829,-79.7533773
BLACK SWAN (THE),4040 PALLADIUM WAY BURLINGTON L7M 0C2,L7M 0C2,43.3969912,-79.8287629
TIN CUP SPORTS GRILL(BURLINGTON),1831 WALKER'S LINE BURLINGTON ONTARIO,L7M 0H6,43.3787401,-79.8051606
JERSEYS BAR   GRILL,1450 HEADON ROAD BURLINGTON ONTARIO,L7M 3Z5,43.3737072,-79.8105412
THE PURPLE HEATHER GASTRO PUB,3600 DUNDAS ST BURLINGTON ONTARIO,L7M 4B8,43.3912088,-79.8238193
MONTANA'S COOKHOUSE,"3040 3040 DAVIDSON COURT, BURLINGTON, ONTARIO, L7M 4M9",L7M 4M9,43.3560504,-79.8084267
CHAPS RESTAURANT,"3419 FAIRVIEW ST, BURLINGTON ONTARIO, L7N 2R4",L7N 2R4,43.3564658,-79.783482
JACK ASTORS,"3140 South Service Road, BURLINGTON, ONTARIO, L7N 3J3",L7N 3J3,43.3551684,-79.7986938
SOTIRIS SHISHKEBOB HOUSE,3135 HARVESTER ROAD BURLINGTON ONTARIO,L7N 3N8,43.3536964,-79.7977811
BURLINGTON SPRINGS GOLF   COUNTRY CLUB,"5235 CEDAR SPRINGS ROAD, BURLINGTON ONTARIO, L7P 0C1",L7P 0C1,43.3963274,-79.8992346
CARRIGAN ARMS,2025 UPPER MIDDLE ROAD BURLINGTON L7P 4K1,L7P 4K1,43.366403,-79.8204633
JOE DOG'S GASBAR GRILL,531 BRANT ST BURLINGTON L7R 2G6,L7R 2G6,43.3284563,-79.8012755
BOSTON PIZZA,"4523 4523 DUNDAS ST, BURLINGTON, ONTARIO, L7R 3X4",L7R 3X4,43.4067665,-79.80802
BRISTOL BAR GRILL,1235 FAIRVIEW ST BURLINGTON ONTARIO,L7S 1Y3,43.3308934,-79.819437
PEPPERWOOD BISTRO,"1455 1455 LAKESHORE ROAD, BURLINGTON, ONTARIO, L7S 2J1",L7S 2J1,43.3243619,-79.7972042
JACK ASTORS,"75 Centennial Parkway N., STONEY CREEK, ONTARIO, L8E 2P2",L8E 2P2,43.2308323,-79.7649056
BOSTON PIZZA,"727 727 QUEENSTON ROAD, HAMILTON, ONTARIO, L8G 1A1",L8G 1A1,43.2296143,-79.7701155
BOSTON PIZZA,"1219 1219 BARTON ST E, HAMILTON, ONTARIO, L8H 2V4",L8H 2V4,43.2507053,-79.8103666
PRIME TIME SPORTS BAR   GRILL,"216 KENILWORTH AVE N, HAMILTON ONTARIO, L8H 4S2",L8H 4S2,43.2466642,-79.8068976
TAPS BAR GRILL,"128 PARKDALE AVE N, HAMILTON ONTARIO, L8H 5X2",L8H 5X2,43.2400081,-79.7901151
MONTANA'S COOKHOUSE,"815 815 PARAMOUNT DRIVE, HAMILTON, ONTARIO, L8J 0B4",L8J 0B4,43.1921199,-79.8082421
S B B,443 HIGHWAY #20 ROAD EAST STONEY CREEK L8J 3H6,L8J 3H6,43.1645536,-79.7353377
BOSTON PIZZA,"125- 125-135 UPPER CENTENNIAL PKWY, STONEY CREEK, ONTARIO, L8J 3W2",L8J 3W2,43.1818467,-79.7730131
KING'S FOREST CIVIC GOLF COURSE RESTAURANT,100 GREENHILL AVE HAMILTON L8K 6M4,L8K 6M4,43.2189169,-79.8069332
OUR CORNER,"492 JAMES ST N, HAMILTON ONTARIO, L8L 1J1",L8L 1J1,43.2696055,-79.8633068
NOBODY PERFECT BAR AND GRILL,"251 JOHN ST N, HAMILTON ONTARIO, L8L 4P4",L8L 4P4,43.2634269,-79.8632321
CHEDOKE CIVIC GOLF COURSE RESTAURANT,563 ABERDEEN AVE HAMILTON L8P 2S8,L8P 2S8,43.2521538,-79.8980078
BOSTON PIZZA,"1563 1563 MAIN ST W, HAMILTON, ONTARIO, L8S 1E6, L8S 1E6",L8S 1E6,43.2572262,-79.9277083
ALE HOUSE,"802 1/2 UPPER GAGE AVE, HAMILTON ONTARIO, L8V 4K4",L8V 4K4,43.2197216,-79.8426653
HAMILTON POLICE ASSOCIATION,555 UPPER WELLINGTON ST HAMILTON L9A 3P8,L9A 3P8,43.2387459,-79.8663024
BOSTON PIZZA,"1565 1565 UPPER JAMES ST, HAMILTON, ONTARIO, L9B 1K2",L9B 1K2,43.2038235,-79.8911778
MONTANA'S COOKHOUSE,"1508 1508 UPPER JAMES ST, HAMILTON, ONTARIO, L9B 1K3",L9B 1K3,43.2064302,-79.8923089
TRACIE''S PLACE,592 UPPER JAMES ST S HAMILTON L9C 2Y8,L9C 2Y8,43.2394759,-79.8770123
MONTANA'S COOKHOUSE,"771 771 GOLF LINKS RD, ANCASTER, ONTARIO, L9K 1L5",L9K 1L5,43.227502,-79.9537632
BOSTON PIZZA,"284 284 TORONTO ST S, UXBRIDGE, ONTARIO, L9P 0C5",L9P 0C5,44.0936066,-79.1319563
SHOELESS JOE'S,"117 YOUNG ST, ALLISTON ONTARIO, L9P 1P4",L9P 1P4,44.1472656,-79.8828678
BOSTON PIZZA,"27 27 YOUNG ST, ALLISTON, ONTARIO, L9R 1B5",L9R 1B5,44.1487617,-79.8803291
THE COOP PUBLIC HOUSE AND FOODIARY,265 KING ST N ALLISTON L9R 1N3,L9R 1N3,44.1610784,-79.8811621
HORNET'S NEST BAR   GRILL,7300 INDUSTRIAL PKWY ALLISTON ONTARIO,L9R 1V4,44.139019,-79.8684811
BOSTON PIZZA,"1085 1085 MAPLE AVE, MILTON, ONTARIO, L9T 0A5",L9T 0A5,43.5373152,-79.8726608
SHOELESS JOE'S RESTAURANT,800 MAIN ST. E MILTON ONTARIO,L9T 0J4,43.5256731,-79.8690317
IVY ARMS (THE),201 MAIN ST E MILTON ONTARIO,L9T 1N7,43.5131111,-79.8836297
CHAMPS FEC LTD.,300 BRONTE ST S MILTON ONTARIO,L9T 1Y8,43.5019046,-79.8808269
NED DEVINE''S IRISH PUB,575 ONTARIO ST S MILTON ONTARIO,L9T 2N2,43.5078231,-79.8612098
KELSEY'S RESTAURANT,45 CHISHOLM DRIVE MILTON ONTARIO,L9T 4A6,43.5253131,-79.9036731
MONTANA'S COOKHOUSE,"1230 1230 STEELES AVE E, MILTON, ONTARIO, L9T 6R1",L9T 6R1,43.5414238,-79.868929
BOSTON PIZZA,"5 5 BUENA VISTA DRIVE, ORANGEVILLE, ONTARIO, L9W 0A9",L9W 0A9,43.9218047,-80.0815225
MONTANA'S COOKHOUSE,"111 111 FIFTH AVE, ORANGEVILLE, ONTARIO, L9W 5B7",L9W 5B7,43.929543,-80.092184
BOSTON PIZZA,"390 390 FIRST ST, COLLINGWOOD, ONTARIO, L9Y 1B5",L9Y 1B5,44.5016427,-80.2294813
MONTANA'S COOKHOUSE,"79 79 BALSAM ST., COLLINGWOOD, ONTARIO, L9Y 3Y6",L9Y 3Y6,44.5034269,-80.2350028
IRON SKILLET (THE),"20 BALSAM ST, COLLINGWOOD ONTARIO, L9Y 4H7",L9Y 4H7,44.504229,-80.2344828
BOSTON PIZZA,"311 311 MAIN ST, WASAGA BEACH, ONTARIO, L9Z 0B6",L9Z 0B6,44.5235043,-80.0074989
MARLWOOD GOLF   COUNTRY CLUB RESTAURANT,"31 MARLWOOD AVE, WASAGA BEACH ONTARIO, L9Z 1S5",L9Z 1S5,44.510879,-79.994182
BOSTON PIZZA,"785 25 CINEMART DRIVE, SCARBOROUGH, ONTARIO, M1B 6H6",M1B 6H6,43.7963956,-79.2041767
FOSSIL   HAGGIS PUB   GRUB (THE),790 MILITARY TRAIL WEST HILL M1E 4P7,M1E 4P7,43.7899671,-79.1965609
BOSTON PIZZA,"890 890 WARDEN AVE,TORONTO, ONTARIO, M1L 4R1",M1L 4R1,43.7291685,-79.2885446
MOOSE BARREL (THE),16 LEBOVIC AVE SCARBOROUGH ONTARIO,M1L 4V9,43.7232876,-79.290478
KORNERSTONES BAR   GRILL,1601 BIRCHMOUNT ROAD SCARBOROUGH M1P 2H5,M1P 2H5,43.7633609,-79.291298
JACK ASTORS,"580 Progress Avenue, SCARBOROUGH, ONTARIO, M1P 2K2",M1P 2K2,43.777486,-79.2546543
QUEEN VICTORIA'S PUB   CATERING,2240 MIDLAND AVE SCARBOROUGH M1P 4R8,M1P 4R8,43.7755484,-79.2745638
BOSTON PIZZA,"400 400 PROGRESS AVE, SCARBOROUGH, ONTARIO, M1P 5J1",M1P 5J1,43.7753712,-79.2629765
QUEENSHEAD RESTAURANT(THE),2555 VICTORIA PARK AVE TORONTO M1T 1A3,M1T 1A3,43.7722528,-79.321242
WILLIE STOUTS PUB GRILL,2175 SHEPPARD AVE E NORTH YORK M2J 1W8,M2J 1W8,43.7742856,-79.3309429
CURRACH PUB GRILL HOUSE (THE),4916 YONGE ST NORTH YORK ONTARIO,M2N 5N5,43.764185,-79.4120767
JACK ASTORS,"5051 Yonge Street, Unit #2, NORTH YORK, ONTARIO, M2N 5P2",M2N 5P2,43.7671908,-79.4119741
BOSTON PIZZA,"4841 4841 YONGE ST, TORONTO, ONTARIO, M2N 5X2",M2N 5X2,43.7620368,-79.4103214
JACK ASTORS,"1060 Don Mills Road, NORTH YORK, ONTARIO, M3C 0H8",M3C 0H8,43.7345959,-79.3438572
CRAVE RESTAURANT AND BAR,818 SHEPPARD AVE W TORONTO ONTARIO,M3H 2T2,43.752959,-79.4507696
BOSTON PIZZA,"180 180 RIMROCK ROAD, TORONTO, ONTARIO, M3J 3J9",M3J 3J9,43.757865,-79.4659173
TOP ONE LOUNGE,1300 FINCH AVE W NORTH YORK ONTARIO,M3J 3K2,43.7648338,-79.4898877
MONTANA'S COOKHOUSE,"2011 2011 STEELES AVE W, TORONTO, ONTARIO, M3J 3N3",M3J 3N3,43.7869563,-79.4711199
PETER G'S BAR   GRILL,1060 WILSON AVE DOWNSVIEW M3K 1G6,M3K 1G6,43.7284241,-79.4799473
SUNRISE BAR   GRILL,1416 VICTORIA PARK AVE NORTH YORK ONTARIO,M4A 2M1,43.7207712,-79.3009978
SHOOTERS SNOOKER   SPORTS CLUB,1448 LAWRENCE AVE E NORTH YORK ONTARIO,M4A 2V6,43.7421465,-79.3146093
LOST NIMBUS BOARD GAME CAFE,2183 DANFORTH AVE TORONTO M4C 1K4,M4C 1K4,43.6862567,-79.3099942
SKWISH,2252 QUEEN ST E TORONTO ONTARIO,M4E 1G2,43.6730785,-79.2867219
SHOELESS JOE''S EGLINTON LAIRD,856 EGLINTON AVE E TORONTO ONTARIO,M4G 2L1,43.7134569,-79.3653976
ORIGINAL'S SPAGHETTI WESTERN/ORIGINALS BAR AND DELI,1658 BAYVIEW AVE TORONTO ONTARIO,M4G 3C2,43.7072863,-79.3760456
LEGENDS SPORTS LOUNGE,"774 DANFORTH AVE, TORONTO ONTARIO, M4J 1L5",M4J 1L5,43.6796805,-79.3421566
WHISTLER'S RESTAURANT,995 BROADVIEW AVE TORONTO M4K 2S1,M4K 2S1,43.6839635,-79.356907
STONE LION PUB (THE),1958 QUEEN ST E TORONTO ONTARIO,M4L 1H6,43.6696988,-79.3025158
BREAKWALL BBQ,1910 QUEEN ST. E TORONTO ONTARIO,M4L 1H7,43.6693242,-79.304498
BOOTS&BOURBON SALOON,725 QUEEN ST E TORONTO M4M 1H1,M4M 1H1,43.6588471,-79.3491037
JOY BISTRO,884 QUEEN ST E TORONTO M4M 1J3,M4M 1J3,43.6604404,-79.3434845
DUKE LIVE (THE),1225 QUEEN ST E TORONTO ONTARIO,M4M 1L6,43.6629851,-79.3304991
BOSTON PIZZA,"16-A 16-A LESLIE ST, TORONTO, ONTARIO, M4M 3C1",M4M 3C1,43.6578387,-79.3291407
UPTOWN PUB HOUSE (THE),3185 YONGE ST TORONTO M4N 2K9,M4N 2K9,43.7275476,-79.4025341
SCRUFFY MURPHY'S IRISH PUB,150 EGLINTON AVE E TORONTO M4P 1E8,M4P 1E8,43.7078904,-79.3940213
ALLEYCATZ RESTAURANT LOUNGE,2409 YONGE ST TORONTO M4P 2E7,M4P 2E7,43.7103604,-79.3987051
RIGHT WING SPORTS PUB (THE),2497 YONGE ST TORONTO M4P 2H7,M4P 2H7,43.7120094,-79.3990914
BOSTON PIZZA,"40 40 EGLINTON AVE E, TORONTO, ONTARIO, M4P 3A2",M4P 3A2,43.7073435,-79.3971297
KRAMER'S BAR AND GRILL,1915 YONGE ST TORONTO M4S 1Z3,M4S 1Z3,43.6986376,-79.3963308
JINGLES TOO RESTAURANT,1378 YONGE ST TORONTO M4T 1Y5,M4T 1Y5,43.6862465,-79.3935614
JACK ASTORS,"2 Bloor Street East, TORONTO, ONTARIO, M4W 1A8",M4W 1A8,43.6710659,-79.3857432
CROWN DRAGON PUB,890 YONGE ST TORONTO ONTARIO,M4W 3P4,43.6734163,-79.3884245
BISHOP AND BELCHER (THE),175 BLOOR ST E TORONTO ONTARIO,M4W 3R8,43.6706761,-79.3825093
FOX AND FIDDLE,27 WELLESLEY ST E TORONTO ONTARIO,M4Y 1G7,43.6651795,-79.3831715
HAIR OF THE DOG,425 CHURCH ST TORONTO ONTARIO,M4Y 2C3,43.6629547,-79.3796612
CHURCH STREET GARAGE GRILL,477 CHURCH ST. TORONTO ONTARIO,M4Y 2C6,43.6646424,-79.3804706
RICHMOND ROGUE (THE),284 RICHMOND ST E TORONTO ONTARIO,M5A 1P4,43.653486,-79.3698126
MARQUIS OF GRANBY PUB (THE),"414-418 CHURCH ST, TORONTO ONTARIO, M5B 2A3",M5B 2A3,43.6610897,-79.3792473
JACK ASTORS,"10 Dundas Street East, TORONTO, ONTARIO, M5B 2G9",M5B 2G9,43.6567455,-79.380484
SHARK CLUB SPORTS BAR&GRILL,10 DUNDAS ST E TORONTO M5B 2R8,M5B 2R8,43.6567455,-79.380484
CARBON BAR,111 QUEEN ST E TORONTO M5C 1S2,M5C 1S2,43.6533063,-79.3741304
ESPLANADE TILTED KILT (THE),"38 THE ESPLANADE, TORONTO ONTARIO, M5E 1A1",M5E 1A1,43.6469296,-79.374978
ESPLANADE BIER MARKT,58 THE ESPLANADE TORONTO ONTARIO,M5E 1A6,43.6470858,-79.3741144
JACK ASTORS,"73A Front Street East, TORONTO, ONTARIO, M5E 1B8",M5E 1B8,43.6486294,-79.3730207
JERSEY GIANT RESTAURANT AND BAR,71 FRONT ST E TORONTO ONTARIO,M5E 1T9,43.6483517,-79.3729232
RIVER GAMBLER,"333 LAKESHORE BLVD E, TORONTO ONTARIO, M5E 4G4",M5E 4G4,43.6448525,-79.3730253
REX''S BAR KITCHEN,635 BAY ST TORONTO ONTARIO,M5G 1M7,43.6568315,-79.3838917
DOUBLETREE BY HILTON - TORONTO DOWNTOWN,108 CHESTNUT ST TORONTO ONTARIO,M5G 1R3,43.6546713,-79.386172
SPEAKEASY 21,21 ADELAIDE ST. W. TORONTO M5H 1N1,M5H 1N1,43.6499032,-79.3797965
SHERATON CENTRE HOTEL,"123 QUEEN ST W, TORONTO ONTARIO, M5H 2M9",M5H 2M9,43.6511766,-79.3841798
DRAKE ONE FIFTY,150 YORK ST TORONTO M5H 3S5,M5H 3S5,43.6494712,-79.3846792
BOTTOM LINE RESTAURANT (THE),"22 FRONT ST W, TORONTO ONTARIO, M5J 1C4",M5J 1C4,43.6465208,-79.3778797
FAIRMONT  ROYAL YORK HOTEL (THE),100 FRONT ST W TORONTO M5J 1E3,M5J 1E3,43.6459053,-79.381464
CAROUSEL CAFE,LAKE SHORE AVE TORONTO M5J 1X7,M5J 1X7,43.6261095,-79.3605372
HARBOURFRONT CORPORATION (1990),231 QUEENS QUAY WEST TORONTO ONTARIO,M5J 2G8,43.6386791,-79.3821611
JOE BADALI'S RISTORANTE ITALIANO & BAR,156 FRONT ST W TORONTO M5J 2L6,M5J 2L6,43.6452817,-79.3843036
JACK ASTORS,"144 Front Street West. TORONTO, ONTARIO, M5J 2L7",M5J 2L7,43.645397,-79.3839517
CASEY''S GRILL.BAR,123 FRONT ST W TORONTO M5J 2M2,M5J 2M2,43.6449175,-79.3833826
BEDFORD ACADEMY,36 PRINCE ARTHUR AVE TORONTO ONTARIO,M5R 1A9,43.6694985,-79.397444
MADISON AVENUE RESTAURANT,"14 MADISON AVE, TORONTO ONTARIO, M5R 2S1",M5R 2S1,43.6678462,-79.4032987
KOS CAFE & RESTAURANT,1070 BATHURST ST TORONTO ONTARIO,M5R 3G9,43.67224,-79.414402
PAUPERS RESTAURANT,"539 BLOOR ST W, TORONTO ONTARIO, M5S 1Y6",M5S 1Y6,43.6651598,-79.410044
CLOAK & DAGGER IRISH PUB,394 COLLEGE ST TORONTO ONTARIO,M5T 1S7,43.6571453,-79.4057574
ROSES NEW YORK RESTAURANT,135 FORT YORK BLVD TORONTO M5V 0E3,M5V 0E3,43.6392812,-79.3986318
BAR WELLINGTON,518 WELLINGTON ST W TORONTO M5V 1E3,M5V 1E3,43.6433978,-79.399415
BANKNOTE BAR,665 KING ST W TORONTO M5V 1M5,M5V 1M5,43.6437746,-79.4023901
HOME OF THE BRAVE,589 589 KING ST W TORONTO M5V 1M6,M5V 1M6,43.6443842,-79.4002559
REX HOTEL,194 QUEEN ST W TORONTO M5V 1Z1,M5V 1Z1,43.6505612,-79.3884301
JACK ASTORS,"133 John Street, TORONTO, ONTARIO, M5V 2E4",M5V 2E4,43.6486673,-79.390427
WAHLBURGER TORONTO,46 BLUE JAYS WAY TORONTO ONTARIO,M5V 2G3,43.6451305,-79.3922065
FOOTBALL FACTORY (THE),164 BATHURST ST TORONTO M5V 2R3,M5V 2R3,43.6462718,-79.4039343
BOSTON PIZZA,"250 250 FRONT ST W, TORONTO, ONTARIO, M5V 3G5",M5V 3G5,43.6447622,-79.3881812
MACHO RADIO BAR,92 FORT YORK BLVD TORONTO M5V 4A6,M5V 4A6,43.639947,-79.3973436
ADELAIDE CLUB,1 FIRST CANADIAN PLACE TORONTO ONTARIO,M5X 1C8,43.6485661,-79.381807
BACK ALLEY'S BAR&GRILL,33 SAMOR ROAD NORTH YORK ONTARIO,M6A 1J2,43.7175235,-79.4581967
REX RINX,"65 67&75 DUFFLAW RD, NORTH YORK, ONTARIO, M6A 1L7",M6A 1L7,43.7148926,-79.4617214
HOLIDAY INN TORONTO YORKDALE,"3450 DUFFERIN ST, TORONTO ONTARIO, M6A 2V1",M6A 2V1,43.7259809,-79.4588691
CHALKERS BISTRO,247 MARLEE AVE. NORTH YORK ONTARIO,M6B 4B8,43.7056426,-79.442418
THIRSTY FOX PUB,1028 EGLINTON AVE W TORONTO M6C 2C5,M6C 2C5,43.7001604,-79.4300902
A.C. RANCH CAFFE,1220 ST CLAIR AVE W TORONTO ONTARIO,M6E 1B4,43.6778512,-79.4447766
VIVOLI,665 COLLEGE ST TORONTO M6G 1B7,M6G 1B7,43.6550863,-79.4166798
CLINTON'S,693 BLOOR ST W TORONTO M6G 1L5,M6G 1L5,43.6635889,-79.4173533
CENTRAL JAZZ AND SUPPER CLUB,603 MARKHAM ST TORONTO M6G 2L7,M6G 2L7,43.6644061,-79.4120101
HURRICANE'S ROADHOUSE RESTAURANT,963 BLOOR ST W TORONTO M6H 1L7,M6H 1L7,43.6613225,-79.4286104
ANTLER,1454 DUNDAS ST W TORONTO M6J 1Y6,M6J 1Y6,43.649718,-79.4306042
SHOXS SPORTS SALOON,2827 DUNDAS ST W TORONTO M6P 1Y6,M6P 1Y6,43.665234,-79.4634888
DAIKO,1564 QUEEN ST W TORONTO ONTARIO,M6R 1A6,43.6399626,-79.4403278
YELLOW GRIFFIN PUB (THE),2202 BLOOR ST W TORONTO M6S 1N4,M6S 1N4,43.6514389,-79.475629
TIMOTHY'S PUB,344 BROWNS LINE ETOBICOKE M8W 3T7,M8W 3T7,43.6001599,-79.5447824
OLD SOD PUB (THE),2936 BLOOR ST W TORONTO M8X 1B6,M8X 1B6,43.6483817,-79.5074755
THE CROOKED CUE,3056 BLOOR ST W ETOBICOKE ONTARIO,M8X 1C4,43.6471227,-79.5131373
BOSTON PIZZA,"1602 THE QUEENSWAY, TORONTO, ONTARIO, M8Z 1V1",M8Z 1V1,43.6185096,-79.5440592
EZONE TAP GRILL,120 NORTH QUEEN ST ETOBICOKE ONTARIO,M8Z 2E2,43.621035,-79.5485606
WINGPORIUM,1000 ISLINGTON AVE TORONTO M8Z 4P8,M8Z 4P8,43.6299821,-79.5185802
ROYAL MEAT BBQ,710 KIPLING AVE TORONTO M8Z 5G5,M8Z 5G5,43.6254889,-79.5293
MONTANA'S COOKHOUSE,"1007 1007 THE QUEENSWAY, ETOBICOKE, ONTARIO, M8Z 6C7",M8Z 6C7,43.6233173,-79.5157855
SCRUFFY MURPHY'S IRISH PUB,225 THE EAST MALL ETOBICOKE ONTARIO,M9B 6J1,43.6323082,-79.5522549
JACK ASTORS,"1900 Queensway, ETOBICOKE, ONTARIO, M9C 5H5",M9C 5H5,43.6142913,-79.5601256
PLANET BOWL   ORBIT CAFE,5555 EGLINTON AVE W ETOBICOKE M9C 5M1,M9C 5M1,43.6489527,-79.6043251
CHEECH DAVE''S WINGPORIUM SPORTS BAR AN,5025 STEELES AVE W TORONTO M9L 2X1,M9L 2X1,43.7697342,-79.5481044
ALBERTO''S SPORTS BAR AND GRILL,2560 FINCH AVE W WESTON ONTARIO,M9M 2G3,43.7484011,-79.5597563
RED ROCK RESTAURANT/ THE ROCK SPORTS BAR,103 REXDALE BLVD REXDALE M9W 1P1,M9W 1P1,43.7119923,-79.5638341
SCHUEY'S BAR   GRILL,MARTIN GROVE RD TORONTO ONTARIO,M9W 4W1,43.6987323,-79.5742308
WOODBINE RACE TRACK,"555 REXDALE BLVD, TORONTO ONTARIO, M9W 5L2",M9W 5L2,43.7151594,-79.6040759
JACK ASTORS,"25 Carlson Court, TORONTO, ONTARIO, M9W 6A2",M9W 6A2,43.6893282,-79.5843113
MONTANA'S COOKHOUSE,"65 65 SKYWAY AVE, TORONTO, ONTARIO, M9W 6C7",M9W 6C7,43.6872472,-79.5860126
OLG SLOTS GRAND RIVER,7445 COUNTY ROAD #21 ELORA ONTARIO,N0B 1S0,43.6752472,-80.4330958
BUSHOLME INN (THE),"156 MAIN ST, ERIN ONTARIO, N0B 1T0",N0B 1T0,43.770897,-80.065431
POST TIME PUB   GRILL,257 GEORGE ST ARTHUR ONTARIO,N0G 1A0,43.8302556,-80.5344715
JEMSTONES BAR AND GRILL,47 ELORA ST CLIFFORD ONTARIO,N0G 1M0,43.9701568,-80.9806703
BOSTON PIZZA,"140 140 GODERICH ST, PORT ELGIN, ONTARIO, N0H 2C1",N0H 2C1,44.4249503,-81.397829
DRUMBO PUB (THE),7 WILMOT ST N DRUMBO N0J 1G0,N0J 1G0,43.2373335,-80.5525505
OTTER CREEK GOLF CLUB,275 JAMES ST OTTERVILLE N0J 1R0,N0J 1R0,42.9153762,-80.6152123
SAWMILL CREEK GOLF   COUNTRY CLUB,3790 LAKESHORE RD CAMLACHIE N0N 1E0,N0N 1E0,43.0377478,-82.1678103
QUEST'S ADVENTURES IN FOOD AND DRINK,62 LONDON RD THAMESVILLE N0P 2K0,N0P 2K0,42.5523714,-81.9746784
MONTANA'S COOKHOUSE,"201 201 STONE ROAD W, GUELPH, ONTARIO, N1G 5L4",N1G 5L4,43.5214488,-80.232245
STAMPEDE RANCH (GUELPH) INC.,226 WOODLAWN ROAD W GUELPH ONTARIO,N1H 1B6,43.5531122,-80.2930744
BOSTON PIZZA,"35 35 WOODLAWN ROAD W, GUELPH, ONTARIO, N1H 1G8",N1H 1G8,43.5635055,-80.2801581
PENNY WHISTLE (THE),2 QUEBEC ST GUELPH N1H 2T3,N1H 2T3,43.5457735,-80.2518479
WESTERN HOTEL,72 MACDONELL ST GUELPH N1H 2Z6,N1H 2Z6,43.5452935,-80.2477706
MCCABE'S IRISH PUB & GRILL,"9 WYNDHAM ST N, GUELPH, ONTARIO, N1H 4E2",N1H 4E2,43.5447654,-80.2477046
GUELPH CUTTEN CLUB,190 COLLEGE AVE E GUELPH ONTARIO,N1H 6L3,43.5408329,-80.229446
AMPLE ANNIE'S ITTY-BITTY ROADHOUSE,219 SILVERCREEK PKY GUELPH N1H 7K4,N1H 7K4,43.544503,-80.285801
WOODLAWN BOWL,253 WOODLAWN ROAD W GUELPH ONTARIO,N1H 8J1,43.5532905,-80.2953782
BOSTON PIZZA,"100 100 MACQUEEN BLVD., FERGUS, ONTARIO, N1M 3T8",N1M 3T8,43.6972294,-80.366263
Q BBQ PUBLIC HOUSE,164 BEVERLY ST CAMBRIDGE N1R 3Z7,N1R 3Z7,43.365864,-80.306371
MONTANA'S COOKHOUSE,"40 40 PINEBUSH ROAD, CAMBRIDGE, ONTARIO, N1R 8K5",N1R 8K5,43.4114052,-80.3243654
BOSTON PIZZA,"205 205 FRANKLIN BLVD, CAMBRIDGE, ONTARIO, N1R 8P1",N1R 8P1,43.356641,-80.2861884
MILTONS RESTAURANT,"2979 KING ST E, KITCHENER ONTARIO, N2A 1A8",N2A 1A8,43.4284856,-80.4335254
BOSTON PIZZA,"425 BINGEMANS CENTRE DR, KITCHENER, ONTARIO, N2B 3X7",N2B 3X7,43.4724291,-80.4504822
JACK ASTORS,"15A - 2960 Kingsway Drive, KITCHENER, ONTARIO, N2C 1X1",N2C 1X1,43.4246563,-80.4390377
BOSTON PIZZA,"721 721 OTTAWA ST S, KITCHENER, ONTARIO, N2E 0A9",N2E 0A9,43.4241326,-80.4833211
MONTANA'S COOKHOUSE,"740 740 OTTAWA ST S, KITCHENER, ONTARIO, N2E 3H5",N2E 3H5,43.4241075,-80.4854439
BOBBY O'BRIEN'S KITCHENER,"125 KING ST W, KITCHENER ONTARIO, N2G 1A7",N2G 1A7,43.4503865,-80.4917302
MCCABE'S KITCHENER,"352 KING ST W, KITCHENER ONTARIO, N2G 1B7",N2G 1B7,43.4520548,-80.4955602
CORNER PUB,22 OTTAWA ST KITCHENER ONTARIO,N2G 3S6,43.4414677,-80.4723903
THE PUB ON KING,"77 KING ST N, WATERLOO, ONTARIO, N2J 2X3",N2J 2X3,43.4678094,-80.5234069
BOSTON PIZZA,"651 651 ERB ST W, WATERLOO, ONTARIO, N2J 3Z4",N2J 3Z4,43.4458881,-80.5714793
BOSTON PIZZA,"190 190 GATEWAY PARK DRIVE, KITCHENER, ONTARIO, N2P 2J4",N2P 2J4,43.4049004,-80.3854891
MONTANA'S COOKHOUSE,"310 310 THE BOARDWALK, WATERLOO, ONTARIO, N2T 0A6",N2T 0A6,43.4387751,-80.5640846
BOSTON PIZZA,"597 597 KING ST N, WATERLOO, ONTARIO, N2V 2N3",N2V 2N3,43.502519,-80.535225
BOSTON PIZZA,"4 4 MILLENIUM WAY, KINCARDINE, ONTARIO, N2Z 0B5",N2Z 0B5,44.1741906,-81.6145649
E.J.'S AT BADEN,39 SNYDER'S RD W BADEN N3A 2M1,N3A 2M1,43.4033416,-80.6705328
PUSLINCH LAKE GOLF COURSE,6527 ELLIS ROAD CAMBRIDGE N3C 2V4,N3C 2V4,43.4313681,-80.2778532
MONTANA'S COOKHOUSE,"84 84 LYNDEN ROAD, BRANTFORD, ONTARIO, N3R 6B8",N3R 6B8,43.1727295,-80.2424831
BIG BENS FAMILY DINER,241 DUNSDON ST BRANTFORD N3R 7C3,N3R 7C3,43.182846,-80.257672
BOSTON PIZZA,"299 299 WAYNE GRETZKY PKY, BRANTFORD, ONTARIO, N3R 8A5",N3R 8A5,43.1697743,-80.2444822
BOSTON PIZZA,"50 50 MARKET ST, BRANTFORD, ONTARIO, N3S 2E3",N3S 2E3,43.1360401,-80.2619502
ROCKLINGS TAP GRILL,75 DALHOUSIE ST BRANTFORD N3T 2J1,N3T 2J1,43.1392117,-80.2651746
BOSTON PIZZA,"25 25 QUEENSWAY  W, SIMCOE, ONTARIO, N3Y 2M7",N3Y 2M7,42.8458521,-80.3091457
SAMMY KRENSHAW''S,51 BROADWAY ST TILLSONBURG N4G 3P4,N4G 3P4,42.8585669,-80.7262811
COPPER MUG (THE),79 BROADWAY ST TILLSONBURG N4G 3P5,N4G 3P5,42.8594704,-80.7268681
BOSTON PIZZA,"102 102 BROADWAY ST, TILLSONBURG, ONTARIO, N4G 3P6",N4G 3P6,42.860065,-80.726939
BRIDGES (THE),101 JOHN POUND ROAD TILLSONBURG N4G 4H3,N4G 4H3,42.8513971,-80.7282472
BOSTON PIZZA,"1606 16TH ST E, OWEN SOUND, ONTARIO, N4K 5N4",N4K 5N4,44.5743339,-80.9200746
MONTANA''S COOKHOUSE,"1555 1555 18TH AVE E, OWEN SOUND, ONTARIO, N4K 6Y3",N4K 6Y3,44.5733379,-80.9111308
BOSTON PIZZA,"431 NORWICH AVE, WOODSTOCK, ONTARIO, N4S 3W4",N4S 3W4,43.1176959,-80.7381035
MONTANA'S COOKHOUSE,"511 511 NORWICH AVE, WOODSTOCK, ONTARIO, N4S 9A2",N4S 9A2,43.1146119,-80.736912
BOSTON PIZZA,"729 729 ERIE ST, STRATFORD, ONTARIO, N4Z 1A1",N4Z 1A1,43.3538038,-80.9969559
MOLLY BLOOM'S IRISH PUB,26 BRUNSWICK ST STRATFORD N5A 3L8,N5A 3L8,43.370005,-80.980881
INGERSOLL GOLF COURSE,51 HOLCROFT ST W INGERSOLL N5C 3K1,N5C 3K1,43.0289834,-80.8771882
BARNACLES BEERHOUSE EATERY,170 WILLIAM ST PORT STANLEY N5L 1E4,N5L 1E4,42.662515,-81.2161354
LEGENDS TAVERN,600 TALBOT ST ST. THOMAS N5P 1C7,N5P 1C7,42.7788279,-81.1912072
MAPLE RIDGE COUNTRY CLUB,3950 DUNDAS ST E LONDON N5V 5C6,N5V 5C6,43.02126,-81.118598
OLG SLOTS WESTERN FAIR,"900 KING ST, LONDON ONTARIO, N5W 5K3",N5W 5K3,42.9912533,-81.2212921
WALTZING WEASEL (THE),1324 ADELAIDE ST N LONDON N5X 1J9,N5X 1J9,43.0237,-81.2487
JACK ASTORS,"88 Fanshawe Park Road East, LONDON, ONTARIO, N5X 4C5",N5X 4C5,43.0278679,-81.2797988
FIRESIDE GRILL AND FAMILY RESTAURANT,1166 COMMISSIONERS ROAD E LONDON N5Z 4W8,N5Z 4W8,42.9626555,-81.1967449
OLIVE R. TWISTS,130 KING ST LONDON N6A 1C5,N6A 1C5,42.9825873,-81.2503778
JACK''S TABU,539 RICHMOND ST LONDON N6A 3E9,N6A 3E9,42.9882694,-81.2510767
MCCABE'S ,"739 RICHMOND ST, LONDON, ONTARIO, N6A 3H2",N6A 3H2,42.9948831,-81.2532601
MONTANA'S COOKHOUSE,"485 485 WELLINGTON ROAD S, LONDON, ONTARIO, N6C 4R3",N6C 4R3,42.9574654,-81.230759
BOSTON PIZZA,"1090 WELLINGTON ROAD S, LONDON, ONTARIO, N6E 1M2",N6E 1M2,42.9326716,-81.2216413
KOUZY''S PUB EATERY,769 SOUTHDALE ROAD E LONDON N6E 3B9,N6E 3B9,42.9434341,-81.215884
FLAVURS,855 WELLINGTON ROAD S LONDON N6E 3N5,N6E 3N5,42.9421612,-81.2264317
JACK ASTORS,"1070 Wellington Road South, LONDON, ONTARIO, N6E 3V8",N6E 3V8,42.9340549,-81.2218038
MONTANA'S COOKHOUSE,"1335 1345 FANSHAWE PARK ROAD W, LONDON, ONTARIO, N6G 5B4",N6G 5B4,43.0128094,-81.3299747
TIGER JACKS BAR   GRILL,842 WHARNCLIFFE ROAD S LONDON N6J 2N4,N6J 2N4,42.9423156,-81.2574738
SHOELESS JOE'S WESTMOUNT,805 WONDERLAND ROAD S LONDON N6K 2Y5,N6K 2Y5,42.9472398,-81.2897514
BOSTON PIZZA,"3090 3090 WONDERLAND ROAD S, LONDON, ONTARIO, N6L 1A6",N6L 1A6,42.9359,-81.2798557
WESTMINSTER TRAILS GOLF CLUB,2465 WESTMINSTER DR LONDON N6N 1L7,N6N 1L7,42.9004994,-81.1842802
ROYAL CANADIAN LEGION - BRANCH 501,"7097 KILBOURNE ROAD, LONDON ONTARIO, N6P 1R2",N6P 1R2,42.9140548,-81.3125928
BOSTON PIZZA,"490 490 HURON ROAD, GODERICH, ONTARIO, N7A 3X8",N7A 3X8,43.7304369,-81.6904229
CARADOC SANDS GOLF CLUB,24500 SAXTON RD STRATHROY N7G 3H4,N7G 3H4,42.9488945,-81.6050918
BOSTON PIZZA,"780 780 ST. CLAIR ST, CHATHAM, ONTARIO, N7M 5J7",N7M 5J7,42.4314899,-82.2212795
NORM'S PUB   GRILL,1450 LONDON ROAD SARNIA N7S 1P7,N7S 1P7,42.9821686,-82.3480883
BOSTON PIZZA,"1400 1400 EXMOUTH ST, SARNIA, ONTARIO, N7S 3X9",N7S 3X9,42.9854169,-82.3510241
MONTANA'S COOKHOUSE,"1399 1399 EXMOUTH ST, SARNIA, ONTARIO, N7S 3Y1",N7S 3Y1,42.9844433,-82.3538009
TWO AMIGOS BAR   GRILL,914 MURPHY ROAD SARNIA N7S 5C4,N7S 5C4,42.989096,-82.365517
CRAVIN'S CHILL   GRILL,460 EXMOUTH ST SARNIA N7T 5P3,N7T 5P3,42.985491,-82.388414
RIVER'S EDGE,750 JAMES ST WALLACEBURG N8A 2P5,N8A 2P5,42.5930799,-82.3870155
BOSTON PIZZA,"4450 4450 WALKER ROAD, WINDSOR, ONTARIO, N8W 3T5",N8W 3T5,42.2549665,-82.963104
BULL N''BARREL (THE),670 OUELLETTE AVE WINDSOR N9A 1B9,N9A 1B9,42.313246,-83.035886
HOUND LOUNGE CAFE (THE),"4 NORTH ROAD, BAYSVILLE ONTARIO, P0B 1A0",P0B 1A0,45.151379,-79.110428
ROOSTER''S BAR GRILL,"2 CEDAR AVE, NEW LISKEARD ONTARIO, P0J 1P0",P0J 1P0,47.5066805,-79.6701411
COMPANION HOTEL MOTEL,"930 FRONT ST, HEARST ONTARIO, P0L 1N0",P0L 1N0,49.6898799,-83.6673541
SIGNATURES RESTAURANT,3702 HIGHWAY 144 CHELMSFORD P0M 1L0,P0M 1L0,46.5692965,-81.1885471
JUBE''S BAR GRILL INC.,39 BALSAM ST COPPER CLIFF ONTARIO,P0M 1N0,46.4742043,-81.0668109
SPORTSMAN INN,"37 CHANNEL ST, KILLARNEY ONTARIO, P0M 2A0",P0M 2A0,45.9713736,-81.5140535
ANCHOR INN HOTEL,1 WATER ST LITTLE CURRENT P0P 1K0,P0P 1K0,45.9863554,-81.9315496
MO''S CATERING,1 LITTLE FALLS ROAD ATIKOKAN ONTARIO,P0T 1C0,48.7518552,-91.5919871
IGNACE TAVERN,300 FRONT ST IGNACE ONTARIO,P0T 1T0,49.4180386,-91.6597668
HOWEY BAY MOT,26 HIGHWAY 105 RED LAKE P0V 2M0,P0V 2M0,51.018195,-93.820571
EMO INN (THE),5916 HIGHWAY 11 EMO P0W 1E0,P0W 1E0,48.6331537,-93.8305505
DOCK SPORTS BAR (THE),5707 HIGHWAY 71 SIOUX NARROWS ONTARIO,P0X 1N0,49.397763,-94.0742428
BOSTON PIZZA,"50 50 JOSEPHINE ST, NORTH BAY, ONTARIO, P1B 0A7",P1B 0A7,46.3336992,-79.4680534
MOOSE'S LOOSE CHANGE LODGE,134 MAIN ST E NORTH BAY P1B 1A8,P1B 1A8,46.309988,-79.4632309
STATION TAP HOUSE STEAK COMPANY (THE),603 MCINTYRE ST E NORTH BAY P1B 1E6,P1B 1E6,46.3040677,-79.4572381
BURGER WORLD,"1405 HAMMOND ST, NORTH BAY ONTARIO, P1B 2J4",P1B 2J4,46.3121929,-79.4442581
BOAT NORTH BAY (THE),225 MEMORIAL DRIVE NORTH BAY P1B 4G6,P1B 4G6,46.3140918,-79.4705026
BURGER WORLD - ALGONQUIN,"1308 ALGONQUIN AVE, NORTH BAY ONTARIO, P1B 4Y2",P1B 4Y2,46.3278667,-79.4659817
CECIL''S BREWHOUSE AND KITCHEN / GRANDE E,"300 WYLD ST, NORTH BAY ONTARIO, P1B 9S9",P1B 9S9,46.309153,-79.462441
BOSTON PIZZA,"7 7 JOHN ST, HUNTSVILLE, ONTARIO, P1H 1H2",P1H 1H2,45.3281943,-79.2151509
MOOSE DELANEY'S SPORTS GRILL,3 CANN ST HUNTSVILLE P1H 1H3,P1H 1H3,45.3291134,-79.2148103
MUSKOKA ON THE ROCKS,"2215 HIGHWAY 60, HUNTSVILLE ONTARIO, P1H 2J6",P1H 2J6,45.3589707,-79.0986382
BOSTON PIZZA,"10 10 DEPOT DRIVE, BRACEBRIDGE, BRAMPTON, ONTARIO, P1L 0A1",P1L 0A1,45.0500727,-79.2926097
BOSTON PIZZA,"1100 1100 BAY ST, GRAVENHURST, ONTARIO, P1P 1Z9",P1P 1Z9,44.9199864,-79.386188
BOSTON PIZZA,"10 10 BAY ST, PARRY SOUND, ONTARIO, P2A 1S3",P2A 1S3,45.3396673,-80.0369997
(KNIGHTS INN PARRY SOUND,"72 JAMES ST, PARRY SOUND ONTARIO, P2A 1T5",P2A 1T5,45.3454427,-80.0341302
ARIZONA GRILL,"6 BOWES ST, PARRY SOUND ONTARIO, P2A 2K6",P2A 2K6,45.34413,-80.0293171
FEDERAL TAVERN,"4 DAY AVE., KIRKLAND LAKE ONTARIO, P2N 1K3",P2N 1K3,48.161028,-80.030258
NEW TREVI RESTAURANT,1837 LASALLE BLVD SUDBURY ONTARIO,P3A 2A3,46.521386,-80.93083
MONTANA'S COOKHOUSE,"1300 1300 MARCUS DRIVE, SUDBURY, ONTARIO, P3B 4K5",P3B 4K5,46.5017039,-80.9453419
BOSTON PIZZA,"120 120 DONNA DRIVE, SUDBURY, ONTARIO, P3B 4K6",P3B 4K6,46.5024972,-80.9390865
BEEF 'N BIRD TAVERN,923 LORNE ST SUDBURY P3C 4R7,P3C 4R7,46.4765007,-81.0205247
PEDDLER'S PUB   EATERY,63 CEDAR ST SUDBURY P3E 1A7,P3E 1A7,46.492,-80.9944
LITTLE MONTREAL,182 ELGIN ST SUDBURY P3E 3N5,P3E 3N5,46.4889597,-80.9938781
TONY V'S PIZZA,1323 MARTINDALE RD SUDBURY P3E 4J7,P3E 4J7,46.465141,-81.0094
SIGNATURES RESTAURANT,3020 HIGHWAY 69  N VAL CARON P3N 1R8,P3N 1R8,46.6111672,-81.0073902
NIKKI''S SPORTS GALLERY,"14 MOUNTJOY ST S, TIMMINS ONTARIO, P4N 1S4",P4N 1S4,48.4758922,-81.3354362
MONETA PUB GRUB,"331 PINE ST S, TIMMINS ONTARIO, P4N 2L1",P4N 2L1,48.4692233,-81.328839
BOSTON PIZZA,"856 856 RIVERSIDE DRIVE, TIMMINS, ONTARIO, P4N 3W1",P4N 3W1,48.4776741,-81.3612082
SPRUCE NEEDLES GOLF COURSE,"2400 DALTON ROAD, TIMMINS ONTARIO, P4N 7C2",P4N 7C2,48.4579773,-81.3905643
MONTANA'S COOKHOUSE,"1500 1500 RIVERSIDE DRIVE W, TIMMINS, ONTARIO, P4R 1A1",P4R 1A1,48.4738125,-81.3825007
JACKLEGGERS BAR GRILL,HILLSIDE DRIVE S ELLIOT LAKE ONTARIO,P5A 1N8,46.3799734,-82.6516242
TOP HAT SPORTS BAR AND GRILL,654 QUEEN ST E SAULT STE. MARIE P6A 2A4,P6A 2A4,46.5086006,-84.3282805
ROADHOUSE BAR GRILL (THE),743 TRUNK RD SAULT STE. MARIE P6A 3T3,P6A 3T3,46.5232847,-84.2692299
CANADIAN MOTOR HOTEL,410 PIM ST SAULT STE. MARIE P6B 2V1,P6B 2V1,46.5184117,-84.3182183
CENTRE ICE BAR GRILL,285 NORTHERN AVE E SAULT STE. MARIE P6B 4H9,P6B 4H9,46.533387,-84.3218187
BURGER DON FOOD BEVERAGE CO.,7 GREAT NORTHERN RD. SAULT STE. MARIE P6B 4Y4,P6B 4Y4,46.5225375,-84.3196803
BOSTON PIZZA,"601 601 GREAT NORTHERN ROAD, SAULT STE. MARIE, ONTARIO, P6B 5A1",P6B 5A1,46.5440332,-84.3200732
PARK GRILLE,196 INDUSTRIAL CRES. SAULT STE. MARIE P6B 5P3,P6B 5P3,46.545529,-84.323708
SERVICE GRILL SIDETRACK LOUNGE,319 KORAH ROAD SAULT STE. MARIE P6C 4H2,P6C 4H2,46.531564,-84.362493
BOSTON PIZZA,"505 505 MEMORIAL AVE., THUNDER BAY, ONTARIO, P7B 3Y6",P7B 3Y6,48.4211805,-89.2373272
MONTANA'S COOKHOUSE,"615 615 SIBLEY DRIVE, THUNDER BAY, ONTARIO, P7B 6Z8",P7B 6Z8,48.405563,-89.259258
PLAYERS SPORTS BAR EATERY,127 MAY ST THUNDER BAY P7E 1A9,P7E 1A9,48.3831237,-89.2455173
WAYLAND BAR GRILL (THE),1019 GORE ST W THUNDER BAY ONTARIO,P7E 3T2,48.3642458,-89.2973783
BOSTON PIZZA,"217 217 WEST ARTHUR ST., THUNDER BAY, ONTARIO, P7E 5P7",P7E 5P7,48.3812021,-89.2821204
B B ROADHOUSE BAR AND GRILL,349-A GOVERNMENT ROAD DRYDEN ONTARIO,P8N 2Z5,49.7861482,-92.8392889
FOREST INN CONFERENCE CENTRE,"HWY 72, SIOUX LOOKOUT ONTARIO, P8T 1A3",P8T 1A3,50.0756571,-91.9259149
BOSTON PIZZA,"840 840 KING'S HIGHWAY, FORT FRANCES, ONTARIO, P9A 2X4",P9A 2X4,48.6076691,-93.423111
COPPER RIVER INN CONFERENCE CENTRE,700 STEWART ST FORT FRANCES P9A 2Y2,P9A 2Y2,48.609019,-93.419468
LA PLACE RENDEZ-VOUS HOTEL,1201 IDYLWILD DRIVE FORT FRANCES ONTARIO,P9A 3M3,48.6209178,-93.3592505
KENORA TRAVELODGE,"800 HWY 17  E, KENORA ONTARIO, P9N 1L9",P9N 1L9,49.762886,-94.4776655
BORRELLI''S ON THE HARBOURFRONT,129 BERNIER DRIVE KENORA ONTARIO,P9N 1S9,49.7678976,-94.4908249
BOSTON PIZZA,"223 223 MAIN ST S, KENORA, ONTARIO, P9N 1T3",P9N 1T3,49.7657858,-94.4909915
FRASERWOOD TOURIST HOTEL ,123 Main ST  FRASERWOOD R0C 1A0,R0C 1A0,50.6467309,-97.1592592
VIKING INN,78 - 7TH STREET GIMLI R0C 1B0,R0C 1B0,50.6326581,-96.9949562
TEULON GOLF AND COUNTRY CLUB,TEULON TEULON R0C 3B0,R0C 3B0,50.381296,-97.259945
SAND BAR MOTOR INN,LOT 3 HIGHWAY 12 GRAND MARAIS R0E 0T0,R0E 0T0,50.5493084,-96.6273316
OAK BANK HOTEL,520 MAIN STREET OAKBANK R0E 1J0,R0E 1J0,49.9384962,-96.8424381
TALLBOYS,233 HIGHWAY 2 TREHERNE R0G 2V0,R0G 2V0,49.635726,-98.6960192
Ninette Hotel ,320 LAKE STREET WEST Ninette  R0K 1R0,R0K 1R0,49.3994763,-99.6322307
ROBLIN MOTOR INN ,236 MAIN ST W ROBLIN R0L 1P0,R0L 1P0,51.2296304,-101.3563543
STE ROSE HOTEL ,634 CENTRAL AVE S SAINTE ROSE DU LAC R0L 1S0,R0L 1S0,51.0603015,-99.5239986
MINIOTA MOTOR INN,177 MINIOTA ROAD SOUTH MINIOTA R0M 1M0,R0M 1M0,50.1427188,-101.0346365
BOSTON PIZZA,"1080 MANITOBA AVENUE, SELKIRK, MANITOBA, R1A 4M2",R1A 4M2,50.1518797,-96.8883118
BOSTON PIZZA,"2180 SASKATCHEWAN AVE W, PORTAGE LA PRAIRIE, MANITOBA, R1N 0P3",R1N 0P3,49.9715529,-98.3186957
SMITTYS REGENT,1512 REGENT AVENUE WEST WINNIPEG R2C 3B4,R2C 3B4,49.8955701,-97.055919
JEFFREY'S RESTAURANT & LOUNGE,1420 HENDERSON HWY WINNIPEG R2G 1N4,R2G 1N4,49.9455279,-97.0869441
NORWOOD HOTEL,112 MARION ST WINNIPEG R2H 0T1,R2H 0T1,49.8813571,-97.1240878
MONTANA'S COOKHOUSE,"1221 ST. MARY'S ROAD, WINNIPEG, MANITOBA, R2M 5E5",R2M 5E5,49.8279589,-97.1140867
BIG GUY'S RANCH & SALOON,16 200   MEADOWOOD DRIVE WINNIPEG R2M 5G3,R2M 5G3,49.8271223,-97.1065693
SMITTYS MEADOWOOD,A 150 MEADOWOOD DR WINNIPEG R2M 5L7,R2M 5L7,49.825513,-97.11121
BOSTON PIZZA,"1919 BISHOP GRANDIN BLVD, WINNIPEG, MANITOBA, R2M 5S1",R2M 5S1,49.8396447,-97.0941698
RIVERSIDE INN,531 ST. MARY'S RD WINNIPEG R2M3L3,R2M3L3,49.866933,-97.110391
BOSTON PIZZA,"1475 HENDERSON HIGHWAY, WINNIPEG, MANITOBA, R2N 1N3",R2N 1N3,49.8116938,-97.1062673
SMITTYS GARDEN CITY,GARDEN CITY SHOPPING CENTRE WINNIPEG R2V 3E1,R2V 3E1,49.9338576,-97.1218844
BOSTON PIZZA,"2211A MCPHILLIPS ST, WINNIPEG, MANITOBA, R2V 3M5",R2V 3M5,49.9507765,-97.14872
LINCOLN MOTOR HOTEL,1030 MCPHILLIPS STREET WINNIPEG R2X 2K7,R2X 2K7,49.9329962,-97.1661942
MARLBOROUGH HOTEL,331 SMITH ST WINNIPEG R3B 2G9,R3B 2G9,49.8949231,-97.1423222
LARTERS AT ST ANDREWS GOLF & CTRY CLUB,30 RIVER RD WINNIPEG R3C 4A3,R3C 4A3,49.8877178,-97.1268579
BOSTON PIZZA,"66 - 333 ST. MARY AVENUE, WINNIPEG, MANITOBA, R3C 4A5",R3C 4A5,49.8914845,-97.143594
BOSTON PIZZA,"1 - 690 ST. JAMES STREET, WINNIPEG, MANITOBA, R3G 3J7",R3G 3J7,49.883475,-97.2014698
MONTANA'S COOKHOUSE,"665 EMPRESS STREET, WINNIPEG, MANITOBA, R3G 3P7",R3G 3P7,49.8867695,-97.1963033
MONTANA'S COOKHOUSE,"665 EMPRESS STREET, WINNIPEG, MANITOBA, R3G3P7",R3G3P7,49.8867695,-97.1963033
AIRPORT MOTOR HOTEL ,1800 ELLICE AVE WINNIPEG R3H 0B7,R3H 0B7,49.8944941,-97.2100768
VISCOUNT GORT HOTEL,1670      PORTAGE AVENUE WINNIPEG R3J 0C9,R3J 0C9,49.8792364,-97.2037118
SILVER HEIGHTS RESTAURANT,2169 PORTAGE AVE WINNIPEG R3J 0L7,R3J 0L7,49.8768926,-97.2388416
BOSTON PIZZA,"2517 PORTAGE AVE, WINNIPEG, MANITOBA, R3J 0P1",R3J 0P1,49.875407,-97.2588169
SMITTYS ST JAMES,1017 ST JAMES STREET WINNIPEG R3K 0K6,R3K 0K6,49.8733216,-97.291261
HOWARD JOHNSON EXPRESS ,3740 PORTAGE AVE WINNIPEG R3K 0Z9,R3K 0Z9,49.8811099,-97.3177864
WESTWOOD VILLAGE INN,477 WESTWOOD DRIVE WINNIPEG R3K 1G5,R3K 1G5,49.880967,-97.2931635
JEKYLL & HYDE'S FREEHOUSE,437 STRADBROOK AVENUE WINNIPEG R3L 0J7,R3L 0J7,49.8780326,-97.1440533
CONFUSION CORNER BAR & GRILL,500 CORYDON AVENUE 1 WINNIPEG R3L 0P1,R3L 0P1,49.8739242,-97.1434296
UPSTAIRS IN THE VILLAGE,303-99 OSBORNE STREET WINNIPEG R3L 2P7,R3L 2P7,49.8786966,-97.1463679
SMITTY'S GRANT,8 580 PEMBINA HWY WINNIPEG R3M 2M5,R3M 2M5,49.8660816,-97.1456162
BOSTON PIZZA,"1170 TAYLOR AVENUE, WINNIPEG, MANITOBA, R3M 3Z4",R3M 3Z4,49.8520481,-97.1664615
BOSTON PIZZA,"1630 KENASTON BLVD, WINNIPEG, MANITOBA, R3P 2M6",R3P 2M6,49.8233894,-97.2041205
BOULEVARD PUB & BISTRO,3670 ROBLIN BOULEVARD WINNIPEG R3R 0E1,R3R 0E1,49.8681849,-97.2607127
BOSTON PIZZA,"2729 PEMBINA HIGHWAY, WINNIPEG, MANITOBA, R3T 2H5",R3T 2H5,49.7942242,-97.1580234
THE HUB,316 UNIVERSITY CENTRE WINNIPEG R3T 2N2,R3T 2N2,49.8093942,-97.1344793
SMITTY'S SOUTH,2835 PEMBINA HIGHWAY WINNIPEG R3T 4Z8,R3T 4Z8,49.7896395,-97.1582839
NICOLINO'S,4&5 2077  PEMBINA HIGHWAY WINNIPEG R3T 5J9,R3T 5J9,49.8150565,-97.1534619
SMITTY'S FAMILY RESTAURANT,UNIT 5 - 145 PARK ROAD W STEINBACH R5G 1P2,R5G 1P2,49.545144,-96.6915053
FRANTZ MOTOR INN,1000 MAIN ST STEINBACH R5G 1P9,R5G 1P9,49.5173592,-96.6469025
BOSTON PIZZA,"182 PTH 12, STEINBACH, MANITOBA, R5G 1V5",R5G 1V5,49.5170738,-96.6912344
BOSTON PIZZA,"215 LAVERENDRYE BOULEVARD, MORDEN, MANITOBA, R6M 1A2",R6M 1A2,49.1933898,-98.0797707
BOSTON PIZZA,"2 - 1140 RICHMOND AVENUE, BRANDON, MANITOBA, R7A 1M6",R7A 1M6,49.8263614,-99.9537386
KEYSTONE MOTOR INN,1050 18 ST BRANDON R7A 5C1,R7A 5C1,49.833507,-99.9621824
JOE BEEVERZ BAR & GRILL,20 - 1300 18TH STREET BRANDON R7A 6X7,R7A 6X7,49.8290718,-99.9628221
MONTANA'S COOKHOUSE,"823 - 18TH STREET, BRANDON, MANITOBA, R7C 1A6",R7C 1A6,49.8684498,-99.9618111
BOSTON PIZZA,"1450 MAIN STREET, DAUPHIN, MANITOBA, R7N 3H4",R7N 3H4,51.1362303,-100.0598486
SMITTY'S DAUPHIN,1601 MAIN ST. S DAUPHIN R7N 3J5,R7N 3J5,51.1326203,-100.0632622
BANKSIDE BAR & BILLIARDS,73 COMMERCIAL PL THOMPSON R8N 1A6,R8N 1A6,55.7454501,-97.8429043
BOSTON PIZZA,"4 MOAK CRESCENT, THOMPSON, MANITOBA, R8N 2B7",R8N 2B7,55.7444921,-97.8431216
GOOD THYMES RESTAURANT & BAR,1607 GORDON AVE THE PAS R9A 1L1,R9A 1L1,53.8042848,-101.2511758
Kelvington Hotel ,209 Main St  Kelvington  S0A1W0,S0A1W0,52.1624338,-103.5229853
Buck's Co Tavern,135 Kaiser William Ave E  Langenburg  S0A2A0,S0A2A0,50.8400753,-101.6793733
STORTHOAKS DOGHOUSE ,409 Center St  Storthoaks S0C 2K0,S0C 2K0,49.390398,-101.6017099
BOSTON PIZZA,"260 STONEGATE, MELFORT, SASKATCHEWAN, S0E 1A0",S0E 1A0,52.8525435,-104.5887825
Moosomin Country Squire ,410 Ellice St  Moosomin S0G 3N0,S0G 3N0,50.1479218,-101.6677015
CHRISTOPHER LAKE HERITAGE HOTEL,14 Main st  CHRISTOPHER LAKE S0J 0N0,S0J 0N0,53.539965,-105.7892309
Eddie's La Ronge,722 La Ronge Avenue Saskatoon S0J1L0,S0J1L0,52.166267,-106.622659
BOSTON PIZZA,"631 CENTENNIAL DR, MARTENSVILLE, SASKATCHEWAN, S0K 2T0",S0K 2T0,52.2814249,-106.6701618
Adobe Inn,201 Centennial Drive Martensville S0K2T2,S0K2T2,52.2871795,-106.6697703
SPLITTER'S BAR & GRILL,116 Center St  PONTEIX S0N 1Z0,S0N 1Z0,49.7463064,-107.4896867
BOSTON PIZZA,"226 BRDWAY STREET EAST, YORKTON, SASKATCHEWAN, S3N3K7",S3N3K7,51.2094248,-102.4496118
Boston Pizza Estevan,98 Souris Avenue Estevan S4A 1J3,S4A 1J3,49.1471244,-102.9932909
Detour Bar and Grill,13 - 1st Ave. SW Weyburn S4H 2H7,S4H 2H7,49.6583082,-103.8583532
Boston Pizza Emerald Park,22 Great Plains Drive Emerald Park S4L 1A1,S4L 1A1,50.4472632,-104.395343
BOSTON PIZZA,"22 GREAT PLAINS RD, EMERALD PARK, SASKATCHEWAN, S4L1A1",S4L1A1,50.4472632,-104.395343
Gaebels Brewhouse,300 McDonald St. Regina S4N7M2,S4N7M2,50.4736289,-104.5804878
Press Box Sports Bar,909 Albert Street Regina S4R 2P6,S4R 2P6,50.4644229,-104.6175803
BOSTON PIZZA,"545 ALBERT ST N, REGINA, SASKATCHEWAN, S4R 8E2",S4R 8E2,50.4858979,-104.6176076
MONTANA'S COOKHOUSE,"2655 GORDON ROAD, REGINA, SASKATCHEWAN, S4S 6H8",S4S 6H8,50.4019158,-104.620446
BOSTON PIZZA,"4657 RAE ST, REGINA, SASKATCHEWAN, S4S 6K6",S4S 6K6,50.4052624,-104.6203886
MONTANA'S COOKHOUSE,"4450 ROCHDALE BLVD, REGINA, SASKATCHEWAN, S4X 4P7",S4X 4P7,50.4982821,-104.6441873
Open Tap,4245 Rochdale Blvd Regina S4X 4R3,S4X 4R3,50.4961411,-104.6420374
BOSTON PIZZA,"111 MANITOBA STREET E, MOOSE JAW, SASKATCHEWAN, S6H 0A1",S6H 0A1,50.3893634,-105.5313838
Bugsy's Irish Pub,1235 Main St. North Moose Jaw S6H6M4,S6H6M4,50.4044486,-105.5299696
BOSTON PIZZA,"1650 MAIN ST N, MOOSE JAW, SASKATCHEWAN, S6H7K8",S6H7K8,50.4119096,-105.5367925
MONTANA'S COOKHOUSE,"351 THATCHER DR E, MOOSE JAW, SASKATCHEWAN, S6J 1L8",S6J 1L8,50.4118418,-105.5248544
Heritage Inn,1590 Main St. Moose Jaw S6J1L3,S6J1L3,50.4125948,-105.5344685
BOSTON PIZZA,"3250 2 AVE W, PRINCE ALBERT, SASKATCHEWAN, S6V 5E9",S6V 5E9,53.1833665,-105.759101
Bugsy's Lounge,2995 2nd Avenue West Prince Albert S6V7V5,S6V7V5,53.187956,-105.7601138
BOSTON PIZZA,"1601 8 ST E, SASKATOON, SASKATCHEWAN, S7H 0T2",S7H 0T2,52.1153062,-106.6323017
Thirsty Scholar,2105 - 8th Street East Saskatoon S7H0G8,S7H0G8,52.1155028,-106.6260219
Stan's Place and Lounge,106 110 Ruth Street Saskatoon S7J0K6,S7J0K6,52.0999758,-106.6694142
BOSTON PIZZA,"826 51 ST E, SASKATOON, SASKATCHEWAN, S7K 5C6",S7K 5C6,52.1734925,-106.6503553
Crackers Restaurant,227 Pinehouse Drive Saskatoon S7K 6N9,S7K 6N9,52.168143,-106.623001
Granada House Restaurant,904 22nd Street East Saskatoon S7M 0S1,S7M 0S1,52.1296001,-106.6835075
BOSTON PIZZA,"107 BETTS AVE, SASKATOON, SASKATCHEWAN, S7M 1L2",S7M 1L2,52.1287044,-106.7595423
Venice House,906 Central Avenue Saskatoon S7N 2C8,S7N 2C8,52.138047,-106.599131
Specklebelly's ,900 Central Ave. Saskatoon S7N2G8,S7N2G8,52.137849,-106.599405
MONTANA'S COOKHOUSE,"1840 MCORMOND DRIVE, SASKATOON, SASKATCHEWAN, S7S 0A5",S7S 0A5,52.1504183,-106.5657445
BOSTON PIZZA,"515 NELSON RD, SASKATOON, SASKATCHEWAN, S7S 1P4",S7S 1P4,52.1503949,-106.5678531
BOSTON PIZZA,"329 HEROLD RD, SASKATOON, SASKATCHEWAN, S7V 1J7",S7V 1J7,52.0987132,-106.5670824
BOSTON PIZZA,"11434 RAILWAY AVE E, NORTH BATTLEFORD, SASKATCHEWAN, S9A 3G8",S9A 3G8,52.7596022,-108.2730818
BOSTON PIZZA,"BOSTON PIZZA RESTAURANT AND LOUNGE, SWIFT CURRENT, SASKATCHEWAN, S9H 3X6",S9H 3X6,50.3060866,-107.7801058
MAINSTREET GRILL,4920 50 AVENUE GIBBONS T0A 1N0,T0A 1N0,53.8288626,-113.3286524
LA BICHE INN,10022 101 AVE LAC LA BICHE T0A 2C0,T0A 2C0,54.7710502,-111.974684
BOSTON PIZZA,"5009 42 ST, ST PAUL, ALBERTA, T0A 3A2",T0A 3A2,53.9931373,-111.273009
BOSTON PIZZA,"14068 STANLEY DR, LAC LA BICHE, ALBERTA, T0A2C0",T0A2C0,54.7623934,-112.0119077
Donalda Tavern,5026MainSt Donalda T0B1H0,T0B1H0,52.5847887,-112.5755945
BOSTON PIZZA,"6711 50 AVE, STETTLER, ALBERTA, T0C 2L2",T0C 2L2,52.3244954,-112.7362092
GRANDE CACHE HOTEL,1701 PINE PLAZA GRANDE CACHE T0E 0Y0,T0E 0Y0,53.8879837,-119.1161297
SAWRIDGE HOTEL JASPER,82 CONNAUGHT DR JASPER T0E 1E0,T0E 1E0,52.8894994,-118.0764849
DOMS GASTROPUB,109 2 AVE NW SLAVE LAKE T0G2A0,T0G2A0,55.282471,-114.772989
BOSTON PIZZA,"9506 114 AVE, HIGH LEVEL, ALBERTA, T0H 1Z0",T0H 1Z0,58.506889,-117.138383
Recovery Taphouse,30 Railway Ave  Drumheller  T0J 0Y0,T0J 0Y0,51.4623,-112.7077515
langdon crossing ,716 center st N langdon  T0J 1X2,T0J 1X2,50.9732416,-113.6795569
BOSTON PIZZA,"1130 TABLE MOUNTAIN ST -PO BOX 2228, PINCHER CREEK, ALBERTA, T0K 1W0",T0K 1W0,49.4986401,-113.9463832
BOSTON PIZZA,"3-37 COTTONWOOD DRIVE, BLACKFALDS, ALBERTA, T0M 0J0",T0M 0J0,52.3864655,-113.7782174
Texas Gate Hotel ,304 1 street west cohrane T14 1A5,T14 1A5,32.3629577,-95.3030686
BOSTON PIZZA,"2960 DUNMORE ROAD SE, MEDICINE HAT, ALBERTA, T1A 8E3",T1A 8E3,50.011706,-110.6530145
MONTANA'S COOKHOUSE,"400 3292 DUNMORE RD SE, MEDICINE HAT, ALBERTA, T1B 2R4",T1B 2R4,50.0039445,-110.6472281
BOSTON PIZZA,"2500 BOX SPRINGS BOULEVARD NW, MEDICINE HAT, ALBERTA, T1C0C8",T1C0C8,50.0641534,-110.7326222
BOSTON PIZZA,"14-6200 46 AVE, TABER, ALBERTA, T1G 2B1",T1G 2B1,49.7846609,-112.1289722
BOSTON PIZZA,"200 905 1 AVE S, LETHBRIDGE, ALBERTA, T1J 4M7",T1J 4M7,49.69864,-112.8325868
MONTANA'S COOKHOUSE,"2025 MAYOR MAGRATH DR S, LETHBRIDGE, ALBERTA, T1K 2S2",T1K 2S2,49.6723641,-112.7988913
boston pizza banff, #201 225 banff ave  Calgary T1L 1A2,T1L 1A2,51.0624801,-114.1846101
BOSTON PIZZA,"114 800 PINE RD, STRATHMORE, ALBERTA, T1P 1C1",T1P 1C1,51.0373563,-113.3891771
BOSTON PIZZA,"6 715 2 ST W, BROOKS, ALBERTA, T1R 1A9",T1R 1A9,50.57424,-111.897467
BOSTON PIZZA,"1323 2ND STREET W, BROOKS, ALBERTA, T1R1P7",T1R1P7,50.5857962,-111.8981699
boston pizza okotoks ,10 southridge dr okotoks T1S 1N1,T1S 1N1,50.7161216,-113.9816928
in cahoots ,500B Village lane  okotoks T1S 1Z6,T1S 1Z6,50.7187282,-113.9832403
the george traditional house,101 31 southridge dr  okotoks T1S 2N3,T1S 2N3,50.7148596,-113.9761813
BOSTON PIZZA,"10 SOUTHRIDGE DR, OKOTOKS, ALBERTA, T1S1N1",T1S1N1,50.7161216,-113.9816928
BOSTON PIZZA,"1508 13 AVE SE,HIGH RIVER, ALBERTA, T1V 2B1",T1V 2B1,50.5707821,-113.8436604
BOSTON PIZZA,"1704 BOW VALLEY TR, CANMORE, ALBERTA, T1W 1N5",T1W 1N5,51.0968159,-115.3579908
Tavern 1883,710 9 ST  CANMORE T1W 2V7,T1W 2V7,51.0900319,-115.3577461
boston pizza chestermere,200 196 chestermere station way chestermere T1X 1V3,T1X 1V3,51.0493517,-113.825542
Dockside ,109 East Chestermere Dr Chestermere  T1X1A1,T1X1A1,51.0518002,-113.8164253
Lakeside Golf CC ,555 Lakeside Greens DR  Chestermere  T1X1C5 ,T1X1C5 ,51.0403252,-113.8268561
BOSTON PIZZA,"2767 32 AVE NE, CALGARY, ALBERTA, T1Y 2G1",T1Y 2G1,51.0809647,-113.9963708
MONTANA'S COOKHOUSE,"100 2555 32 ST NE, CALGARY, ALBERTA, T1Y 7J6",T1Y 7J6,51.0754447,-113.9912731
Shotz Bar and Grill ,3508 32 Ave NE Calgary T1Y6J2,T1Y6J2,51.082063,-113.9848642
Chelsea's Pub and Grill,6 200 52 St NE Calgary T2A 4K8,T2A 4K8,51.0546759,-113.9552873
BOSTON PIZZA,"2836 MEMORIAL DR SE, CALGARY, ALBERTA, T2A 6L6",T2A 6L6,51.0486121,-113.9924181
boston pizza 18th st,700 8338 18st se   Calgary T2C 4E4,T2C 4E4,50.9784464,-114.0150456
Toad and Turtle Barlow,2475 27 AVE NE Calgary T2E 8M1,T2E 8M1,51.0765107,-114.0027514
SWANS RESTAURANT,1336 9 AVE SE CALGARY T2G 0T3,T2G 0T3,51.0405215,-114.032075
THE MISSION,220 42 AVE SW CALGARY ALBERTA,T2G 1Y4,51.016232,-114.066072
O'Sullivans,5809 MACLEOD TRAIL S Calgary T2H 0J9,T2H 0J9,51.002164,-114.07244
boston pizza chinook ,6455 macleod trail sw Calgary T2H 0K8,T2H 0K8,50.9978823,-114.0740046
boston pizza heritage gate ,7 heritage gate se Calgary T2H 3A7,T2H 3A7,50.9875432,-114.0440799
BOSTON PIZZA,"232 - 6455 MACLEOD TRAIL SW, CALGARY, ALBERTA, T2H0K8",T2H0K8,50.9978823,-114.0740046
BOSTON PIZZA,"7 HERITAGE GT SE, CALGARY, ALBERTA, T2H3A7",T2H3A7,50.987436,-114.0454487
Schanks MacLeod,9627 MACLEOD TRAIL SW Calgary T2J 0P6,T2J 0P6,50.9694903,-114.0734665
the brass monkey ,950 queensland drive  calgary T2J 6E7,T2J 6E7,50.9331863,-114.017973
BOSTON PIZZA,"101 12445 LAKE FRASER DR SE, CALGARY, ALBERTA, T2J 7A4",T2J 7A4,50.9414743,-114.0687253
Three Crowns - Bonavista,3133 380 Canyon Meadows Drive SE Calgary T2J 7C3,T2J 7C3,50.930988,-114.0642469
BOSTON PIZZA,"8108 BEDDINGTON BLVD NW, CALGARY, ALBERTA, T2K 3A8",T2K 3A8,51.1251343,-114.0714602
GAME TIME SPORTS BAR,11- 6219 CENTRE STREET N CALGARY T2K0V2,T2K0V2,51.0534906,-114.0624738
Boston Pizza Beddington,8108 Beddington Blvd NW Calgary T2K3A8,T2K3A8,51.1251343,-114.0714602
THE BLACK BULL PUB,53 HUNTERHORN RD NE CALGARY T2K6H9,T2K6H9,51.1113039,-114.053071
JAMESON'S IRISH PUB -  BRENTWOOD,16 3802 BRENTWOOD RD NW CALGARY T2L 1K8,T2L 1K8,51.0865882,-114.1291429
BOSTON PIZZA,"2420 16 AVE NW, CALGARY, ALBERTA, T2M 0J7",T2M 0J7,51.0674096,-114.1163005
LOCO LOU'S,1324 16 AVENUE NW CALGARY T2M0L1,T2M0L1,51.0672599,-114.0912083
JUPITER RESTAURANT & BAR,UPSTAIRS 124 10 ST NW CALGARY ALBERTA,T2N 1V3,51.0486151,-114.0708459
LIBERTINE PUBLIC HOUSE,223 8 AVE SW CALGARY ALBERTA,T2P 1B7,51.0456265,-114.0668948
BARCELONA TAVERN,505 8 AVE SW CALGARY ALBERTA,T2P 1G1,51.0456094,-114.0718651
CEILI'S ON 7TH,803 8 AVE SW CALGARY T2P 1H7,T2P 1H7,51.0459896,-114.0790165
Lord Nelson's Pub,1020 8 AVE SW Calgary T2P 1J2,T2P 1J2,51.046319,-114.0850131
CEILI'S ON 4TH,351 4 AVENUE SW CALGARY T2P 1R2,T2P 1R2,51.0493041,-114.0694927
METROPOLITAN GRILL,317 8 AVE SW CALGARY ALBERTA,T2P 2Y9,51.0456872,-114.0690708
SONOMA CAFE & LOUNGE,801 6TH ST SW CALGARY ALBERTA,T2P 3V8,51.0452171,-114.0769827
BRIGGS KITCHEN & BAR,100-317 10 AVENUE SW CALGARY ALBERTA,T2R 0A5,51.0433487,-114.0691902
ST JAMES CORNER,1217 1 ST SW CALGARY ALBERTA,T2R 0V3,51.0407617,-114.0658737
METROPOLITAN GRILL,880 16 AVE SW #16 CALGARY ALBERTA,T2R 1J9,51.0385721,-114.0815731
BOSTON PIZZA,"1116 17 AVE SW, CALGARY, ALBERTA, T2T 0B4",T2T 0B4,51.0380821,-114.0875119
JAMESONS IRISH PUB,1230 17 AVE SW CALGARY T2T 0B8,T2T 0B8,51.0379651,-114.0909184
PINT PUBLIC HOUSE ,1428 17 AVENUE SW CALGARY T2T 0C3,T2T 0C3,51.0381433,-114.0942076
BOSTON PIZZA,"2600 SOUTHLAND DR SW, CALGARY, ALBERTA, T2V 4J8",T2V 4J8,50.961801,-114.121479
Bull and Finch Elbow Dr,190 10233 Elbow Drive SW Calgary T2W 1E8,T2W 1E8,50.9618654,-114.085928
boston pizza southport,10456 southport rd sw Calgary T2W 3M5,T2W 3M5,50.9612285,-114.0723083
 BLACK SWAN ALE HOUSE,"10455 SOUTHPORT RD SW, CALGARY, ALBERTA, T2W 3N2",T2W 3N2,50.9617069,-114.072872
Three Crowns - Woodbine,20 523 Woodpark Blvd. SW Calgary T2W 4J3,T2W 4J3,50.940876,-114.1098157
Swigs,11213 30 ST SW Calgary T2W 4N5,T2W 4N5,50.953719,-114.130157
WINDSOR ROSE PUB,530-151 WALDEN GATE SE CALGARY T2X 0R2,T2X 0R2,50.8759758,-114.0365503
Rips,15 Millrise BLVD SW Calgary T2Y 1X7,T2Y 1X7,50.920755,-114.075762
BOSTON PIZZA,"235 SHAWVILLE BLVD SE, CALGARY, ALBERTA, T2Y 3H9",T2Y 3H9,50.9063666,-114.0667173
Bull and Finch Bridlewood,400 2335 162 Ave SW Calgary T2Y 4S6,T2Y 4S6,50.9057764,-114.1123218
coach and Horses,5000 150 MILLRISE BLVD Calgary T2Y 5G7,T2Y 5G7,50.9140742,-114.0716974
MONTANA'S COOKHOUSE,"400 4916 130 AVE SE, CALGARY, ALBERTA, T2Z 0G4",T2Z 0G4,50.9324351,-113.9637096
Toad and Turtle Shephard,5155 130TH AVE SW Calgary T2Z 0N3,T2Z 0N3,50.9311133,-113.9605702
boston pizza 130th ave,220 4307 130ave se  Calgary T2Z 3V8,T2Z 3V8,50.9304447,-113.9712836
boston pizza dalhousie,5005 dalhousie drive Calgary T3A 5R8,T3A 5R8,51.1056858,-114.1618499
SILVER POINT PUB & EATERY,8 -5720 SILVER SPRINGS BLVD NW CALGARY T3B4N7,T3B4N7,51.1047737,-114.1880299
BOSTON PIZZA,"1313 33 ST SW, CALGARY, ALBERTA, T3C 1P2",T3C 1P2,51.0410584,-114.1363637
BOSTON PIZZA,"100 5255 RICHMOND RD SW, CALGARY, ALBERTA, T3E 4P9",T3E 4P9,51.0169223,-114.1614354
BOSTON PIZZA,"140 CROWFOOT CRES NW, CALGARY, ALBERTA, T3G 2P6",T3G 2P6,51.1267373,-114.1973125
Schanks Crowfoot,103 CROWFOOT TERRACE nw Calgary T3G 4J8,T3G 4J8,51.1273558,-114.2035481
Boston Pizza Crowfoot Crescent,140 Crowfoot Cres NW Calgary T3G2P6,T3G2P6,51.1267223,-114.1973074
Strathos,5555 Strathocona Hill SW Calgary T3H 1M2,T3H 1M2,51.051805,-114.168231
MONTANA'S COOKHOUSE,"5562 SIGNAL HILL CTR SW, CALGARY, ALBERTA, T3H 3P8",T3H 3P8,51.0191026,-114.1682576
BOSTON PIZZA,"80 SADDLE TOWNE CIRCLE NE, CALGARY, ALBERTA, T3J 0H5",T3J 0H5,51.1231008,-113.947021
BOSTON PIZZA,"5455 FALSBRIDGE DR NE, CALGARY, ALBERTA, T3J 3E8",T3J 3E8,51.09716,-113.9561466
FIDDLER'S GREEN PUB,8294 CENTRE ST NE CALGARY ALBERTA,T3K 2X4,51.1289363,-114.0713575
BOSTON PIZZA,"NORTHPOINT AT COUNTRY HILLS, CALGARY, ALBERTA, T3K 5J6",T3K 5J6,51.1545604,-114.0636843
Boston Pizza Country Hills,388 Country Hill Blvd NE Calgary T3K5J6,T3K5J6,51.1551101,-114.063206
BOSTON PIZZA,"12286 SYMONS VALLEY RD NW, CALGARY, ALBERTA, T3P 0A3",T3P 0A3,51.1637975,-114.1261481
Boston Pizza Creekside,12286 Symons Valley Rd Nw Calgary T3P0A3,T3P0A3,51.1637975,-114.1261481
MONTANA'S COOKHOUSE,"11654 SARCEE TRAIL NW, CALGARY, ALBERTA, T3R 0A1",T3R 0A1,51.1560809,-114.1592386
BOSTON PIZZA,"61 BEJU INDUSTRIAL DR, SYLVAN LAKE, ALBERTA, T3S 0B4",T3S 0B4,52.3050582,-114.0717819
Fionn MacCool's Cross Iron,261055 Crossiron Blvd Balzac T4A0G3,T4A0G3,51.2027887,-113.9934473
Toad and turtle Airdrie,1900 MARKET STREET SE Calgary T4A0K9,T4A0K9,50.8796525,-113.9560012
BOSTON PIZZA,"106 SIERRA SPRINGS DRIVE SE, AIRDRIE, ALBERTA, T4B3G6",T4B3G6,51.269959,-114.0036283
BOSTON PIZZA,"122 LEVA AVE, RED DEER, ALBERTA, T4E 1B9",T4E 1B9,52.2108954,-113.8165765
BOSTON PIZZA,"5014 40 AVE, INNISFAIL, ALBERTA, T4G 1Z1",T4G 1Z1,52.0280843,-113.9304199
BOSTON PIZZA,"4520 46 ST, OLDS, ALBERTA, T4H 1A1",T4H 1A1,51.7957272,-114.094431
BOSTON PIZZA,"4820 60 STREET, PONOKA, ALBERTA, T4J 1K2",T4J 1K2,52.678834,-113.5924652
BOSTON PIZZA,"5846 HWY 2A, LACOMBE, ALBERTA, T4L 2G4",T4L 2G4,52.4769323,-113.7159144
EAST 40TH PUB - LOA,"3811 40 AVE, RED DEER, ALBERTA, T4N 2W4",T4N 2W4,52.25902,-113.7901597
BOSTON PIZZA,"3215 GAETZ AVENUE, RED DEER, ALBERTA, T4N 3Y1",T4N 3Y1,52.2516235,-113.8139159
BOSTON PIZZA,"7494 50 AVE, RED DEER, ALBERTA, T4P 1X7",T4P 1X7,52.302772,-113.814919
MONTANA'S COOKHOUSE,"195 2004 50 AVE, RED DEER, ALBERTA, T4R 3A2",T4R 3A2,52.2343991,-113.81691
HOCKEY CENTRAL LOUNGE,330 - 3715 47 AVE SYLVAN LAKE T4S 0C8,T4S 0C8,52.3042694,-114.0750904
CHEF FRANCISCO PUB & GRILL,4609 LAKESHORE DR SYLVAN LAKE T4S 1C3,T4S 1C3,52.311242,-114.0941847
BOSTON PIZZA,"4402 41 AVE, ROCKY MOUNTAIN HOUSE, ALBERTA, T4T1L8",T4T1L8,52.3614097,-114.9075632
BOSTON PIZZA,"6046 48 AVE, CAMROSE, ALBERTA, T4V0K3",T4V0K3,53.0184972,-112.8441063
BOSTON PIZZA,"6210 50 ST, BEAUMONT, ALBERTA, T4X 0B6",T4X 0B6,53.3628121,-113.4172599
HORSESHU SPORTS LOUNGE ,13610 58 ST EDMONTON T5A 0R4,T5A 0R4,53.5990573,-113.4311766
BOSTON PIZZA,"5515 137 AVE, EDMONTON, ALBERTA, T5A 3L4",T5A 3L4,53.5984584,-113.4264197
DRAFT COUNTRY NIGHTCLUB,12912 50 STREET NW EDMONTON T5A 4L2,T5A 4L2,53.5878774,-113.4193301
PLAYBACK PUB - LOA,594 HERMITAGE RD EDMONTON T5A 4N2,T5A 4N2,53.5864346,-113.4068551
END ZONE PUB,8604 112 AVE NW EDMONTON T5B 0G4,T5B 0G4,53.56144,-113.473642
LEAF BAR AND GRILL,9016 132 AVE NW EDMONTON T5E 0Y2,T5E 0Y2,53.59239,-113.480917
BOSTON PIZZA,"9703 137 AVENUE NW, EDMONTON, ALBERTA, T5E 2C2",T5E 2C2,53.5986764,-113.4927478
BOSTON PIZZA,"12711 - 97 STREET, EDMONTON, ALBERTA, T5E 4C1",T5E 4C1,53.585468,-113.49148
B STREET BAR,11818 111 AVE EDMONTON T5G 0E1,T5G 0E1,53.5589542,-113.5264695
BOSTON PIZZA,"10115 PRINCESS ELIZABETH AVE, EDMONTON, ALBERTA, T5G 0X9",T5G 0X9,53.5695004,-113.494179
BOSTON PIZZA,"11440-106 STREET, EDMONTON, ALBERTA, T5G 3A6",T5G 3A6,53.5644274,-113.504482
DOCKSIDE PUB,"10425 100 AVE, EDMONTON, ALBERTA, T5J 0A3",T5J 0A3,53.538694,-113.500775
MERCER TAVERN,100 - 10363 104 ST NW EDMONTON T5J 1B9,T5J 1B9,53.5459356,-113.4991693
METROPOLITAN BILLIARD CAFE ,"10250 106 ST, EDMONTON, ALBERTA, T5J 1H7",T5J 1H7,53.5442449,-113.5029302
BOSTON PIZZA,"10620 JASPER AVE, EDMONTON, ALBERTA, T5J 2A4",T5J 2A4,53.5412792,-113.5034351
THE PINT,100 10125 109 ST NW EDMONTON T5J 3P1,T5J 3P1,53.5421889,-113.5077774
1ST RND,11248 104 AVENUE NW EDMONTON T5K 2X4,T5K 2X4,53.5466113,-113.5152037
BOSTON PIZZA,"12104 137 AVE, EDMONTON, ALBERTA, T5L 4Y4",T5L 4Y4,53.5998932,-113.5310641
BOSTON PIZZA,"11320 GROAT RD, EDMONTON, ALBERTA, T5M 4B7",T5M 4B7,53.5623963,-113.5519857
BOSTON PIZZA,"10543 124 ST, EDMONTON, ALBERTA, T5N 1R8",T5N 1R8,53.5486215,-113.5354299
BOSTON PIZZA,"180 MAYFIELD COMMON, EDMONTON, ALBERTA, T5P 4B3",T5P 4B3,53.5417333,-113.6126315
DOUBLE TREE BY HILTON,16615 109 AVE EDMONTON T5P 4K8,T5P 4K8,53.5548926,-113.6077055
BOSTON PIZZA,"17002 90 AVE, EDMONTON, ALBERTA, T5T 1L6",T5T 1L6,53.5253504,-113.6165875
BOSTON PIZZA,"6238 199 ST NW, EDMONTON, ALBERTA, T5T 2K4",T5T 2K4,53.4949034,-113.6679307
THE BEER HUNTER PUB & GRILL - WEST,7522 178 ST NW EDMONTON T5T 2Y5,T5T 2Y5,53.5085737,-113.6314265
BOSTON PIZZA,"1678 8882 170 ST, EDMONTON, ALBERTA, T5T 4M2",T5T 4M2,53.5228469,-113.6238422
SMILIE'S RESTAURANT,15003 118 AVE NW EDMONTON T5V 1H9,T5V 1H9,53.5703586,-113.5800075
BOSTON PIZZA,"3303 118 AVE, EDMONTON, ALBERTA, T5W 4X1",T5W 4X1,53.5699028,-113.391776
CROWN & ANCHOR PUB & GRILL,15277 CASTLEDOWNS RD NW EDMONTON T5X 3N5,T5X 3N5,53.613436,-113.5157621
CHICAGO JOE'S RESTAURANT,10425 158 AVE EDMONTON T5X 5E5,T5X 5E5,53.61859,-113.502074
RICHARD'S PUB,12150 161 AVE NW EDMONTON T5X 5M8,T5X 5M8,53.6220628,-113.5349854
BOSTON PIZZA,"16521 97 ST, EDMONTON, ALBERTA, T5X 5V3",T5X 5V3,53.627136,-113.491027
BOSTON PIZZA,"13803 42 ST NW, EDMONTON, ALBERTA, T5Y 3E1",T5Y 3E1,53.5993187,-113.4061879
BOSTON PIZZA,"5515 101 AVE, EDMONTON, ALBERTA, T6A 0J3",T6A 0J3,53.5405629,-113.4222502
BOSTON PIZZA,"7641 ARGYLL RD, EDMONTON, ALBERTA, T6C 4A7",T6C 4A7,53.5069516,-113.4445575
BILLIARD CLUB - RFA,"200 10505 82 AVE, EDMONTON, ALBERTA, T6E 2A3",T6E 2A3,53.5180861,-113.5009157
O'BYRNES IRISH PUB,VARSCONA HOTEL EDMONTON T6E 2A7,T6E 2A7,53.518316,-113.5055314
BOSTON PIZZA,"10854 82 AVE, EDMONTON, ALBERTA, T6E 2B3",T6E 2B3,53.5183798,-113.5114068
ATLANTIC TRAP AND GRILL,7704 104 ST EDMONTON T6E 4C5,T6E 4C5,53.51347,-113.498261
THE PINT,8032 104 ST NW EDMONTON T6E 4E2,T6E 4E2,53.5169753,-113.4976752
POST TIME AT FITZGERALD'S,4704 97 ST NW EDMONTON T6E 5S1,T6E 5S1,53.4848465,-113.4794441
LEGENDS SPORTS BAR & TAP HOUSE,9221 - 34 AVENUE EDMONTON T6E 5T5,T6E 5T5,53.464745,-113.470641
LUMBERJACKS REST & SPORTSMAN CLUB,5708 75 ST NW EDMONTON T6E 5X6,T6E 5X6,53.493968,-113.44389
BOSTON PIZZA,"5320 CALGARY TRAIL,SOUTH, EDMONTON, ALBERTA, T6H 4J8",T6H 4J8,53.490921,-113.495823
BOSTON PIZZA,"4804 CALGARY TR, EDMONTON, ALBERTA, T6H5H5",T6H5H5,53.485702,-113.495862
BOSTON PIZZA,"11023 23 AVE, EDMONTON, ALBERTA, T6J 6P9",T6J 6P9,53.45382,-113.5140315
MONTANA'S COOKHOUSE,"10330 G A MACDONALD AVE NW, EDMONTON, ALBERTA, T6J 6R7",T6J 6R7,53.476173,-113.4949166
BORDERLINE SPORTS PUB & EATERY,3226 82 ST EDMONTON T6K 3Y3,T6K 3Y3,53.4644229,-113.457459
BOSTON PIZZA,"5228 23 AVE NW, EDMONTON, ALBERTA, T6L 6Y7",T6L 6Y7,53.454777,-113.423038
BOSTON PIZZA,"9804 22 AVE, EDMONTON, ALBERTA, T6N 1J7",T6N 1J7,53.453113,-113.484189
BOSTON PIZZA,"MANNING TOWNE CENTRE, EDMONTON, ALBERTA, T6N 1L6",T6N 1L6,53.4635136,-113.4865097
MONTANA'S COOKHOUSE,"1720 99 ST NW, EDMONTON, ALBERTA, T6N 1M5",T6N 1M5,53.446514,-113.485772
BOSTON PIZZA,"378 BULYEA RD NW, EDMONTON, ALBERTA, T6R 2B3",T6R 2B3,53.4755379,-113.5745212
MONTANA'S COOKHOUSE,"3816 17 ST NW, EDMONTON, ALBERTA, T6T 0C1",T6T 0C1,53.4775384,-113.3699907
BOSTON PIZZA,"12788 167 AVE NW, EDMONTON, ALBERTA, T6V 1J6",T6V 1J6,53.6287996,-113.5649751
MONTANA'S COOKHOUSE,"6142 CURRENTS DR NW, EDMONTON, ALBERTA, T6W 0L7",T6W 0L7,53.4380159,-113.603462
BOSTON PIZZA,"9630 ELLERSLIE RD, EDMONTON, ALBERTA, T6X 0N5",T6X 0N5,53.4255523,-113.482402
OIL COUNTRY TAPHOUSE - DRAYTON,5012 52 AVE DRAYTON VALLEY T7A 1R3,T7A 1R3,53.2237894,-114.9783541
FLUIDS BREWHOUSE AND GRILL,5-5505 50 STREET DRAYTON VALLEY T7A1W2,T7A1W2,53.2283959,-114.976332
BOSTON PIZZA,"4523 4 AVE, EDSON, ALBERTA, T7E 1B8",T7E 1B8,53.5859587,-116.4214818
BOSTON PIZZA,"4523 4 AVENUE, EDSON, ALBERTA, T7E 1C3",T7E 1C3,53.5859587,-116.4214818
THE GALLOWAY LOUNGE ,300 52 ST EDSON T7E 1V8,T7E 1V8,53.5807363,-116.436991
BOSTON PIZZA,"11303 100 ST, WESTLOCK ALBERTA, T7P 2R8",T7P 2R8,54.151166,-113.8288755
BOSTON PIZZA,"3836 KEPLER ST, WHITECOURT, ALBERTA, T7S 1N7",T7S 1N7,54.1271639,-115.6633686
BOSTON PIZZA,"100 506 CARMICHAEL LANE, HINTON, ALBERTA, T7V 1S8",T7V 1S8,53.3955118,-117.6038352
BOSTON PIZZA,"201 CALAHOO RD, SPRUCE GROVE, ALBERTA, T7X 1R1",T7X 1R1,53.5428863,-113.9108214
SHOTZ LOUNGE,3 221 .ENNIFER HEIL WAY SPRUCE GROVE T7X 4J5,T7X 4J5,53.5517528,-113.9360042
RIGGER'S BAR & GRILL INACTIVE,304 WESTGROVE DR SPRUCE GROVE T7X 4P9,T7X 4P9,53.539363,-113.922872
BOSTON PIZZA,"112 205 JENNIFER HEIL WAY, SPRUCE GROVE, ALBERTA, T7X0T3",T7X0T3,53.5496254,-113.9357064
BOSTON PIZZA,"70 BOULDER BLVD, STONY PLAIN, ALBERTA, T7Z 1V7",T7Z 1V7,53.5420489,-113.9796724
BOSTON PIZZA,"967 ORDZE RD, SHERWOOD PARK, ALBERTA, T8A 4L7",T8A 4L7,53.513277,-113.3301773
SMILIE'S VILLAGE - LOA,981 FIR ST SHERWOOD PARK T8A 4N5,T8A 4N5,53.5133978,-113.3273462
MONTANA'S COOKHOUSE,"2030 SHERWOOD DR, SHERWOOD PARK, ALBERTA, T8A 6G4",T8A 6G4,53.5332343,-113.2955253
BOSTON PIZZA,"11 BROADWAY BLVD, SHERWOOD PARK, ALBERTA, T8H 2C1",T8H 2C1,53.5451946,-113.3193013
POTS BAR & GRILL,9821 108 ST FORT SASKATCHEWAN T8L 2J2,T8L 2J2,53.712662,-113.203835
BOSTON PIZZA,"8751 94 ST, FORT SASKATCHEWAN, ALBERTA, T8L 4P4",T8L 4P4,53.6965134,-113.2136339
MEADOWVIEW DIAMONDS,1 MEADOWVIEW DR ST ALBERT T8N 1N3,T8N 1N3,53.6325446,-113.6378086
THE BEER HUNTER PUB & GRILL - ST.ALBERT,386 ST ALBERT RD ST ALBERT T8N 2X1,T8N 2X1,53.6397735,-113.6258861
BOSTON PIZZA,"200 ST ALBERT RD, ST ALBERT, ALBERTA, T8N 5H9",T8N 5H9,53.625352,-113.61649
O'MAILLE'S IRISH PUB,104 398 ST ALBERT RD ST ALBERT T8N 5J9,T8N 5J9,53.644834,-113.62737
BOSTON PIZZA,"80 585 ST ALBERT RD, ST ALBERT, ALBERTA, T8N 6G5",T8N 6G5,53.6524813,-113.627809
MONTANA'S COOKHOUSE,"10 445 ST ALBERT RD, ST ALBERT, ALBERTA, T8N 6T9",T8N 6T9,53.6467265,-113.625791
BOSTON PIZZA,"9602 100 ST, PEACE RIVER, ALBERTA, T8S 1H5",T8S 1H5,56.2371419,-117.2906292
PEACE VALLEY INNS,9609 101 ST PEACE RIVER T8S 1S3,T8S 1S3,56.2366497,-117.2883419
SAWRIDGE INN,9510 100 ST PEACE RIVER T8S 1S9,T8S 1S9,56.237706,-117.29125
BETTER THAN FRED'S,9903 101 ST GRANDE PRAIRIE T8V 2P6,T8V 2P6,55.170052,-118.797426
BOSTON PIZZA,"12117 100 ST, GRANDE PRAIRIE, ALBERTA, T8V 4H1",T8V 4H1,55.190084,-118.793492
EGANS PUB,11920 100 ST GRANDE PRAIRIE T8V 4H5,T8V 4H5,55.1885637,-118.7971916
STANFORD INN,11401 100 AVE GRANDE PRAIRIE T8V 5M6,T8V 5M6,55.169477,-118.838311
CROWN & ANCHOR PUB,8024 100 ST GRANDE PRAIRIE T8V 6H7,T8V 6H7,55.1534546,-118.7948548
LIONS DEN PUB,10702 108A ST GRANDE PRAIRIE T8V 7M5,T8V 7M5,55.1733438,-118.8207856
BOSTON PIZZA,"11250 WESTGATE DR, GRANDE PRAIRIE, ALBERTA, T8V 8L2",T8V 8L2,55.1714856,-118.8368006
SLICK'S MOTORSPORTS BAR & GRILL INC.,5403 40 AVE WETASKIWIN T9A 0A6,T9A 0A6,52.959548,-113.384571
BOSTON PIZZA,"5527A 49 AVE, WETASKIWIN, ALBERTA, T9A 0R5",T9A 0R5,52.9699061,-113.3896233
BOSTON PIZZA,"6601 HWY 16A W, VEGREVILLE, ALBERTA, T9C 0A3",T9C 0A3,53.5025189,-112.0788103
BOSTON PIZZA,"5309 50 AVENUE, LEDUC, ALBERTA, T9E 6T2",T9E 6T2,53.263986,-113.5611078
KOSMOS RESTAURANT & LOUNGE ,5011 50 AVE LEDUC T9E 6W6,T9E 6W6,53.264484,-113.554039
NISKU INN & CONFERENCE CENTRE,1101 4 ST NISKU T9E 7N1,T9E 7N1,53.3101047,-113.5370952
SMOKEHOUSE BBQ,110 - 5401 DISCOVERY WAY LEDUC T9E 8N4,T9E 8N4,53.268267,-113.566593
BLACKJACK ROADHOUSE,108 8020 SPARROW DR LEDUC T9E7G3,T9E7G3,53.303032,-113.543781
BOSTON PIZZA,"135-180 MIQUELON AVENUE, DEVON, ALBERTA, T9G 0A6",T9G 0A6,53.3526796,-113.7296785
MONTANA'S COOKHOUSE,"9705 HARDIN ST, FORT MCMURRAY, ALBERTA, T9H 1L2",T9H 1L2,56.723734,-111.380799
BOSTON PIZZA,"10202 MACDONALD AVE, FORT MCMURRAY, ALBERTA, T9H 1T4",T9H 1T4,56.7294644,-111.3881976
PODOLLAN PUB - FORT MCMURRAY,10131 FRANKLIN AVE FORT MCMURRAY T9H 2K8,T9H 2K8,56.7293793,-111.3867991
BOSTON PIZZA,"226 GREGOIRE DR, FORT MCMURRAY, ALBERTA, T9H 4A4",T9H 4A4,56.677326,-111.348332
CASINO DENE,RR 423 HIGHWAY 28 COLD LAKE T9M 1P4,T9M 1P4,54.4137858,-110.2100375
BOSTON PIZZA,"4308 50 ST, COLD LAKE, ALBERTA, T9M 1S6",T9M 1S6,54.407785,-110.2060112
BOSTON PIZZA,"5406 EASTPOINT WAY, BONNYVILLE, ALBERTA, T9N 0E7",T9N 0E7,54.2724779,-110.7203324
NEW WESTERN ATHABASCA INN,5211 41 AVE ATHABASCA T9S 1A5,T9S 1A5,54.7087269,-113.2884142
NEIGHBOURS PUB - LOA,101 4810 50 ST ATHABASCA T9S 1C9,T9S 1C9,54.718557,-113.2857933
BOSTON PIZZA,"6303 44 ST, LLOYDMINSTER, ALBERTA, T9V 2G6",T9V 2G6,53.2774693,-110.0378049
BOSTON PIZZA WAINWRIGHT,617 14 AVE WAINWRIGHT T9W 1B3,T9W 1B3,52.8428775,-110.8610858
1979 TAPHOUSE & GRILL,1418 14 AVENUE WAINWRIGHT T9W 1J8,T9W 1J8,52.844082,-110.849178
BOSTON PIZZA,"100 5208 46 AVE, VERMILION, ALBERTA, T9X 1X8",T9X 1X8,53.34953,-110.8586463
BOSTON PIZZA,"1002 TRANS CANADA HWY, GOLDEN, BRITISH COLUMBIA, V0A 1H0",V0A 1H0,51.310294,-116.9683495
BOSTON PIZZA,"1622 7 AVE HWY 3, FERNIE, BRITISH COLUMBIA, V0B 1M0",V0B 1M0,49.5040452,-115.063065
BOSTON PIZZA,"4501 50 AVE, FORT NELSON, BRITISH COLUMBIA, V0C 1R0",V0C 1R0,58.8030168,-122.6878038
BOSTON PIZZA,"1492 MAIN ST, SMITHERS BRITISH COLUMBIA, V0J 2N0",V0J 2N0,54.7815492,-127.1640821
REYNOLDS HOTEL,PO BOX 430 LILLOOET V0K 1V0,V0K 1V0,50.6863017,-121.9367502
NICKLAUS NORTH GOLF CLUB,"8080 NICKLAUS NORTH BLVD, WHISTLER, BRITISH COLUMBIA, V0N 1B0",V0N 1B0,50.1425569,-122.947941
ROSIE'S HOUSE,"2011 INNSBRUCK, WHISTLER, BRITISH COLUMBIA, V0N 1B2",V0N 1B2,50.094302,-122.992734
GRASSHOPPER PUB,12671 SUNSHINE COAST HWY MADEIRA PARK V0N 2H0,V0N 2H0,49.622909,-124.020729
PEMBERTON HOTEL,PO BOX 128 PEMBERTON V0N 2L0,V0N 2L0,50.510851,-123.0112056
LIGHTHOUSE PUB BISTRO,5764 WHARF RD SECHELT V0N 3A0,V0N 3A0,49.4814292,-123.7578186
FURRY CREEK GOLF CLUB,"150 COUNTRY CLUB RD, LIONS BAY, BRITISH COLUMBIA, V0N 3Z2",V0N 3Z2,49.5752093,-123.2147242
ARBUTUS RIDGE GOLF & COUNTRY CLUB,"3515 TELEGRAPH RD, COBBLE HILL, BRITISH COLUMBIA, V0R 1L0",V0R 1L0,48.6862717,-123.5529489
MONTANA'S COOKHOUSE,"500 STEMWINDER DR, KIMBERLEY, BRITISH COLUMBIA, V1A 2Y6",V1A 2Y6,49.689607,-116.000915
BOSTON PIZZA,"510 1500 CRANBROOK ST N, CRANBROOK, BRITISH COLUMBIA, V1C 3S8",V1C 3S8,49.5252943,-115.7505557
BOSTON PIZZA,"1525 ALASKA AVE, DAWSON CREEK, BRITISH COLUMBIA, V1G 1Z8",V1G 1Z8,55.7637568,-120.2457785
BOSTON PIZZA,"9824 100 ST, FORT ST JOHN, BRITISH COLUMBIA, V1J 3Y1",V1J 3Y1,56.2450562,-120.8481461
MONTANA'S COOKHOUSE,"8808 96A ST, FORT ST JOHN, BRITISH COLUMBIA, V1J 6E2",V1J 6E2,56.2359772,-120.8399022
BOSTON PIZZA,"3939 CRAWFORD AVE, MERRITT, BRITISH COLUMBIA, V1K 0A4",V1K 0A4,50.1236141,-120.7514731
MONTANA'S COOKHOUSE,"20090 91A AVE, LANGLEY BRITISH COLUMBIA, V1M 3Y9",V1M 3Y9,49.16793,-122.6654001
BOSTON PIZZA,"BLDG D 20090 91A AVE, LANGLEY, BRITISH COLUMBIA, V1M3Y9",V1M3Y9,49.16793,-122.6654001
BOSTON PIZZA,"114 1983 COLUMBIA AVE, CASTLEGAR, BRITISH COLUMBIA, V1N 2W8",V1N 2W8,49.2960706,-117.6530257
BOSTON PIZZA,"3604 32 ST, VERNON, BRITISH COLUMBIA, V1T 5M3",V1T 5M3,50.2686395,-119.2744233
OKANAGAN GOLF CLUB,"3200 VIA CENTRALE, KELOWNA, BRITISH COLUMBIA, V1V 2A4",V1V 2A4,49.9570154,-119.3956943
GALLAGHER'S CANYON GOLF RESORT,"4320 GALLAGHER'S DR W, KELOWNA BRITISH COLUMBIA, V1W 3Z9",V1W 3Z9,49.8409575,-119.3798175
BOSTON PIZZA,"DILWORTH CTR,  BRITISH COLUMBIA, V1X 4H9",V1X 4H9,49.8823603,-119.4311561
Wings,1 590 HWY 33 WEST Kelowna V1X 7K8,V1X 7K8,49.8899496,-119.3978577
MONTANA'S COOKHOUSE,"400 1500 BANKS RD, KELOWNA, BRITISH COLUMBIA, V1X 7Y1",V1X 7Y1,49.8880184,-119.4279438
BOSTON PIZZA,"545 HARVEY AVE, KELOWNA, BRITISH COLUMBIA, V1Y 6C7",V1Y 6C7,49.8833897,-119.4915553
O`FLANNIGAN`S PUB,348 BERNARD AVENUE KELOWNA V1Y 6N5,V1Y 6N5,49.886632,-119.495953
TONICS PUB & GRILL,1654 ELLIS ST KELOWNA V1Y 8L1,V1Y 8L1,49.8845283,-119.4935191
RUSTY'S STEAKHOUSE,1-1525 DILWORTH DR KELOWNA V1Y9N5,V1Y9N5,49.8864149,-119.4370106
BOSTON PIZZA,"1900 MAIN ST, PENTICTON, BRITISH COLUMBIA, V2A 5H4",V2A 5H4,49.4772198,-119.5831022
BOSTON PIZZA,"102 340 VICTORIA ST, KAMLOOPS, BRITISH COLUMBIA, V2C 2A5",V2C 2A5,50.6761019,-120.333162
BOSTON PIZZA,"700 500 NOTRE DAME DR, KAMLOOPS, BRITISH COLUMBIA, V2C 6T6",V2C 6T6,50.6648566,-120.3511083
MONTANA'S COOKHOUSE,"600 1055 HILLSIDE DR, KAMLOOPS, BRITISH COLUMBIA, V2E 2S5",V2E 2S5,50.6647355,-120.3703747
BOSTON PIZZA,"C/O BOSTON PIZZA, WILLIAMS LAKE, BRITISH COLUMBIA, V2G 4K4",V2G 4K4,52.1348127,-122.1351789
BOSTON PIZZA,"102 841 W CENTRAL ST, PRINCE GEORGE, BRITISH COLUMBIA, V2M 3C8",V2M 3C8,53.9167317,-122.7830146
BOSTON PIZZA,"2500 VANCE RD, PRINCE GEORGE, BRITISH COLUMBIA, V2N 6Z3",V2N 6Z3,53.8812267,-122.7712652
BOSTON PIZZA,"45305 LUCKAKUCK WAY, SARDIS, BRITISH COLUMBIA, V2R 2T7",V2R 2T7,49.1429679,-121.9711515
BOSTON PIZZA,"2060 SUMAS WAY, ABBOTSFORD, BRITISH COLUMBIA, V2S 2C7",V2S 2C7,49.0393258,-122.2699008
BOSTON PIZZA,"32530 S FRASER WAY, ABBOTSFORD, BRITISH COLUMBIA, V2T 1X5",V2T 1X5,49.0510789,-122.3229819
BOSTON PIZZA,"160 - 32555 LONDON AVE,  BRITISH COLUMBIA, V2V 6M7",V2V 6M7,49.1300681,-122.32063
MONTANA'S COOKHOUSE,"20100 LANGLEY BYPASS, LANGLEY, BRITISH COLUMBIA, V3A 5E7",V3A 5E7,49.1129633,-122.6650414
BOSTON PIZZA,"19700 LANGLEY BYPASS, LANGLEY, BRITISH COLUMBIA, V3A 7B1",V3A 7B1,49.1100462,-122.6776003
BOSTON PIZZA - PINETREE,3025 LOUGHEED HWY COQUITLAM V3B 1C6,V3B 1C6,49.2759127,-122.7937294
MONTANA'S COOKHOUSE,"UNIT 1046 2929 BARNET HWY, COQUITLAM, BRITISH COLUMBIA, V3B 5R5",V3B 5R5,49.2796092,-122.7986124
CAT & FIDDLE PUB & BISTRO,1979 BROWN ST PORT COQUITLAM V3C 2N4,V3C 2N4,49.252752,-122.767122
BOSTON PIZZA - BRUNETTE,1035 LOUGHEED HWY COQUITLAM V3K 6N5,V3K 6N5,49.2361595,-122.8674086
BOSTON PIZZA,"1045 COLUMBIA ST, NEW WESTMINSTER, BRITISH COLUMBIA, V3M 1C4",V3M 1C4,49.2004986,-122.9184233
BOSTON PIZZA,"P100 805 BOYD ST, NEW WESTMINSTER, BRITISH COLUMBIA, V3M 5X2",V3M 5X2,49.1913762,-122.9482396
BOSTON PIZZA,"15125 100 AVE, SURREY, BRITISH COLUMBIA, V3R 9P4",V3R 9P4,49.1844447,-122.8034568
BOSTON PIZZA,"801 15980 FRASER HWY, SURREY, BRITISH COLUMBIA, V3S 2W4",V3S 2W4,49.159999,-122.7859943
BOSTON PIZZA,"600 6486 176 ST, SURREY, BRITISH COLUMBIA, V3S 4G3",V3S 4G3,49.1200368,-122.7344211
TUDOR INN HOTEL,187 176 ST SURREY V3S 4N8,V3S 4N8,49.0053528,-122.736254
MORGAN'S PUBLIC HOUSE,UNIT 10 16051 24 AVE SURREY V3S 9H7,V3S 9H7,49.0458809,-122.7772914
BOSTON PIZZA,"10153 KING GEORGE HWY, SURREY, BRITISH COLUMBIA, V3T2W1",V3T2W1,49.1867277,-122.8486001
BOSTON PIZZA,"12060 NORDEL WAY, SURREY, BRITISH COLUMBIA, V3W 1P6",V3W 1P6,49.1616405,-122.8882256
BOSTON PIZZA,"600 7488 KING GEORGE HWY, SURREY, BRITISH COLUMBIA, V3W 5A8",V3W 5A8,49.1388389,-122.843561
SWAN E SET BAY COUNTRY CLUB,16651 RANNIE RD PITT MEADOWS V3Y 1Z1,V3Y 1Z1,49.3052158,-122.6585316
PITT MEADOWS GOLF CLUB,13615 HARRIS RD PITT MEADOWS V3Y 2R8,V3Y 2R8,49.2492821,-122.6930515
BOSTON PIZZA - PITT MEADOWS,510 19800 LOUGHEED HWY PITT MEADOWS V3Y 2W1,V3Y 2W1,49.2215204,-122.6717465
BOSTON PIZZA,"1956 152 ST, SURREY, BRITISH COLUMBIA, V4A 4N6",V4A 4N6,49.0375531,-122.8008301
THE HEMINGWAY PUBLIC HOUSE ,"14995 MARINE DR, WHITE ROCK, BRITISH COLUMBIA, V4B 1C3",V4B 1C3,49.0217414,-122.8074644
KENNEDY'S PUB,11906 88 AVE DELTA V4C 3C8,V4C 3C8,49.1629361,-122.8929397
BOSTON PIZZA,"116 6345 120 ST, DELTA, BRITISH COLUMBIA, V4E 2A6",V4E 2A6,49.1183139,-122.8907158
RCL LADNER 61,4896 DELTA ST DELTA V4K 2V2,V4K 2V2,49.09193,-123.0863
WHISKI JACK'S PUB,2442 DROUGHT RD WESTBANK V4T 1P7,V4T 1P7,49.830617,-119.6277028
BOSTON PIZZA,"2563 DOBBIN RD, WESTBANK, BRITISH COLUMBIA, V4T 2J6",V4T 2J6,49.8280939,-119.635701
BOSTON PIZZA,"900 26310 FRASER HWY, ALDERGROVE, BRITISH COLUMBIA, V4W 2Z7",V4W 2Z7,49.0588654,-122.4946237
HIGHLAND PUB @ SFU,SIMON FRASER STUDENT SOCIETY BURNABY V5A 4B5,V5A 4B5,49.2748421,-122.9114543
BOSTON PIZZA,"4219 A LOUGHEED HWY, BURNABY, BRITISH COLUMBIA, V5C 3Y6",V5C 3Y6,49.2666436,-123.0113944
BOSTON PIZZA,"135 6200 MCKAY AVE, BURNABY, BRITISH COLUMBIA, V5H 4L7",V5H 4L7,49.2268052,-123.0038286
BOSTON PIZZA,"104 4680 KINGSWAY, BURNABY, BRITISH COLUMBIA, V5H 4L9",V5H 4L9,49.2287575,-123.0014049
BOSTON PIZZA,"5801 MARINE WAY, BURNABY, BRITISH COLUMBIA, V5J 0A6",V5J 0A6,49.1990874,-122.9757458
ZAWA RESTAURANT,920 COMMERCIAL DR VANCOUVER V5L 3W7,V5L 3W7,49.2762952,-123.0695044
VERA'S ON THE DRIVE,1438 COMMERIAL DRIVE VANCOUVER V5L 3X9,V5L 3X9,49.2716434,-123.0694547
CAFFE ROMA,1510 COMMERCIAL DR VANCOUVER V5L 3Y2,V5L 3Y2,49.2711459,-123.0696141
THE LIBRA ROOM,1608 COMMERCIAL DR VANCOUVER V5L 3Y4,V5L 3Y4,49.2703067,-123.0693175
BOSTON PIZZA,"2850 BENTALL ST, VANCOUVER, BRITISH COLUMBIA, V5M 4H4",V5M 4H4,49.2587266,-123.0319948
TOBY'S PUB & GRILL,2733 COMMERCIAL DR VANCOUVER V5N 4C5,V5N 4C5,49.2601561,-123.0700488
CROATION CULTURAL CENTRE,MEMBERS LODGE VANCOUVER V5N 4E4,V5N 4E4,49.2555764,-123.0690772
EASTSIDE CRAFT HOUSE,1445 E 41 AVE VANCOUVER BC,V5P 1J8,49.2329786,-123.0760497
HIPPOS SPORTS BAR,725 SE MARINE DR VANCOUVER V5X 2T9,V5X 2T9,49.2115773,-123.090302
FAIRVIEW PUB,RAMADA VANCOUVER CENTRE VANCOUVER V5Z 1J8,V5Z 1J8,49.2630201,-123.122313
SPEAK EASY ON BROADWAY,901 WEST BROADWAY VANCOUVER V5Z 1K3,V5Z 1K3,49.2634252,-123.1241686
IVANHOE HOTEL,1038 MAIN ST VANCOUVER V6A 2W4,V6A 2W4,49.275115,-123.099599
BOSTON PIZZA,"808 BEATTY ST, VANCOUVER BRITISH COLUMBIA, V6B 1C2",V6B 1C2,49.2771837,-123.1141426
WILDEBEEST ,120 WEST HASTINGS STREET VANCOUVER V6B 1G8,V6B 1G8,49.2820675,-123.1079096
WEST HOTEL,488 CARRALL ST VANCOUVER V6B 2J7,V6B 2J7,49.2808416,-123.1042289
THE PINT - LOTUS HOTEL,455 ABBOTT ST VANCOUVER V6B 2L2,V6B 2L2,49.2813866,-123.1076465
JIMMY'S TAPHOUSE,783 HOMER STREET VANCOUVER V6B 2W1,V6B 2W1,49.2797862,-123.1168023
HOMER ST. CAF AND BAR,"898 HOMER ST., Vancouver, BC, V6B 2W5",V6B 2W5,49.278518,-123.118168
KINGSTON TAPHOUSE & GRILLE,755 RICHARDS ST VANCOUVER V6B 3A6,V6B 3A6,49.2808539,-123.1172801
RED CARD SPORTS BAR,900 SEYMOUR ST VANCOUVER V6B 3L9,V6B 3L9,49.2793994,-123.1204307
131 WATER ST. SOCIAL HOUSE,131 WATER ST VANCOUVER V6B 4M3,V6B 4M3,49.2843832,-123.107049
PHAT,1055 MAINLAND ST VANCOUVER V6B 5P9,V6B 5P9,49.2761217,-123.1200614
ELEPHANT & CASTLE PUB & RESTAURANT,385 BURRARD ST VANCOUVER V6C 2G8,V6C 2G8,49.2873021,-123.1167827
FOUNTAINHEAD PUB,1025 DAVIE ST VANCOUVER V6E 1M6,V6E 1M6,49.2798428,-123.1297261
JUNCTION PUB,1138 DAVIE ST VANCOUVER V6E 1N1,V6E 1N1,49.2809453,-123.1320746
SPEAKEASY ON DAVIE,1239 DAVIE VANCOUVER BC,V6E 1N4,49.2822392,-123.1337547
BOSTON PIZZA - W BROADWAY,190 1333 W BROADWAY VANCOUVER V6H 4C1,V6H 4C1,49.2638286,-123.1342819
THE KINGSHEAD,1618 YEW ST VANCOUVER V6K 3E7,V6K 3E7,49.2713917,-123.1549964
RCL WEST POINT GREY 142,3679 W BROADWAY VANCOUVER V6R 2B8,V6R 2B8,49.2645369,-123.1854209
THE DUNBAR,4497 DUNBAR ST VANCOUVER V6S 2G4,V6S 2G4,49.2463055,-123.1854199
MAYFAIR LAKES GOLF COURSE,"5460 7 RD, RICHMOND, BRITISH COLUMBIA, V6V 1R7",V6V 1R7,49.1750934,-123.0350916
BOSTON PIZZA,"50 8100 ACKROYD RD, RICHMOND, BRITISH COLUMBIA, V6X 1B5",V6X 1B5,49.1712259,-123.1350114
CEILI'S IRISH PUB- RICHMOND,7311 WESTMINSTER HWY RICHMOND V6X 4C5,V6X 4C5,49.1702156,-123.1451117
LEGENDS NEIGHBOURHOOD PUB,9031 BLUNDELL RD RICHMOND V6Y 1K4,V6Y 1K4,49.155713,-123.124846
LENNOX PUB,800 GRANVILLE ST VANCOUVER V6Z 1K3,V6Z 1K3,49.2810691,-123.119703
ROXY BURGER,910 GRANVILLE ST VANCOUVER V6Z 1L2,V6Z 1L2,49.2798724,-123.1215092
BOSTON PIZZA - THEATRE,865 HORNBY ST VANCOUVER V6Z 2G3,V6Z 2G3,49.2822427,-123.1230452
BOSTON PIZZA,"2000 11662 STEVESTON HWY, RICHMOND, BRITISH COLUMBIA, V7A 1N6",V7A 1N6,49.1330787,-123.095333
TOBYS NORTH SHORE,1378 MAIN STREET NORTH VANCOUVER V7J 1C6,V7J 1C6,49.3063134,-123.0350663
HOLIDAY INN / SEYMOUR'S PUB,210 720 LILLOOET RD NORTH VANCOUVER V7J 2H5,V7J 2H5,49.3140143,-123.024531
RUSTY GULL NEIGHBOURHOOD PUB,175 E 1 ST NORTH VANCOUVER V7L 1B2,V7L 1B2,49.3107151,-123.0759256
BOSTON PIZZA,"88 CHESTERFIELD AVE, NORTH VANCOUVER, BRITISH COLUMBIA, V7M 0B3",V7M 0B3,49.3127268,-123.0822189
HURRICANE GRILL,999 MARINE DR NORTH VANCOUVER BC,V7P 1S4,49.3235761,-123.1019458
BOSTON PIZZA,"1078 MARINE DR, NORTH VANCOUVER, BRITISH COLUMBIA, V7P 1S5",V7P 1S5,49.3242904,-123.1040204
BOSTON PIZZA,"40167 GLENALDER ST, SQUAMISH, BRITISH COLUMBIA, V8B 0G2",V8B 0G2,49.7367806,-123.1338327
BOSTON PIZZA,"4924 HWY 16 W, TERRACE, BRITISH COLUMBIA, V8G1L8",V8G1L8,54.5166836,-128.6091989
BOSTON PIZZA,"3994 SHELBOURNE ST, VICTORIA, BRITISH COLUMBIA, V8N 3E2",V8N 3E2,48.472042,-123.3338572
ROSS BAY PUB,7 1516 FAIRFIELD RD VICTORIA V8S 2G2,V8S 2G2,48.4128361,-123.3383437
BOSTON PIZZA,"10 797 HILLSIDE AVE, VICTORIA, BRITISH COLUMBIA, V8T 1Z5",V8T 1Z5,48.4385353,-123.3636351
REDD'S ROADHOUSE RESTAURANT,3020 BLANSHARD ST VICTORIA V8T 5B5,V8T 5B5,48.4441385,-123.3670155
BELLEVILLE WATERING HOLE,427 BELLEVILLE ST VICTORIA V8V 1X3,V8V 1X3,48.4210831,-123.3731849
YATES STREET TAPHOUSE,DOMINION HOTEL VICTORIA V8W 1L6,V8W 1L6,48.4258205,-123.3635192
STRATHCONA HOTEL,919 DOUGLAS ST VICTORIA V8W 2C2,V8W 2C2,48.4234939,-123.3651407
ESQUIMALT INN,856 ESQUIMALT RD VICTORIA BC,V8W 3M4,48.4317517,-123.3986756
BOSTON PIZZA,"102 3510 BLANSHARD ST, VICTORIA, BRITISH COLUMBIA, V8X 1W3",V8X 1W3,48.4562716,-123.3740118
RED LION INN,3366 DOUGLAS ST VICTORIA V8Z 3L3,V8Z 3L3,48.4513005,-123.3754523
MONTANA'S COOKHOUSE,"315 BURNSIDE RD W, VICTORIA, BRITISH COLUMBIA, V8Z 7L6",V8Z 7L6,48.4559176,-123.3955387
BOSTON PIZZA,"2755 MILLSTREAM RD, VICTORIA, BRITISH COLUMBIA, V9B 3S5",V9B 3S5,48.459206,-123.4973462
METROPOLITAN BAR & GRILL,829 MCCALLUM RD VICTORIA V9B 6W6,V9B 6W6,48.4575408,-123.5046859
OLYMPIC VIEW GOLF CLUB,"643 LATORIA RD, VICTORIA, BRITISH COLUMBIA, V9C 3A3",V9C 3A3,48.4099399,-123.5128141
BOSTON PIZZA,"5845 TRANS CANADA HWY, DUNCAN, BRITISH COLUMBIA, V9L 3R9",V9L 3R9,48.783435,-123.6993961
BOSTON PIZZA,"2633 CLIFFE AVE, COURTENAY, BRITISH COLUMBIA, V9N2L8",V9N2L8,49.673113,-124.981391
BOSTON PIZZA,"430 EAST ISLAND HWY, PARKSVILLE, BRITISH COLUMBIA, V9P2H1",V9P2H1,49.31776,-124.298504
Windward neighbourhood pub,BEAUFORT CENTRE MALL Nanaimo V9S 5K8,V9S 5K8,49.1825057,-123.9717964
BOSTON PIZZA,"2 5779 TURNER RD, Nanaimo, BRITISH COLUMBIA, V9T 6L8",V9T 6L8,49.2241828,-124.0366901
MONTANA'S COOKHOUSE,"4715 RUTHERFORD RD, Nanaimo, BRITISH COLUMBIA, V9T4K6",V9T4K6,49.2162856,-124.0287427
BOSTON PIZZA,"1309 N ISLAND HWY, CAMPBELL RIVER, BRITISH COLUMBIA, V9W 2C9",V9W 2C9,50.0307532,-125.2459977